{
 "type": "FeatureCollection",
 "crs": {
  "type": "name",
  "properties": {
   "name": "urn:ogc:def:crs:OGC:1.3:CRS84"
  }
 },
 "properties": {
  "title": "Curaçao coastal segments",
  "source": "Coastline from OpenStreetMap, natural=coastline ways within 12.02..12.4N, -69.18..-68.72E, retrieved 2026-10-04 via Overpass; landmark positions from OpenStreetMap, listed in island.toml.",
  "license": "Geometry (c) OpenStreetMap contributors, ODbL 1.0, https://www.openstreetmap.org/copyright",
  "method": "Arcs of the merged coastline between named landmarks, snapped to the nearest coastline point, cut in EPSG:32619 and simplified to 15 m. Built by scripts/make_island_segments.py.",
  "island": "Curaçao"
 },
 "features": [
  {
   "type": "Feature",
   "id": "watamula_bartolbaai",
   "properties": {
    "name": "Watamula to Bartolbaai",
    "exposure": "windward",
    "tile": "19PDP",
    "from": "Watamula, by Noordpunt",
    "from_osm": "node/332795865",
    "to": "Bartolbaai",
    "to_osm": "node/12618775611",
    "length_m": 16532,
    "note": "North-west point, the Shete Boka inlets (Boka Tabla, Boka Pistol) and the Christoffel park coast."
   },
   "geometry": {
    "type": "LineString",
    "coordinates": [
     [
      -69.06045983630962,
      12.332093112173855
     ],
     [
      -69.0615825,
      12.3317681
     ],
     [
      -69.062444,
      12.332040399999999
     ],
     [
      -69.0638942,
      12.3318737
     ],
     [
      -69.06481800000002,
      12.330577699999997
     ],
     [
      -69.0652663,
      12.330468199999999
     ],
     [
      -69.0660226,
      12.330796599999998
     ],
     [
      -69.0661204,
      12.331750599999998
     ],
     [
      -69.0646318,
      12.332429199999998
     ],
     [
      -69.0640631,
      12.333000500000002
     ],
     [
      -69.0618852,
      12.332633600000001
     ],
     [
      -69.0610188,
      12.333121
     ],
     [
      -69.06079020000001,
      12.333508299999997
     ],
     [
      -69.0612495,
      12.3349185
     ],
     [
      -69.0622017,
      12.337012099999999
     ],
     [
      -69.0656081,
      12.3419277
     ],
     [
      -69.0662169,
      12.343282399999998
     ],
     [
      -69.0669787,
      12.344089399999996
     ],
     [
      -69.0689313,
      12.347348899999998
     ],
     [
      -69.0703207,
      12.348708799999999
     ],
     [
      -69.0705112,
      12.3491594
     ],
     [
      -69.0707687,
      12.3492066
     ],
     [
      -69.0707848,
      12.349754200000001
     ],
     [
      -69.0711978,
      12.349777799999998
     ],
     [
      -69.07166720000001,
      12.350647700000003
     ],
     [
      -69.07192200000001,
      12.350684299999998
     ],
     [
      -69.0720212,
      12.351229300000002
     ],
     [
      -69.0728393,
      12.351748099999996
     ],
     [
      -69.07307,
      12.352248599999998
     ],
     [
      -69.07447820000002,
      12.353445899999999
     ],
     [
      -69.074537,
      12.3537673
     ],
     [
      -69.0750682,
      12.3542687
     ],
     [
      -69.076243,
      12.354936800000003
     ],
     [
      -69.0764362,
      12.355248600000001
     ],
     [
      -69.0769002,
      12.3553377
     ],
     [
      -69.0768968,
      12.355697399999999
     ],
     [
      -69.0774956,
      12.355730699999999
     ],
     [
      -69.0782091,
      12.3564748
     ],
     [
      -69.0787697,
      12.3564486
     ],
     [
      -69.0788287,
      12.3567577
     ],
     [
      -69.0793598,
      12.356781299999998
     ],
     [
      -69.0797768,
      12.357237399999999
     ],
     [
      -69.081181,
      12.357373500000001
     ],
     [
      -69.0815511,
      12.357648599999997
     ],
     [
      -69.0822217,
      12.357501800000001
     ],
     [
      -69.0829325,
      12.357852899999997
     ],
     [
      -69.0837774,
      12.35779
     ],
     [
      -69.0852258,
      12.358146399999999
     ],
     [
      -69.0862235,
      12.357970799999997
     ],
     [
      -69.0880099,
      12.3581621
     ],
     [
      -69.09477710000002,
      12.359218
     ],
     [
      -69.0958482,
      12.359674699999996
     ],
     [
      -69.0962083,
      12.359598799999999
     ],
     [
      -69.096268,
      12.358765199999999
     ],
     [
      -69.0970704,
      12.358672
     ],
     [
      -69.0973976,
      12.3588459
     ],
     [
      -69.0976176,
      12.359405299999999
     ],
     [
      -69.0976337,
      12.3603603
     ],
     [
      -69.097918,
      12.360425800000002
     ],
     [
      -69.0985215,
      12.359928
     ],
     [
      -69.0983552,
      12.3609708
     ],
     [
      -69.099133,
      12.3611201
     ],
     [
      -69.0999591,
      12.3617725
     ],
     [
      -69.10099180000002,
      12.362204800000002
     ],
     [
      -69.1016221,
      12.3622022
     ],
     [
      -69.102011,
      12.362715699999999
     ],
     [
      -69.1033268,
      12.363320399999997
     ],
     [
      -69.10346600000001,
      12.363192399999999
     ],
     [
      -69.1034906,
      12.363391199999999
     ],
     [
      -69.1041246,
      12.363503
     ],
     [
      -69.104671,
      12.363884099999998
     ],
     [
      -69.105345,
      12.363391699999998
     ],
     [
      -69.1051519,
      12.363928799999998
     ],
     [
      -69.1053692,
      12.364306099999997
     ],
     [
      -69.1082113,
      12.365589499999997
     ],
     [
      -69.1086208,
      12.3653237
     ],
     [
      -69.1085213,
      12.365585399999999
     ],
     [
      -69.1089197,
      12.365940999999998
     ],
     [
      -69.109776,
      12.366187200000002
     ],
     [
      -69.111589,
      12.3673047
     ],
     [
      -69.1122572,
      12.3671062
     ],
     [
      -69.1124863,
      12.3667898
     ],
     [
      -69.1127252,
      12.366884800000001
     ],
     [
      -69.1123215,
      12.367315799999998
     ],
     [
      -69.1123509,
      12.367649200000002
     ],
     [
      -69.1145221,
      12.368833699999996
     ],
     [
      -69.1153187,
      12.368900999999996
     ],
     [
      -69.11568480000001,
      12.368551800000002
     ],
     [
      -69.1155612,
      12.369013100000002
     ],
     [
      -69.1160631,
      12.3690613
     ],
     [
      -69.1163045,
      12.3697215
     ],
     [
      -69.1190932,
      12.3713504
     ],
     [
      -69.1207436,
      12.371969399999998
     ],
     [
      -69.1212261,
      12.3718935
     ],
     [
      -69.1214878,
      12.372360699999998
     ],
     [
      -69.122005,
      12.3726296
     ],
     [
      -69.12235280000002,
      12.372110199999998
     ],
     [
      -69.1225929,
      12.372495299999999
     ],
     [
      -69.1230073,
      12.372448099999998
     ],
     [
      -69.1223555,
      12.372675599999999
     ],
     [
      -69.1223888,
      12.3728704
     ],
     [
      -69.1228869,
      12.3729723
     ],
     [
      -69.1229374,
      12.3732639
     ],
     [
      -69.1245385,
      12.374469399999997
     ],
     [
      -69.1251286,
      12.3738812
     ],
     [
      -69.1252922,
      12.373967699999996
     ],
     [
      -69.1248899,
      12.374736599999999
     ],
     [
      -69.1255832,
      12.374454999999998
     ],
     [
      -69.1255286,
      12.375335999999999
     ],
     [
      -69.1271541,
      12.376366900000003
     ],
     [
      -69.1275845,
      12.376144299999996
     ],
     [
      -69.127492,
      12.3765543
     ],
     [
      -69.1283986,
      12.377219699999998
     ],
     [
      -69.1291603,
      12.377070399999997
     ],
     [
      -69.1289699,
      12.3775813
     ],
     [
      -69.1302534,
      12.378574199999996
     ],
     [
      -69.1306255,
      12.3786082
     ],
     [
      -69.1307673,
      12.379039299999999
     ],
     [
      -69.1312017,
      12.379123499999997
     ],
     [
      -69.1319009,
      12.378667299999998
     ],
     [
      -69.1314072,
      12.3794422
     ],
     [
      -69.13383220000001,
      12.381368800000002
     ],
     [
      -69.1345409,
      12.3808823
     ],
     [
      -69.1340664,
      12.381490799999998
     ],
     [
      -69.1342584,
      12.3818104
     ],
     [
      -69.13762,
      12.383994599999998
     ],
     [
      -69.13981940000001,
      12.384911500000001
     ],
     [
      -69.1413652,
      12.3862366
     ],
     [
      -69.1417111,
      12.385795599999996
     ],
     [
      -69.141602,
      12.386371499999997
     ],
     [
      -69.1433971,
      12.387659
     ],
     [
      -69.1442168,
      12.387082399999999
     ],
     [
      -69.1439566,
      12.3879334
     ],
     [
      -69.1444439,
      12.3884787
     ],
     [
      -69.1469085,
      12.3902873
     ],
     [
      -69.1492528,
      12.3915814
     ],
     [
      -69.1521201,
      12.3926581
     ],
     [
      -69.1536543,
      12.3927079
     ],
     [
      -69.1562158,
      12.390572799999997
     ]
    ]
   }
  },
  {
   "type": "Feature",
   "id": "bartolbaai_san_pedro",
   "properties": {
    "name": "Bartolbaai to Boka San Pedro",
    "exposure": "windward",
    "tile": "19PDP",
    "from": "Bartolbaai",
    "from_osm": "node/12618775611",
    "to": "Boka San Pedro",
    "to_osm": "node/3197111424",
    "length_m": 13698,
    "note": "Playa Grandi, Bergantinbaai, Boka Santu Pretu, Boka Patrick and Boka Ascension."
   },
   "geometry": {
    "type": "LineString",
    "coordinates": [
     [
      -69.0399072,
      12.258565199999998
     ],
     [
      -69.0401486,
      12.258932199999999
     ],
     [
      -69.0399233,
      12.259556000000002
     ],
     [
      -69.0407199,
      12.2614195
     ],
     [
      -69.0414655,
      12.2620276
     ],
     [
      -69.0413609,
      12.2624732
     ],
     [
      -69.041951,
      12.263199199999999
     ],
     [
      -69.0420315,
      12.264003799999998
     ],
     [
      -69.0423828,
      12.2641821
     ],
     [
      -69.0426725,
      12.2649474
     ],
     [
      -69.0429676,
      12.265164899999998
     ],
     [
      -69.0439466,
      12.2672277
     ],
     [
      -69.04491,
      12.26824
     ],
     [
      -69.0459498,
      12.269958100000002
     ],
     [
      -69.0464627,
      12.270328299999997
     ],
     [
      -69.0467669,
      12.271291399999999
     ],
     [
      -69.0481523,
      12.2731719
     ],
     [
      -69.0494156,
      12.274046000000002
     ],
     [
      -69.0502507,
      12.274230199999998
     ],
     [
      -69.0507151,
      12.274158700000003
     ],
     [
      -69.0521109,
      12.2732778
     ],
     [
      -69.052886,
      12.273220099999996
     ],
     [
      -69.0537474,
      12.272683100000002
     ],
     [
      -69.0543537,
      12.2726289
     ],
     [
      -69.0545571,
      12.272056399999999
     ],
     [
      -69.0562844,
      12.272213699999996
     ],
     [
      -69.0564802,
      12.2726016
     ],
     [
      -69.0562308,
      12.272656599999998
     ],
     [
      -69.0562898,
      12.272882000000001
     ],
     [
      -69.0555682,
      12.2726357
     ],
     [
      -69.055013,
      12.272913399999998
     ],
     [
      -69.054372,
      12.272897699999996
     ],
     [
      -69.0534081,
      12.273762999999999
     ],
     [
      -69.05249710000001,
      12.273993299999999
     ],
     [
      -69.0501046,
      12.2759118
     ],
     [
      -69.0497774,
      12.277085900000001
     ],
     [
      -69.0499758,
      12.277914100000002
     ],
     [
      -69.0504254,
      12.2784452
     ],
     [
      -69.0504895,
      12.2792226
     ],
     [
      -69.05095800000001,
      12.2798971
     ],
     [
      -69.0510353,
      12.281105
     ],
     [
      -69.051383,
      12.282178899999998
     ],
     [
      -69.0512658,
      12.282679299999998
     ],
     [
      -69.051378,
      12.2825551
     ],
     [
      -69.0515524,
      12.2827706
     ],
     [
      -69.0515263,
      12.283144399999998
     ],
     [
      -69.0519163,
      12.283590100000001
     ],
     [
      -69.0516981,
      12.283927899999998
     ],
     [
      -69.0523294,
      12.2847463
     ],
     [
      -69.0523899,
      12.285577199999999
     ],
     [
      -69.0527858,
      12.285680200000002
     ],
     [
      -69.0523016,
      12.286533
     ],
     [
      -69.05304,
      12.286529899999998
     ],
     [
      -69.0531827,
      12.286799
     ],
     [
      -69.0530459,
      12.287317999999999
     ],
     [
      -69.0523446,
      12.2873035
     ],
     [
      -69.0523102,
      12.287741299999999
     ],
     [
      -69.0531398,
      12.2874883
     ],
     [
      -69.0536306,
      12.288392499999999
     ],
     [
      -69.05318,
      12.288976899999998
     ],
     [
      -69.0522665,
      12.2893099
     ],
     [
      -69.0526035,
      12.291378400000001
     ],
     [
      -69.0529481,
      12.291889799999998
     ],
     [
      -69.0529266,
      12.2933128
     ],
     [
      -69.0535757,
      12.293624699999997
     ],
     [
      -69.0535057,
      12.295523599999997
     ],
     [
      -69.0542677,
      12.295886399999999
     ],
     [
      -69.0532416,
      12.296058
     ],
     [
      -69.0531179,
      12.2962974
     ],
     [
      -69.0532619,
      12.2976501
     ],
     [
      -69.0536454,
      12.298585699999997
     ],
     [
      -69.0534272,
      12.2995235
     ],
     [
      -69.0536828,
      12.299794599999998
     ],
     [
      -69.0533376,
      12.3003033
     ],
     [
      -69.0536186,
      12.301507699999998
     ],
     [
      -69.0535699,
      12.302940800000002
     ],
     [
      -69.0543866,
      12.302944299999998
     ],
     [
      -69.0545601,
      12.3031403
     ],
     [
      -69.0545568,
      12.3033498
     ],
     [
      -69.0537544,
      12.3033974
     ],
     [
      -69.0536417,
      12.3036228
     ],
     [
      -69.0541638,
      12.304712299999998
     ],
     [
      -69.0540285,
      12.3057669
     ],
     [
      -69.0546933,
      12.306286899999998
     ],
     [
      -69.0540575,
      12.3066035
     ],
     [
      -69.0538222,
      12.307658199999999
     ],
     [
      -69.0537976,
      12.3084597
     ],
     [
      -69.0541621,
      12.3087197
     ],
     [
      -69.0538478,
      12.308937799999999
     ],
     [
      -69.0536481,
      12.309591700000002
     ],
     [
      -69.0534657,
      12.3119035
     ],
     [
      -69.0536937,
      12.3122494
     ],
     [
      -69.0535972,
      12.312456400000002
     ],
     [
      -69.0536748,
      12.3126625
     ],
     [
      -69.0541426,
      12.3126831
     ],
     [
      -69.0552479,
      12.313365799999998
     ],
     [
      -69.0559065,
      12.3133395
     ],
     [
      -69.0563738,
      12.312782299999999
     ],
     [
      -69.057524,
      12.3131571
     ],
     [
      -69.0581569,
      12.312107899999999
     ],
     [
      -69.0578813,
      12.310579
     ],
     [
      -69.0581167,
      12.309964300000003
     ],
     [
      -69.058409,
      12.3098673
     ],
     [
      -69.0587403,
      12.310477899999999
     ],
     [
      -69.0587094,
      12.3109378
     ],
     [
      -69.0583512,
      12.311232000000002
     ],
     [
      -69.0585193,
      12.3114783
     ],
     [
      -69.0598749,
      12.312130000000002
     ],
     [
      -69.0606058,
      12.312206000000002
     ],
     [
      -69.0606098,
      12.312460299999996
     ],
     [
      -69.0602691,
      12.312610999999999
     ],
     [
      -69.0601471,
      12.312468200000001
     ],
     [
      -69.0594149,
      12.313553099999998
     ],
     [
      -69.0596053,
      12.314434899999998
     ],
     [
      -69.0593679,
      12.314858099999999
     ],
     [
      -69.0577948,
      12.314712699999998
     ],
     [
      -69.0577103,
      12.3151542
     ],
     [
      -69.0570934,
      12.314770300000001
     ],
     [
      -69.0559765,
      12.314492799999998
     ],
     [
      -69.053518,
      12.3148738
     ],
     [
      -69.0533263,
      12.3156718
     ],
     [
      -69.0537393,
      12.3201082
     ],
     [
      -69.055196,
      12.323431199999998
     ],
     [
      -69.0555764,
      12.3238801
     ],
     [
      -69.0560381,
      12.323834799999997
     ],
     [
      -69.0557652,
      12.324303599999999
     ],
     [
      -69.0564671,
      12.325650399999999
     ],
     [
      -69.0575817,
      12.327573499999998
     ],
     [
      -69.0579234,
      12.3276187
     ],
     [
      -69.057752,
      12.327843699999999
     ],
     [
      -69.0579165,
      12.328124800000001
     ],
     [
      -69.0586209,
      12.328773899999996
     ],
     [
      -69.0601649,
      12.331058500000003
     ],
     [
      -69.0603363,
      12.332190899999999
     ],
     [
      -69.06045983630962,
      12.332093112173855
     ]
    ]
   }
  },
  {
   "type": "Feature",
   "id": "san_pedro_hato",
   "properties": {
    "name": "Boka San Pedro to Hato",
    "exposure": "windward",
    "tile": "19PDP",
    "from": "Boka San Pedro",
    "from_osm": "node/3197111424",
    "to": "Hato, the coast below Landhuis Hato and the airport",
    "to_osm": "way/398421880",
    "length_m": 13240,
    "note": "The open north coast past Kueba Shingot to the airport."
   },
   "geometry": {
    "type": "LineString",
    "coordinates": [
     [
      -68.9490929,
      12.1881281
     ],
     [
      -68.9504904,
      12.188471600000002
     ],
     [
      -68.9508436,
      12.188743899999999
     ],
     [
      -68.9523281,
      12.1889094
     ],
     [
      -68.9531973,
      12.1895303
     ],
     [
      -68.95387,
      12.189518699999997
     ],
     [
      -68.95538,
      12.190280600000001
     ],
     [
      -68.9568901,
      12.190663399999998
     ],
     [
      -68.9611897,
      12.192354399999997
     ],
     [
      -68.9692078,
      12.1940838
     ],
     [
      -68.9732735,
      12.195547399999999
     ],
     [
      -68.9748967,
      12.1964384
     ],
     [
      -68.9762734,
      12.1968997
     ],
     [
      -68.9780198,
      12.198024700000001
     ],
     [
      -68.980456,
      12.200025399999998
     ],
     [
      -68.9861986,
      12.206613499999996
     ],
     [
      -68.9892912,
      12.209402799999998
     ],
     [
      -68.9901012,
      12.209832699999998
     ],
     [
      -68.9917776,
      12.2113322
     ],
     [
      -68.9941111,
      12.2126351
     ],
     [
      -69.0012295,
      12.217497700000001
     ],
     [
      -69.0027854,
      12.219532199999998
     ],
     [
      -69.0060765,
      12.223050199999998
     ],
     [
      -69.0085307,
      12.224887799999998
     ],
     [
      -69.0099227,
      12.225637499999998
     ],
     [
      -69.0108803,
      12.226599499999999
     ],
     [
      -69.0114516,
      12.226662499999998
     ],
     [
      -69.0119532,
      12.2273938
     ],
     [
      -69.0146944,
      12.229627199999998
     ],
     [
      -69.0165693,
      12.2315015
     ],
     [
      -69.0182751,
      12.2328436
     ],
     [
      -69.0190811,
      12.233158800000004
     ],
     [
      -69.0192434,
      12.2335697
     ],
     [
      -69.024412,
      12.236882999999999
     ],
     [
      -69.0248841,
      12.237454400000003
     ],
     [
      -69.0256552,
      12.237735600000002
     ],
     [
      -69.0278466,
      12.239738999999998
     ],
     [
      -69.0283012,
      12.2411504
     ],
     [
      -69.029924,
      12.243921
     ],
     [
      -69.03037460000002,
      12.245079599999999
     ],
     [
      -69.0313268,
      12.2467466
     ],
     [
      -69.0319071,
      12.247302799999998
     ],
     [
      -69.0317452,
      12.2477296
     ],
     [
      -69.0324238,
      12.2489327
     ],
     [
      -69.03427,
      12.2510773
     ],
     [
      -69.0348907,
      12.2516188
     ],
     [
      -69.0345536,
      12.251182299999998
     ],
     [
      -69.0348272,
      12.2511888
     ],
     [
      -69.0358468,
      12.2523242
     ],
     [
      -69.0360014,
      12.252545300000001
     ],
     [
      -69.0358194,
      12.252836499999999
     ],
     [
      -69.0368414,
      12.253910199999998
     ],
     [
      -69.0374932,
      12.255157800000001
     ],
     [
      -69.0381849,
      12.255610199999994
     ],
     [
      -69.0392447,
      12.257645199999999
     ],
     [
      -69.0398374,
      12.258109199999998
     ],
     [
      -69.0399072,
      12.258565199999998
     ]
    ]
   }
  },
  {
   "type": "Feature",
   "id": "hato_kanoa",
   "properties": {
    "name": "Hato to Playa Kanoa",
    "exposure": "windward",
    "tile": "19PEP",
    "from": "Hato, the coast below Landhuis Hato and the airport",
    "from_osm": "way/398421880",
    "to": "Playa Kanoa",
    "to_osm": "way/313159341",
    "length_m": 9703,
    "note": "The airport coast and Noordkant."
   },
   "geometry": {
    "type": "LineString",
    "coordinates": [
     [
      -68.8661429021102,
      12.174942498811673
     ],
     [
      -68.866999,
      12.1750001
     ],
     [
      -68.8677426,
      12.1760343
     ],
     [
      -68.8684746,
      12.175802
     ],
     [
      -68.8719522,
      12.1760561
     ],
     [
      -68.8726695,
      12.1756994
     ],
     [
      -68.8730152,
      12.1759932
     ],
     [
      -68.8741786,
      12.176184699999999
     ],
     [
      -68.8743741,
      12.175659
     ],
     [
      -68.8752148,
      12.1752827
     ],
     [
      -68.875068,
      12.176212000000001
     ],
     [
      -68.8755075,
      12.1763184
     ],
     [
      -68.8769107,
      12.176243499999996
     ],
     [
      -68.8804259,
      12.176825299999997
     ],
     [
      -68.8820353,
      12.177350899999999
     ],
     [
      -68.8849586,
      12.1775374
     ],
     [
      -68.8879613,
      12.178081199999998
     ],
     [
      -68.8895411,
      12.177943099999998
     ],
     [
      -68.8921118,
      12.178282899999997
     ],
     [
      -68.8961545,
      12.178415599999996
     ],
     [
      -68.9011096,
      12.1780514
     ],
     [
      -68.90598880000002,
      12.178691200000001
     ],
     [
      -68.9064302,
      12.1790111
     ],
     [
      -68.9069041,
      12.1789155
     ],
     [
      -68.9153784,
      12.181280100000002
     ],
     [
      -68.9177617,
      12.182788
     ],
     [
      -68.9204098,
      12.184895899999999
     ],
     [
      -68.9237165,
      12.186841899999997
     ],
     [
      -68.9265594,
      12.187586199999998
     ],
     [
      -68.9270283,
      12.1878783
     ],
     [
      -68.9276928,
      12.187757300000001
     ],
     [
      -68.9280673,
      12.1881092
     ],
     [
      -68.9284989,
      12.187991900000002
     ],
     [
      -68.9300535,
      12.188520299999997
     ],
     [
      -68.9308534,
      12.188418000000002
     ],
     [
      -68.9315428,
      12.188510999999998
     ],
     [
      -68.9318444,
      12.188786
     ],
     [
      -68.9322477,
      12.1885372
     ],
     [
      -68.9327489,
      12.1887071
     ],
     [
      -68.9334883,
      12.188424600000001
     ],
     [
      -68.9348495,
      12.1883642
     ],
     [
      -68.935031,
      12.188073199999998
     ],
     [
      -68.9354746,
      12.188171799999997
     ],
     [
      -68.9373207,
      12.187547799999999
     ],
     [
      -68.9402309,
      12.187152800000002
     ],
     [
      -68.9414158,
      12.187247800000002
     ],
     [
      -68.9418478,
      12.187032899999998
     ],
     [
      -68.943927,
      12.187116100000003
     ],
     [
      -68.946746,
      12.1877349
     ],
     [
      -68.9473596,
      12.187592499999996
     ],
     [
      -68.9475487,
      12.187899300000002
     ],
     [
      -68.9490929,
      12.1881281
     ]
    ]
   }
  },
  {
   "type": "Feature",
   "id": "kanoa_sint_joris",
   "properties": {
    "name": "Playa Kanoa to Sint Joris Baai",
    "exposure": "windward",
    "tile": "19PEP",
    "from": "Playa Kanoa",
    "from_osm": "way/313159341",
    "to": "Sint Joris Baai mouth, north side",
    "to_osm": "way/298797383",
    "length_m": 9842,
    "note": "Boka Grandi, Boka Labadera and Boka Tabla on the north-east coast, to the mouth of Sint Joris Baai."
   },
   "geometry": {
    "type": "LineString",
    "coordinates": [
     [
      -68.8061934,
      12.1294504
     ],
     [
      -68.806052,
      12.130141600000002
     ],
     [
      -68.8062939,
      12.131125000000003
     ],
     [
      -68.8075843,
      12.133401199999994
     ],
     [
      -68.8078571,
      12.133467
     ],
     [
      -68.8077624,
      12.133942599999996
     ],
     [
      -68.8083535,
      12.1349275
     ],
     [
      -68.8084094,
      12.135689899999997
     ],
     [
      -68.8087341,
      12.135883799999998
     ],
     [
      -68.8085827,
      12.1360247
     ],
     [
      -68.8089866,
      12.137187399999997
     ],
     [
      -68.8098489,
      12.139035800000002
     ],
     [
      -68.8103731,
      12.1393298
     ],
     [
      -68.8101422,
      12.139902600000001
     ],
     [
      -68.8107997,
      12.141232899999999
     ],
     [
      -68.81118070000001,
      12.1426301
     ],
     [
      -68.813008,
      12.145428099999997
     ],
     [
      -68.8149685,
      12.147771600000002
     ],
     [
      -68.8158132,
      12.148510899999996
     ],
     [
      -68.8164432,
      12.1480016
     ],
     [
      -68.816617,
      12.148113099999998
     ],
     [
      -68.8164058,
      12.148806799999996
     ],
     [
      -68.8166012,
      12.148991500000001
     ],
     [
      -68.8165228,
      12.1492649
     ],
     [
      -68.8178334,
      12.1505287
     ],
     [
      -68.8182026,
      12.150586899999999
     ],
     [
      -68.8184408,
      12.151208900000002
     ],
     [
      -68.8186609,
      12.151171699999999
     ],
     [
      -68.8187354,
      12.1514256
     ],
     [
      -68.8194146,
      12.1518486
     ],
     [
      -68.8198853,
      12.151860699999999
     ],
     [
      -68.82008,
      12.152302100000002
     ],
     [
      -68.8208391,
      12.152755699999998
     ],
     [
      -68.8214386,
      12.153464199999998
     ],
     [
      -68.8234609,
      12.154799699999998
     ],
     [
      -68.8246162,
      12.155373300000003
     ],
     [
      -68.825152,
      12.1552972
     ],
     [
      -68.8252875,
      12.1556413
     ],
     [
      -68.8263926,
      12.156282400000002
     ],
     [
      -68.8272066,
      12.1557856
     ],
     [
      -68.8270149,
      12.1565053
     ],
     [
      -68.8291767,
      12.157773099999996
     ],
     [
      -68.8296307,
      12.1572006
     ],
     [
      -68.8297842,
      12.157437500000002
     ],
     [
      -68.8295211,
      12.157899999999998
     ],
     [
      -68.82965680000001,
      12.158090300000001
     ],
     [
      -68.8321245,
      12.1598327
     ],
     [
      -68.8325442,
      12.1598746
     ],
     [
      -68.8329962,
      12.160621899999999
     ],
     [
      -68.8380066,
      12.164468399999997
     ],
     [
      -68.8429566,
      12.167516400000002
     ],
     [
      -68.8445511,
      12.168191599999998
     ],
     [
      -68.8470483,
      12.1698552
     ],
     [
      -68.8472494,
      12.169817199999999
     ],
     [
      -68.8485047,
      12.171076999999999
     ],
     [
      -68.8501073,
      12.1721887
     ],
     [
      -68.8506852,
      12.1723429
     ],
     [
      -68.8525227,
      12.173716
     ],
     [
      -68.8526621,
      12.174077800000001
     ],
     [
      -68.8534212,
      12.174253499999999
     ],
     [
      -68.8550368,
      12.1754163
     ],
     [
      -68.8567319,
      12.1752588
     ],
     [
      -68.8571444,
      12.174899699999996
     ],
     [
      -68.85793940000002,
      12.1754281
     ],
     [
      -68.8591638,
      12.1751921
     ],
     [
      -68.8595359,
      12.175572999999998
     ],
     [
      -68.8600038,
      12.1756595
     ],
     [
      -68.8606265,
      12.175574800000001
     ],
     [
      -68.86099910000002,
      12.1751177
     ],
     [
      -68.861388,
      12.175586099999999
     ],
     [
      -68.8616617,
      12.175443399999999
     ],
     [
      -68.8619939,
      12.176177399999998
     ],
     [
      -68.8635785,
      12.176334000000004
     ],
     [
      -68.8647499,
      12.176001599999998
     ],
     [
      -68.8647363,
      12.1757866
     ],
     [
      -68.8640044,
      12.175847599999999
     ],
     [
      -68.8643776,
      12.175101
     ],
     [
      -68.8648663,
      12.175218400000002
     ],
     [
      -68.8651688,
      12.1747744
     ],
     [
      -68.8661429021102,
      12.174942498811673
     ]
    ]
   }
  },
  {
   "type": "Feature",
   "id": "sint_joris",
   "properties": {
    "name": "Sint Joris Baai",
    "exposure": "windward",
    "tile": "19PEP",
    "from": "Sint Joris Baai mouth, north side",
    "from_osm": "way/298797383",
    "to": "Sint Joris Baai mouth, south side",
    "to_osm": "way/298797383",
    "length_m": 15843,
    "note": "The shallow lagoon inside the mouth, its whole shore, as Lac Bay is for Bonaire."
   },
   "geometry": {
    "type": "LineString",
    "coordinates": [
     [
      -68.8050747,
      12.1277328
     ],
     [
      -68.8058222,
      12.1271883
     ],
     [
      -68.8072632,
      12.126778300000002
     ],
     [
      -68.8076483,
      12.126004199999999
     ],
     [
      -68.80820660000002,
      12.125916299999997
     ],
     [
      -68.8081824,
      12.125470299999998
     ],
     [
      -68.8086803,
      12.124465300000006
     ],
     [
      -68.8091486,
      12.124099199999998
     ],
     [
      -68.8100249,
      12.123868299999998
     ],
     [
      -68.8112354,
      12.123014199999998
     ],
     [
      -68.8106951,
      12.1225486
     ],
     [
      -68.8098335,
      12.119947200000002
     ],
     [
      -68.8099936,
      12.1186789
     ],
     [
      -68.8092904,
      12.1185582
     ],
     [
      -68.8089536,
      12.118072799999998
     ],
     [
      -68.8090864,
      12.117784099999998
     ],
     [
      -68.8083217,
      12.117423199999998
     ],
     [
      -68.8073653,
      12.116263500000002
     ],
     [
      -68.8067523,
      12.115951700000002
     ],
     [
      -68.806331,
      12.114879199999997
     ],
     [
      -68.8055623,
      12.114576799999998
     ],
     [
      -68.8049911,
      12.114851399999997
     ],
     [
      -68.8041135,
      12.114369000000002
     ],
     [
      -68.8039446,
      12.113281599999997
     ],
     [
      -68.8026769,
      12.112511599999998
     ],
     [
      -68.8023732,
      12.1116079
     ],
     [
      -68.8029521,
      12.111374100000003
     ],
     [
      -68.80314000000001,
      12.1106801
     ],
     [
      -68.8038764,
      12.1105017
     ],
     [
      -68.8039857,
      12.111223399999997
     ],
     [
      -68.8049896,
      12.111481300000001
     ],
     [
      -68.8053977,
      12.111978599999999
     ],
     [
      -68.8065098,
      12.112238399999997
     ],
     [
      -68.8075213,
      12.1118654
     ],
     [
      -68.8078136,
      12.1121753
     ],
     [
      -68.8079028,
      12.112765299999998
     ],
     [
      -68.8087777,
      12.1124907
     ],
     [
      -68.8092647,
      12.112757399999998
     ],
     [
      -68.8096996,
      12.1125653
     ],
     [
      -68.8094795,
      12.1124506
     ],
     [
      -68.8096304,
      12.111945900000002
     ],
     [
      -68.8094064,
      12.111610000000002
     ],
     [
      -68.8088086,
      12.1118002
     ],
     [
      -68.8084616,
      12.110829799999996
     ],
     [
      -68.8090494,
      12.110495200000003
     ],
     [
      -68.8095808,
      12.110584399999999
     ],
     [
      -68.81037660000001,
      12.1101409
     ],
     [
      -68.811261,
      12.110652600000002
     ],
     [
      -68.8113119,
      12.1109885
     ],
     [
      -68.8106745,
      12.1113336
     ],
     [
      -68.8111684,
      12.112051299999997
     ],
     [
      -68.812054,
      12.111497599999998
     ],
     [
      -68.8118782,
      12.1109885
     ],
     [
      -68.8127076,
      12.110972799999999
     ],
     [
      -68.8127298,
      12.111619499999998
     ],
     [
      -68.8124138,
      12.111883
     ],
     [
      -68.812281,
      12.112638099999996
     ],
     [
      -68.8127601,
      12.113568999999998
     ],
     [
      -68.8136122,
      12.113851099999998
     ],
     [
      -68.8142416,
      12.1116704
     ],
     [
      -68.8150669,
      12.111589
     ],
     [
      -68.8152512,
      12.111773300000001
     ],
     [
      -68.8150069,
      12.1118757
     ],
     [
      -68.8151465,
      12.112300799999998
     ],
     [
      -68.8142571,
      12.1128559
     ],
     [
      -68.8141049,
      12.1131752
     ],
     [
      -68.8154536,
      12.1147248
     ],
     [
      -68.8154254,
      12.114970100000003
     ],
     [
      -68.8147489,
      12.115102000000002
     ],
     [
      -68.8146502,
      12.115614099999998
     ],
     [
      -68.8150393,
      12.115987099999996
     ],
     [
      -68.815414,
      12.115583399999997
     ],
     [
      -68.8157149,
      12.1147383
     ],
     [
      -68.8163412,
      12.114938699999998
     ],
     [
      -68.81673960000002,
      12.114670399999998
     ],
     [
      -68.817162,
      12.114717999999998
     ],
     [
      -68.8176127,
      12.115638199999994
     ],
     [
      -68.8170718,
      12.115872
     ],
     [
      -68.8178613,
      12.116688499999999
     ],
     [
      -68.8184667,
      12.116269099999997
     ],
     [
      -68.818072,
      12.116170799999999
     ],
     [
      -68.8177266,
      12.115734699999999
     ],
     [
      -68.8187988,
      12.115653099999998
     ],
     [
      -68.8190342,
      12.115179899999998
     ],
     [
      -68.8194251,
      12.115474900000002
     ],
     [
      -68.8198787,
      12.114883
     ],
     [
      -68.82032090000001,
      12.114868200000002
     ],
     [
      -68.8195173,
      12.1133562
     ],
     [
      -68.8216752,
      12.1124486
     ],
     [
      -68.8218801,
      12.112566500000002
     ],
     [
      -68.821861,
      12.113653399999997
     ],
     [
      -68.8233563,
      12.1141006
     ],
     [
      -68.8237815,
      12.114761399999997
     ],
     [
      -68.8236795,
      12.115298999999998
     ],
     [
      -68.8229178,
      12.115460299999999
     ],
     [
      -68.8226531,
      12.1152762
     ],
     [
      -68.8222406,
      12.1154873
     ],
     [
      -68.82365190000002,
      12.1170842
     ],
     [
      -68.8250677,
      12.117131399999996
     ],
     [
      -68.8263025,
      12.1168578
     ],
     [
      -68.8261499,
      12.116320199999999
     ],
     [
      -68.8275036,
      12.115389299999999
     ],
     [
      -68.8283171,
      12.115951899999999
     ],
     [
      -68.8289512,
      12.1173987
     ],
     [
      -68.8288599,
      12.1176519
     ],
     [
      -68.8292316,
      12.117906499999997
     ],
     [
      -68.82915,
      12.1188624
     ],
     [
      -68.8283735,
      12.1191744
     ],
     [
      -68.8283413,
      12.120282099999997
     ],
     [
      -68.8274802,
      12.120752399999999
     ],
     [
      -68.8271115,
      12.120629100000002
     ],
     [
      -68.8267433,
      12.120035399999997
     ],
     [
      -68.82547230000002,
      12.120031900000003
     ],
     [
      -68.8253506,
      12.120188399999996
     ],
     [
      -68.824875,
      12.120025900000002
     ],
     [
      -68.8244297,
      12.120340499999998
     ],
     [
      -68.8240174,
      12.1201378
     ],
     [
      -68.8236459,
      12.120252899999999
     ],
     [
      -68.82315720000001,
      12.119864399999999
     ],
     [
      -68.8231191,
      12.120027100000001
     ],
     [
      -68.8235661,
      12.120305599999998
     ],
     [
      -68.8230058,
      12.121023699999997
     ],
     [
      -68.8222863,
      12.121171300000002
     ],
     [
      -68.822057,
      12.120562900000001
     ],
     [
      -68.8215673,
      12.1205359
     ],
     [
      -68.82114,
      12.1211285
     ],
     [
      -68.8210763,
      12.121621900000003
     ],
     [
      -68.8208447,
      12.121661299999998
     ],
     [
      -68.8228593,
      12.1218837
     ],
     [
      -68.8233954,
      12.123434500000002
     ],
     [
      -68.8253124,
      12.124005300000002
     ],
     [
      -68.8261284,
      12.124755499999997
     ],
     [
      -68.82586690000001,
      12.125988
     ],
     [
      -68.8261566,
      12.126336399999998
     ],
     [
      -68.8258653,
      12.1268891
     ],
     [
      -68.825957,
      12.127167900000002
     ],
     [
      -68.8253094,
      12.1276851
     ],
     [
      -68.8243481,
      12.1270562
     ],
     [
      -68.8238343,
      12.127034999999996
     ],
     [
      -68.8242838,
      12.127974399999998
     ],
     [
      -68.8235484,
      12.1289086
     ],
     [
      -68.822446,
      12.128427600000002
     ],
     [
      -68.8214846,
      12.128644599999996
     ],
     [
      -68.8209103,
      12.128387399999998
     ],
     [
      -68.8198413,
      12.127059999999998
     ],
     [
      -68.8200695,
      12.126998800000003
     ],
     [
      -68.8199946,
      12.126725100000002
     ],
     [
      -68.8186253,
      12.126085000000002
     ],
     [
      -68.8175923,
      12.124833799999998
     ],
     [
      -68.8175505,
      12.125166800000002
     ],
     [
      -68.8172317,
      12.1253468
     ],
     [
      -68.8179215,
      12.126191099999998
     ],
     [
      -68.8176805,
      12.126690199999999
     ],
     [
      -68.8179035,
      12.1265603
     ],
     [
      -68.8178504,
      12.127045499999996
     ],
     [
      -68.8174528,
      12.1274908
     ],
     [
      -68.8172155,
      12.127532599999999
     ],
     [
      -68.8172184,
      12.127294100000002
     ],
     [
      -68.8165226,
      12.127653099999998
     ],
     [
      -68.8157993,
      12.127061400000002
     ],
     [
      -68.8157792,
      12.126854100000001
     ],
     [
      -68.81606770000002,
      12.1267622
     ],
     [
      -68.815127,
      12.126499800000001
     ],
     [
      -68.8143581,
      12.1259015
     ],
     [
      -68.8140843,
      12.1254043
     ],
     [
      -68.8134684,
      12.1250553
     ],
     [
      -68.8133784,
      12.1246892
     ],
     [
      -68.8121492,
      12.125274399999999
     ],
     [
      -68.811509,
      12.1251699
     ],
     [
      -68.8093593,
      12.1269632
     ],
     [
      -68.808667,
      12.1279485
     ],
     [
      -68.8080093,
      12.128091299999998
     ],
     [
      -68.8076778,
      12.128453399999998
     ],
     [
      -68.8073088,
      12.1283957
     ],
     [
      -68.8068566,
      12.1291724
     ],
     [
      -68.8061934,
      12.1294504
     ]
    ]
   }
  },
  {
   "type": "Feature",
   "id": "sint_joris_oostpunt",
   "properties": {
    "name": "Sint Joris Baai to Oostpunt",
    "exposure": "windward",
    "tile": "19PEP",
    "from": "Sint Joris Baai mouth, south side",
    "from_osm": "way/298797383",
    "to": "Oostpunt",
    "to_osm": "node/306397390",
    "length_m": 12732,
    "note": "Boka Kokolishi, Duivelsklip and the undeveloped east point."
   },
   "geometry": {
    "type": "LineString",
    "coordinates": [
     [
      -68.7370844,
      12.043617300000003
     ],
     [
      -68.7366375,
      12.0437754
     ],
     [
      -68.7370522,
      12.044012099999998
     ],
     [
      -68.7367706,
      12.044453499999998
     ],
     [
      -68.7369317,
      12.0449565
     ],
     [
      -68.7367363,
      12.045034299999998
     ],
     [
      -68.7369782,
      12.045201099999998
     ],
     [
      -68.7369528,
      12.045495899999999
     ],
     [
      -68.7372647,
      12.045585299999999
     ],
     [
      -68.7373647,
      12.046032599999998
     ],
     [
      -68.7381131,
      12.0459463
     ],
     [
      -68.7380378,
      12.046500699999998
     ],
     [
      -68.7383138,
      12.046427499999997
     ],
     [
      -68.7382692,
      12.046748400000002
     ],
     [
      -68.7385557,
      12.0467409
     ],
     [
      -68.7382838,
      12.047116499999998
     ],
     [
      -68.7387934,
      12.047749799999998
     ],
     [
      -68.7391488,
      12.0476312
     ],
     [
      -68.7392316,
      12.048121399999998
     ],
     [
      -68.7395748,
      12.047939399999999
     ],
     [
      -68.7397719,
      12.048370199999999
     ],
     [
      -68.7406346,
      12.0486716
     ],
     [
      -68.7407969,
      12.0491636
     ],
     [
      -68.74243,
      12.05034
     ],
     [
      -68.743299,
      12.051437
     ],
     [
      -68.7436683,
      12.051402399999999
     ],
     [
      -68.7442293,
      12.051848699999999
     ],
     [
      -68.7498705,
      12.056948000000002
     ],
     [
      -68.7568925,
      12.061577599999998
     ],
     [
      -68.7577165,
      12.0617618
     ],
     [
      -68.7577604,
      12.0621491
     ],
     [
      -68.75974770000002,
      12.063868800000002
     ],
     [
      -68.7603661,
      12.064948899999997
     ],
     [
      -68.762411,
      12.067584899999996
     ],
     [
      -68.7627076,
      12.067644499999998
     ],
     [
      -68.7634586,
      12.068892999999996
     ],
     [
      -68.7651931,
      12.070482
     ],
     [
      -68.7659093,
      12.072076699999998
     ],
     [
      -68.7662835,
      12.072386799999999
     ],
     [
      -68.7665198,
      12.0733058
     ],
     [
      -68.767734,
      12.075296799999998
     ],
     [
      -68.7700801,
      12.078416099999997
     ],
     [
      -68.7703845,
      12.078656200000001
     ],
     [
      -68.7707881,
      12.078618099999998
     ],
     [
      -68.7709624,
      12.0791845
     ],
     [
      -68.7718003,
      12.080337899999996
     ],
     [
      -68.7721637,
      12.0805215
     ],
     [
      -68.7722585,
      12.081064399999999
     ],
     [
      -68.7731266,
      12.0818618
     ],
     [
      -68.7742075,
      12.0835941
     ],
     [
      -68.7769928,
      12.086022500000002
     ],
     [
      -68.77833270000002,
      12.0874837
     ],
     [
      -68.7787818,
      12.0874035
     ],
     [
      -68.7790398,
      12.0881271
     ],
     [
      -68.7808778,
      12.090258499999997
     ],
     [
      -68.7835862,
      12.093013499999996
     ],
     [
      -68.7842379,
      12.093247100000001
     ],
     [
      -68.78516180000001,
      12.0945616
     ],
     [
      -68.7855742,
      12.094586599999998
     ],
     [
      -68.7856448,
      12.095019500000001
     ],
     [
      -68.7861797,
      12.0954554
     ],
     [
      -68.7863445,
      12.0962514
     ],
     [
      -68.7877715,
      12.098179
     ],
     [
      -68.7883063,
      12.098466799999999
     ],
     [
      -68.7883274,
      12.0990873
     ],
     [
      -68.788913,
      12.0991857
     ],
     [
      -68.7887374,
      12.0995874
     ],
     [
      -68.7915413,
      12.103325900000002
     ],
     [
      -68.7916003,
      12.1037835
     ],
     [
      -68.7934537,
      12.107102399999997
     ],
     [
      -68.7956277,
      12.110261200000002
     ],
     [
      -68.7976581,
      12.113809500000004
     ],
     [
      -68.7996309,
      12.1161513
     ],
     [
      -68.8008415,
      12.117113099999997
     ],
     [
      -68.8008419,
      12.1175596
     ],
     [
      -68.8013247,
      12.118021099999995
     ],
     [
      -68.8028213,
      12.1215378
     ],
     [
      -68.8037816,
      12.126009000000002
     ],
     [
      -68.8047579,
      12.1277581
     ],
     [
      -68.8050747,
      12.1277328
     ]
    ]
   }
  },
  {
   "type": "Feature",
   "id": "daaibooi_playa_largu",
   "properties": {
    "name": "Daaibooi to Playa Largu",
    "exposure": "leeward",
    "tile": "19PDP",
    "from": "Daaibooi",
    "from_osm": "way/234450596",
    "to": "Playa Largu",
    "to_osm": "relation/9513683",
    "length_m": 3902,
    "note": "Leeward control: the Bandabou beaches Daaibooi, Porto Marie and Cas Abao, which sargassum should not reach."
   },
   "geometry": {
    "type": "LineString",
    "coordinates": [
     [
      -69.10025647907696,
      12.235565518761279
     ],
     [
      -69.0988272,
      12.235496299999998
     ],
     [
      -69.09818080000001,
      12.2352604
     ],
     [
      -69.0961567,
      12.233935899999997
     ],
     [
      -69.0962552,
      12.2336249
     ],
     [
      -69.0959787,
      12.233084699999997
     ],
     [
      -69.095129,
      12.2321876
     ],
     [
      -69.0950078,
      12.2313678
     ],
     [
      -69.0947798,
      12.231257699999999
     ],
     [
      -69.0950882,
      12.229962699999998
     ],
     [
      -69.0925267,
      12.2281986
     ],
     [
      -69.0916108,
      12.2272051
     ],
     [
      -69.0915397,
      12.226225999999997
     ],
     [
      -69.0926582,
      12.224482799999997
     ],
     [
      -69.092406,
      12.221891499999998
     ],
     [
      -69.0913546,
      12.221212599999998
     ],
     [
      -69.0899491,
      12.2212467
     ],
     [
      -69.0896219,
      12.220819399999998
     ],
     [
      -69.0879858,
      12.220213799999998
     ],
     [
      -69.0864569,
      12.219343499999999
     ],
     [
      -69.085722,
      12.2185363
     ],
     [
      -69.08550470000002,
      12.2172621
     ],
     [
      -69.0864891,
      12.215377199999999
     ],
     [
      -69.086608,
      12.213244499999998
     ],
     [
      -69.0862557,
      12.212766199999997
     ],
     [
      -69.0848731,
      12.212624099999998
     ],
     [
      -69.0849007,
      12.212368500000002
     ],
     [
      -69.0851523,
      12.2123446
     ],
     [
      -69.0847807,
      12.212043299999998
     ]
    ]
   }
  }
 ]
}
