{
 "type": "FeatureCollection",
 "crs": {
  "type": "name",
  "properties": {
   "name": "urn:ogc:def:crs:OGC:1.3:CRS84"
  }
 },
 "properties": {
  "title": "Bonaire coastal segments",
  "source": "Coastline and landmark positions from OpenStreetMap, natural=coastline ways within 12.0..12.33N, 68.45..68.17W, retrieved 2026-09-09 via Overpass.",
  "license": "Geometry (c) OpenStreetMap contributors, ODbL 1.0, https://www.openstreetmap.org/copyright",
  "method": "Arcs of the merged coastline between named landmarks, snapped to the nearest coastline point, simplified to 15 m. Built by scripts/make_bonaire_segments.py.",
  "island": "Bonaire, Caribbean Netherlands"
 },
 "features": [
  {
   "type": "Feature",
   "id": "willemstoren_sorobon",
   "properties": {
    "name": "Willemstoren to Sorobon",
    "exposure": "windward",
    "from": "Willemstoren lighthouse",
    "to": "Sorobon",
    "length_m": 8744,
    "note": "South-east coast past the Pekelmeer salt flats to the south shore of Lac."
   },
   "geometry": {
    "type": "LineString",
    "coordinates": [
     [
      -68.23720004862416,
      12.028002800709054
     ],
     [
      -68.234545,
      12.029606999999999
     ],
     [
      -68.2327008,
      12.0319183
     ],
     [
      -68.2302125,
      12.035856399999998
     ],
     [
      -68.2281376,
      12.040344699999999
     ],
     [
      -68.2282413,
      12.040966300000001
     ],
     [
      -68.2276273,
      12.041233699999996
     ],
     [
      -68.2269833,
      12.0434232
     ],
     [
      -68.2256824,
      12.0461382
     ],
     [
      -68.2249302,
      12.0506794
     ],
     [
      -68.2250646,
      12.0519618
     ],
     [
      -68.2249255,
      12.052387799999998
     ],
     [
      -68.2252781,
      12.056506
     ],
     [
      -68.2254328,
      12.056592399999998
     ],
     [
      -68.2252958,
      12.059400799999999
     ],
     [
      -68.22556610000001,
      12.0615004
     ],
     [
      -68.2259858,
      12.062936999999996
     ],
     [
      -68.2281795,
      12.067973699999998
     ],
     [
      -68.2299063,
      12.071360100000001
     ],
     [
      -68.2308551,
      12.0761644
     ],
     [
      -68.2314934,
      12.077439899999998
     ],
     [
      -68.2318811,
      12.081618999999998
     ],
     [
      -68.231926,
      12.086312
     ],
     [
      -68.2316674,
      12.089698399999998
     ],
     [
      -68.23091640000001,
      12.0907583
     ],
     [
      -68.2312053,
      12.0910399
     ],
     [
      -68.2317399,
      12.090407
     ],
     [
      -68.2322828,
      12.090193499999998
     ],
     [
      -68.2318056,
      12.089857399999998
     ],
     [
      -68.2317989,
      12.089590399999997
     ],
     [
      -68.2321034,
      12.089491099999998
     ],
     [
      -68.2323891,
      12.088768500000002
     ],
     [
      -68.2332631,
      12.088818399999997
     ],
     [
      -68.2337346,
      12.088624399999999
     ],
     [
      -68.2344528,
      12.090584000000002
     ],
     [
      -68.234902,
      12.090195499999998
     ],
     [
      -68.2348625,
      12.0899373
     ],
     [
      -68.2351316,
      12.090079699999997
     ],
     [
      -68.2350205,
      12.0914408
     ],
     [
      -68.23576151565484,
      12.09211555731497
     ]
    ]
   }
  },
  {
   "type": "Feature",
   "id": "lac_bay",
   "properties": {
    "name": "Lac Bay",
    "exposure": "windward",
    "from": "Sorobon",
    "to": "Cai",
    "length_m": 8367,
    "note": "The lagoon behind the reef, Sorobon to Cai, mangroves included."
   },
   "geometry": {
    "type": "LineString",
    "coordinates": [
     [
      -68.23576151565484,
      12.09211555731497
     ],
     [
      -68.2362288,
      12.0933572
     ],
     [
      -68.2363397,
      12.094703500000001
     ],
     [
      -68.23682930000001,
      12.0953168
     ],
     [
      -68.2377532,
      12.0948929
     ],
     [
      -68.2380488,
      12.093712100000001
     ],
     [
      -68.2395208,
      12.092317800000002
     ],
     [
      -68.2402036,
      12.0921101
     ],
     [
      -68.2417748,
      12.092820999999999
     ],
     [
      -68.2430319,
      12.0945897
     ],
     [
      -68.2430167,
      12.095704200000002
     ],
     [
      -68.2427684,
      12.0962342
     ],
     [
      -68.2427539,
      12.100453099999996
     ],
     [
      -68.2421156,
      12.1014024
     ],
     [
      -68.240635,
      12.102042400000002
     ],
     [
      -68.2408738,
      12.1032457
     ],
     [
      -68.2400102,
      12.106395000000001
     ],
     [
      -68.2374209,
      12.1068404
     ],
     [
      -68.2363028,
      12.107587099999998
     ],
     [
      -68.2362345,
      12.108443499999998
     ],
     [
      -68.2350362,
      12.111483499999995
     ],
     [
      -68.2339478,
      12.112809799999997
     ],
     [
      -68.2330383,
      12.113286199999996
     ],
     [
      -68.2320433,
      12.114352699999996
     ],
     [
      -68.2298425,
      12.117433699999998
     ],
     [
      -68.228443,
      12.1182768
     ],
     [
      -68.2260874,
      12.118477399999998
     ],
     [
      -68.2241736,
      12.116538099999998
     ],
     [
      -68.2214723,
      12.115880500000001
     ],
     [
      -68.2202563,
      12.114628999999999
     ],
     [
      -68.2206318,
      12.1144139
     ],
     [
      -68.2205795,
      12.114209399999998
     ],
     [
      -68.2191456,
      12.113303900000002
     ],
     [
      -68.2193135,
      12.112010399999999
     ],
     [
      -68.216579,
      12.1099636
     ],
     [
      -68.2160559,
      12.1090417
     ],
     [
      -68.2161167,
      12.107323100000002
     ],
     [
      -68.2164893,
      12.105695300000002
     ],
     [
      -68.2169182,
      12.105069499999999
     ],
     [
      -68.2176096,
      12.1045003
     ],
     [
      -68.2181845,
      12.104375799999996
     ],
     [
      -68.2186866,
      12.104528700000001
     ],
     [
      -68.2196699,
      12.105402899999998
     ],
     [
      -68.2197342,
      12.1050463
     ],
     [
      -68.2203436,
      12.1043955
     ],
     [
      -68.2204168,
      12.103239900000002
     ],
     [
      -68.2208687,
      12.103090399999997
     ],
     [
      -68.2215073,
      12.1031503
     ],
     [
      -68.22192650000001,
      12.1039043
     ],
     [
      -68.2219037,
      12.104939799999999
     ],
     [
      -68.2223273,
      12.104948399999998
     ],
     [
      -68.2225829,
      12.104659099999997
     ],
     [
      -68.2223726362759,
      12.103171975516222
     ]
    ]
   }
  },
  {
   "type": "Feature",
   "id": "cai_washikemba",
   "properties": {
    "name": "Cai to Boka Washikemba",
    "exposure": "windward",
    "from": "Cai",
    "to": "Boka Washikemba",
    "length_m": 9928,
    "note": "Open east coast north of Lac."
   },
   "geometry": {
    "type": "LineString",
    "coordinates": [
     [
      -68.2223726362759,
      12.103171975516222
     ],
     [
      -68.2222645,
      12.102883699999998
     ],
     [
      -68.221731,
      12.102610699999998
     ],
     [
      -68.2210053,
      12.1029287
     ],
     [
      -68.2196068,
      12.102730699999999
     ],
     [
      -68.2179867,
      12.103207999999999
     ],
     [
      -68.2161628,
      12.104125899999998
     ],
     [
      -68.21003000000002,
      12.108242099999998
     ],
     [
      -68.2076295,
      12.110229799999999
     ],
     [
      -68.2068302,
      12.110539299999997
     ],
     [
      -68.2064895,
      12.111364099999998
     ],
     [
      -68.2050873,
      12.112725199999996
     ],
     [
      -68.2000618,
      12.1200325
     ],
     [
      -68.1981576,
      12.122366500000002
     ],
     [
      -68.1960172,
      12.126900599999999
     ],
     [
      -68.19573280000002,
      12.128002
     ],
     [
      -68.1955531,
      12.131473899999998
     ],
     [
      -68.1958401,
      12.134112
     ],
     [
      -68.1954673,
      12.135761400000002
     ],
     [
      -68.1957731,
      12.136351400000002
     ],
     [
      -68.1958964,
      12.138967100000004
     ],
     [
      -68.1965657,
      12.142563399999998
     ],
     [
      -68.1979973,
      12.145494399999997
     ],
     [
      -68.1978866,
      12.1458307
     ],
     [
      -68.1982756,
      12.147519400000002
     ],
     [
      -68.1984955,
      12.147637299999998
     ],
     [
      -68.2000083,
      12.150964799999999
     ],
     [
      -68.2033879,
      12.1588809
     ],
     [
      -68.2065436,
      12.1682265
     ],
     [
      -68.2069889,
      12.171614100000001
     ],
     [
      -68.2076138,
      12.1719628
     ],
     [
      -68.2076085,
      12.172185599999999
     ],
     [
      -68.2080349,
      12.1722669
     ],
     [
      -68.2079759,
      12.172618199999999
     ],
     [
      -68.2083399,
      12.172683599999997
     ],
     [
      -68.2084018,
      12.1729478
     ],
     [
      -68.2080142,
      12.1730943
     ],
     [
      -68.2080403,
      12.1733776
     ],
     [
      -68.2094961,
      12.173224800000002
     ],
     [
      -68.21007536726812,
      12.173606231301358
     ]
    ]
   }
  },
  {
   "type": "Feature",
   "id": "washikemba_spelonk",
   "properties": {
    "name": "Boka Washikemba to Spelonk",
    "exposure": "windward",
    "from": "Boka Washikemba",
    "to": "Spelonk lighthouse",
    "length_m": 7368,
    "note": "Lagun and the coast up to the easternmost point."
   },
   "geometry": {
    "type": "LineString",
    "coordinates": [
     [
      -68.21007536726812,
      12.173606231301358
     ],
     [
      -68.209851,
      12.1738838
     ],
     [
      -68.2086363,
      12.173832799999998
     ],
     [
      -68.2079817,
      12.1742562
     ],
     [
      -68.2079621,
      12.174609599999998
     ],
     [
      -68.2087828,
      12.177691200000002
     ],
     [
      -68.2094961,
      12.1784489
     ],
     [
      -68.2092844,
      12.178611199999997
     ],
     [
      -68.2095026,
      12.1804098
     ],
     [
      -68.2105174,
      12.181009300000001
     ],
     [
      -68.210689,
      12.1817382
     ],
     [
      -68.2128938,
      12.1819846
     ],
     [
      -68.2143315,
      12.181806299999998
     ],
     [
      -68.2146802,
      12.1815022
     ],
     [
      -68.2145836,
      12.180621299999999
     ],
     [
      -68.2153132,
      12.1803381
     ],
     [
      -68.2153239,
      12.180070699999996
     ],
     [
      -68.2162358,
      12.1800078
     ],
     [
      -68.2172175,
      12.179289399999998
     ],
     [
      -68.218269,
      12.178985200000001
     ],
     [
      -68.218269,
      12.179766599999999
     ],
     [
      -68.2179739,
      12.180154599999998
     ],
     [
      -68.2180866,
      12.180610799999998
     ],
     [
      -68.2172887,
      12.181550100000003
     ],
     [
      -68.216138,
      12.1819426
     ],
     [
      -68.2162758,
      12.182534399999998
     ],
     [
      -68.216114,
      12.182915200000002
     ],
     [
      -68.2130692,
      12.1832022
     ],
     [
      -68.2125298,
      12.1829269
     ],
     [
      -68.2109955,
      12.1826925
     ],
     [
      -68.2096469,
      12.1830675
     ],
     [
      -68.2095851,
      12.184067300000002
     ],
     [
      -68.209832,
      12.184240999999998
     ],
     [
      -68.2095062,
      12.185003299999998
     ],
     [
      -68.2095753,
      12.1873097
     ],
     [
      -68.208588,
      12.1895968
     ],
     [
      -68.2076995,
      12.190841599999997
     ],
     [
      -68.2076501,
      12.191218
     ],
     [
      -68.2070676,
      12.191575
     ],
     [
      -68.2060606,
      12.1930804
     ],
     [
      -68.2058336,
      12.1939199
     ],
     [
      -68.2059422,
      12.1954542
     ],
     [
      -68.2065345,
      12.197673699999998
     ],
     [
      -68.2068899,
      12.198098199999999
     ],
     [
      -68.2064358,
      12.198281599999996
     ],
     [
      -68.2058336,
      12.199487799999998
     ],
     [
      -68.205646,
      12.2006071
     ],
     [
      -68.2038788,
      12.202952
     ],
     [
      -68.2016476,
      12.2049205
     ],
     [
      -68.2001371,
      12.2055091
     ],
     [
      -68.1992091,
      12.2061749
     ],
     [
      -68.1990906,
      12.2069179
     ],
     [
      -68.1986069,
      12.207371400000001
     ],
     [
      -68.1976591,
      12.209069699999997
     ],
     [
      -68.1970964,
      12.2110767
     ],
     [
      -68.19628577087207,
      12.21215643158128
     ]
    ]
   }
  },
  {
   "type": "Feature",
   "id": "spelonk_onima",
   "properties": {
    "name": "Spelonk to Boka Onima",
    "exposure": "windward",
    "from": "Spelonk lighthouse",
    "to": "Boka Onima",
    "length_m": 15482,
    "note": "The long north-east coast."
   },
   "geometry": {
    "type": "LineString",
    "coordinates": [
     [
      -68.19628577087207,
      12.21215643158128
     ],
     [
      -68.1959709,
      12.21401
     ],
     [
      -68.1960795,
      12.214801299999998
     ],
     [
      -68.196662,
      12.2161135
     ],
     [
      -68.1960104,
      12.217194199999998
     ],
     [
      -68.1960203,
      12.217869599999998
     ],
     [
      -68.1961877,
      12.2191988
     ],
     [
      -68.1965632,
      12.220110999999998
     ],
     [
      -68.1971908,
      12.2212015
     ],
     [
      -68.1977541,
      12.221704799999998
     ],
     [
      -68.1988216,
      12.221851599999999
     ],
     [
      -68.2019115,
      12.223057499999998
     ],
     [
      -68.2029235,
      12.223950699999996
     ],
     [
      -68.2037098,
      12.223882599999996
     ],
     [
      -68.2036518,
      12.224133699999998
     ],
     [
      -68.2038575,
      12.224252699999997
     ],
     [
      -68.2051811,
      12.2243917
     ],
     [
      -68.2054433,
      12.224761699999998
     ],
     [
      -68.2070434,
      12.225069299999998
     ],
     [
      -68.2086459,
      12.225815399999998
     ],
     [
      -68.2092112,
      12.2257586
     ],
     [
      -68.2094029,
      12.225987000000002
     ],
     [
      -68.20968440000001,
      12.2258359
     ],
     [
      -68.2094971,
      12.225696599999997
     ],
     [
      -68.2102283,
      12.2253049
     ],
     [
      -68.2102976,
      12.2262055
     ],
     [
      -68.2108286,
      12.225864299999998
     ],
     [
      -68.2109936,
      12.2260119
     ],
     [
      -68.2115989,
      12.2257782
     ],
     [
      -68.2140424,
      12.225933500000002
     ],
     [
      -68.2143184,
      12.2257037
     ],
     [
      -68.2144138,
      12.2259663
     ],
     [
      -68.2150919,
      12.2254325
     ],
     [
      -68.2156659,
      12.2259987
     ],
     [
      -68.21689970000001,
      12.2257942
     ],
     [
      -68.2173396,
      12.225982999999998
     ],
     [
      -68.2202203,
      12.2250026
     ],
     [
      -68.2206816,
      12.225133599999998
     ],
     [
      -68.2228542,
      12.224656499999998
     ],
     [
      -68.2274998,
      12.224740399999998
     ],
     [
      -68.2299674,
      12.2252595
     ],
     [
      -68.2327086,
      12.2263604
     ],
     [
      -68.2346827,
      12.226790400000004
     ],
     [
      -68.2351602,
      12.2271259
     ],
     [
      -68.2357985,
      12.227000099999998
     ],
     [
      -68.2362652,
      12.227414199999998
     ],
     [
      -68.236968,
      12.227582
     ],
     [
      -68.2394034,
      12.227508599999998
     ],
     [
      -68.2398916,
      12.2278599
     ],
     [
      -68.2405407,
      12.227629199999997
     ],
     [
      -68.24088400000001,
      12.2279018
     ],
     [
      -68.2413936,
      12.2276711
     ],
     [
      -68.2422573,
      12.227985699999998
     ],
     [
      -68.2431371,
      12.2278179
     ],
     [
      -68.2433195,
      12.228038100000001
     ],
     [
      -68.2438988,
      12.2278546
     ],
     [
      -68.2488502,
      12.228808799999998
     ],
     [
      -68.2532114,
      12.2303082
     ],
     [
      -68.2568309,
      12.231834399999997
     ],
     [
      -68.2572426,
      12.2316587
     ],
     [
      -68.2573532,
      12.2320572
     ],
     [
      -68.2629423,
      12.2342892
     ],
     [
      -68.2641801,
      12.234677200000002
     ],
     [
      -68.2667611,
      12.2349236
     ],
     [
      -68.2669482,
      12.235095300000001
     ],
     [
      -68.2675291,
      12.235115699999998
     ],
     [
      -68.2678885,
      12.2348536
     ],
     [
      -68.2682962,
      12.2350737
     ],
     [
      -68.2689667,
      12.2350213
     ],
     [
      -68.2712144,
      12.234617600000002
     ],
     [
      -68.2719064,
      12.234371199999998
     ],
     [
      -68.2718689,
      12.234082899999999
     ],
     [
      -68.2721371,
      12.2342769
     ],
     [
      -68.2728452,
      12.234219199999997
     ],
     [
      -68.2762892,
      12.233490499999997
     ],
     [
      -68.2769704,
      12.2339676
     ],
     [
      -68.2799316,
      12.234942699999998
     ],
     [
      -68.2804305,
      12.235582299999999
     ],
     [
      -68.2815892,
      12.2363267
     ],
     [
      -68.2818092,
      12.2372442
     ],
     [
      -68.2820988,
      12.2375535
     ],
     [
      -68.2823689,
      12.239366599999999
     ],
     [
      -68.2825828,
      12.2394394
     ],
     [
      -68.2825016,
      12.2397395
     ],
     [
      -68.2828389,
      12.240112400000001
     ],
     [
      -68.2827799,
      12.240482600000002
     ],
     [
      -68.2832412,
      12.240681199999997
     ],
     [
      -68.28315,
      12.241029799999996
     ],
     [
      -68.2835955,
      12.2410292
     ],
     [
      -68.2839212,
      12.242319399999998
     ],
     [
      -68.2848358,
      12.2432657
     ],
     [
      -68.2862359,
      12.2441569
     ],
     [
      -68.2874335,
      12.244599899999999
     ],
     [
      -68.2874966,
      12.2448974
     ],
     [
      -68.2878439,
      12.244800400000003
     ],
     [
      -68.2888739,
      12.245369199999999
     ],
     [
      -68.2890576,
      12.2457086
     ],
     [
      -68.2894747,
      12.2456484
     ],
     [
      -68.2895659,
      12.2460009
     ],
     [
      -68.2899012,
      12.2459144
     ],
     [
      -68.2901895,
      12.246281999999997
     ],
     [
      -68.2908145,
      12.2463652
     ],
     [
      -68.2909633,
      12.2466221
     ],
     [
      -68.2931225,
      12.246825299999996
     ],
     [
      -68.2934826,
      12.246978599999997
     ],
     [
      -68.2934403,
      12.247232900000002
     ],
     [
      -68.2950861,
      12.2480802
     ],
     [
      -68.2972748,
      12.2486831
     ],
     [
      -68.2980097,
      12.248593999999999
     ],
     [
      -68.2992006,
      12.248808899999998
     ],
     [
      -68.3019579,
      12.250077599999997
     ],
     [
      -68.3030308,
      12.2510421
     ],
     [
      -68.3044148,
      12.251760299999999
     ],
     [
      -68.3048869,
      12.2516607
     ],
     [
      -68.305198,
      12.2521011
     ],
     [
      -68.3096784,
      12.254341399999998
     ],
     [
      -68.3108774,
      12.2531363
     ],
     [
      -68.31124080000001,
      12.253327000000002
     ]
    ]
   }
  },
  {
   "type": "Feature",
   "id": "onima_chikitu",
   "properties": {
    "name": "Boka Onima to Playa Chikitu",
    "exposure": "windward",
    "from": "Boka Onima",
    "to": "Playa Chikitu",
    "length_m": 5416,
    "note": "North coast towards Washington Slagbaai."
   },
   "geometry": {
    "type": "LineString",
    "coordinates": [
     [
      -68.31124080000001,
      12.253327000000002
     ],
     [
      -68.3108063,
      12.2543125
     ],
     [
      -68.3109833,
      12.254780400000001
     ],
     [
      -68.3117464,
      12.255142799999998
     ],
     [
      -68.3123043,
      12.254830199999999
     ],
     [
      -68.3125779,
      12.2555195
     ],
     [
      -68.3156866,
      12.257590200000001
     ],
     [
      -68.3167682,
      12.2581152
     ],
     [
      -68.3174122,
      12.257972999999998
     ],
     [
      -68.3174486,
      12.2582752
     ],
     [
      -68.3200284,
      12.259725999999999
     ],
     [
      -68.3229212,
      12.262218499999998
     ],
     [
      -68.3243876,
      12.2637937
     ],
     [
      -68.3248242,
      12.263946599999999
     ],
     [
      -68.3252682,
      12.264707499999998
     ],
     [
      -68.3271494,
      12.266286199999996
     ],
     [
      -68.3281609,
      12.266773299999999
     ],
     [
      -68.3288013,
      12.266712899999996
     ],
     [
      -68.3300203,
      12.267064900000001
     ],
     [
      -68.3314758,
      12.268700399999998
     ],
     [
      -68.3354182,
      12.270926099999999
     ],
     [
      -68.3360767,
      12.270800499999998
     ],
     [
      -68.3367065,
      12.2710251
     ],
     [
      -68.3371633,
      12.271554799999997
     ],
     [
      -68.3386804,
      12.272551099999996
     ],
     [
      -68.3415004,
      12.276014199999999
     ],
     [
      -68.3416859,
      12.275936000000002
     ],
     [
      -68.3417992,
      12.276883499999999
     ],
     [
      -68.3425484,
      12.2774164
     ],
     [
      -68.3435373,
      12.2777034
     ],
     [
      -68.345695,
      12.2791031
     ],
     [
      -68.3474751,
      12.2797649
     ],
     [
      -68.3478707,
      12.2794603
     ],
     [
      -68.34845621757718,
      12.280145437881986
     ]
    ]
   }
  },
  {
   "type": "Feature",
   "id": "chikitu_kokolishi",
   "properties": {
    "name": "Playa Chikitu to Boka Kokolishi",
    "exposure": "windward",
    "from": "Playa Chikitu",
    "to": "Boka Kokolishi",
    "length_m": 4358,
    "note": "Inside Washington Slagbaai National Park."
   },
   "geometry": {
    "type": "LineString",
    "coordinates": [
     [
      -68.34845621757718,
      12.280145437881986
     ],
     [
      -68.3485702,
      12.280329500000002
     ],
     [
      -68.3483317,
      12.280499999999998
     ],
     [
      -68.3485791,
      12.281194999999999
     ],
     [
      -68.3498471,
      12.282712400000001
     ],
     [
      -68.3499641,
      12.284003199999999
     ],
     [
      -68.3511813,
      12.286083900000001
     ],
     [
      -68.3523146,
      12.2858206
     ],
     [
      -68.3516913,
      12.286521200000001
     ],
     [
      -68.3518112,
      12.2870834
     ],
     [
      -68.3531777,
      12.2890979
     ],
     [
      -68.3564227,
      12.2930095
     ],
     [
      -68.3563234,
      12.293229700000001
     ],
     [
      -68.3573239,
      12.2953931
     ],
     [
      -68.3574553,
      12.295541099999998
     ],
     [
      -68.3577584,
      12.2954036
     ],
     [
      -68.3576064,
      12.295735500000003
     ],
     [
      -68.3582171,
      12.295653799999998
     ],
     [
      -68.3582814,
      12.295904099999998
     ],
     [
      -68.3579278,
      12.295957999999999
     ],
     [
      -68.3581354,
      12.2962524
     ],
     [
      -68.3579814,
      12.2970114
     ],
     [
      -68.3581689,
      12.298071300000002
     ],
     [
      -68.3594078,
      12.300007999999998
     ],
     [
      -68.3593743,
      12.300309
     ],
     [
      -68.3604658,
      12.301682999999999
     ],
     [
      -68.3611891,
      12.302546599999998
     ],
     [
      -68.3625619,
      12.303135499999998
     ],
     [
      -68.3627628,
      12.3036654
     ],
     [
      -68.3633922,
      12.303842100000002
     ],
     [
      -68.3634391,
      12.304195399999998
     ],
     [
      -68.3652673,
      12.3045945
     ],
     [
      -68.3658801,
      12.305522399999997
     ],
     [
      -68.3662972,
      12.3057544
     ],
     [
      -68.367075,
      12.3057124
     ],
     [
      -68.3676906,
      12.3062339
     ],
     [
      -68.368164,
      12.306213
     ],
     [
      -68.3684027,
      12.305980999999997
     ],
     [
      -68.3684054,
      12.3052735
     ],
     [
      -68.3687139,
      12.304907899999998
     ]
    ]
   }
  },
  {
   "type": "Feature",
   "id": "kralendijk",
   "properties": {
    "name": "Kralendijk waterfront",
    "exposure": "leeward",
    "from": "Te Amo Beach",
    "to": "Playa Lechi",
    "length_m": 4588,
    "note": "Leeward control: Te Amo Beach to Playa Lechi, which sargassum should not reach."
   },
   "geometry": {
    "type": "LineString",
    "coordinates": [
     [
      -68.2834114043298,
      12.161340073466151
     ],
     [
      -68.2809993,
      12.1590633
     ],
     [
      -68.2794829,
      12.156457899999998
     ],
     [
      -68.2774241,
      12.1506788
     ],
     [
      -68.2770507,
      12.1493483
     ],
     [
      -68.2772546,
      12.1490297
     ],
     [
      -68.2768764,
      12.148627200000002
     ],
     [
      -68.276647,
      12.147750100000001
     ],
     [
      -68.2769084,
      12.146953600000002
     ],
     [
      -68.2767878,
      12.1465242
     ],
     [
      -68.2762997,
      12.146070599999998
     ],
     [
      -68.2760315,
      12.144287700000001
     ],
     [
      -68.2759432,
      12.1414201
     ],
     [
      -68.27630070000001,
      12.138556000000001
     ],
     [
      -68.2768606,
      12.1370498
     ],
     [
      -68.2779714,
      12.1358054
     ],
     [
      -68.2785098,
      12.135612200000002
     ],
     [
      -68.2783529,
      12.1354006
     ],
     [
      -68.2778224,
      12.135347000000001
     ],
     [
      -68.2756731,
      12.137440700000003
     ],
     [
      -68.2754581,
      12.137208200000002
     ],
     [
      -68.2755896,
      12.1367423
     ],
     [
      -68.2752489,
      12.136762399999999
     ],
     [
      -68.2752422,
      12.136598500000002
     ],
     [
      -68.2760374,
      12.1366236
     ],
     [
      -68.276236,
      12.1361901
     ],
     [
      -68.2752825,
      12.135656499999998
     ],
     [
      -68.2762916,
      12.135748300000001
     ],
     [
      -68.27746850000001,
      12.134754099999997
     ],
     [
      -68.2789431,
      12.134762300000002
     ],
     [
      -68.27933030000001,
      12.1350821
     ],
     [
      -68.27979449740414,
      12.134593774111861
     ]
    ]
   }
  }
 ]
}