{
 "type": "FeatureCollection",
 "crs": {
  "type": "name",
  "properties": {
   "name": "urn:ogc:def:crs:OGC:1.3:CRS84"
  }
 },
 "properties": {
  "title": "Bonaire land polygon",
  "source": "OpenStreetMap natural=coastline ways, retrieved 2026-09-09 via Overpass, merged into the island outline.",
  "license": "Geometry (c) OpenStreetMap contributors, ODbL 1.0, https://www.openstreetmap.org/copyright",
  "method": "Largest merged coastline ring, simplified to 15 m. Built by scripts/make_bonaire_segments.py."
 },
 "features": [
  {
   "type": "Feature",
   "id": "bonaire",
   "properties": {
    "name": "Bonaire"
   },
   "geometry": {
    "type": "Polygon",
    "coordinates": [
     [
      [
       -68.3987464,
       12.302918799999999
      ],
      [
       -68.3971512,
       12.305099599999998
      ],
      [
       -68.3972945,
       12.3058887
      ],
      [
       -68.3965649,
       12.306736699999998
      ],
      [
       -68.3961204,
       12.3069833
      ],
      [
       -68.3957149,
       12.306766899999998
      ],
      [
       -68.3951564,
       12.3074415
      ],
      [
       -68.3943715,
       12.307476499999998
      ],
      [
       -68.3937422,
       12.308136899999996
      ],
      [
       -68.3927283,
       12.308301999999996
      ],
      [
       -68.3921489,
       12.309688199999998
      ],
      [
       -68.3905182,
       12.311527800000002
      ],
      [
       -68.3900256,
       12.311679299999996
      ],
      [
       -68.3886738,
       12.311536699999998
      ],
      [
       -68.3882481,
       12.312029999999998
      ],
      [
       -68.3873273,
       12.312166899999996
      ],
      [
       -68.3870843,
       12.311831300000001
      ],
      [
       -68.3865996,
       12.311948299999997
      ],
      [
       -68.3862887,
       12.311540699999997
      ],
      [
       -68.3854908,
       12.311519800000001
      ],
      [
       -68.3847131,
       12.310916700000002
      ],
      [
       -68.3839579,
       12.3106327
      ],
      [
       -68.3835039,
       12.3107073
      ],
      [
       -68.3833387,
       12.3102725
      ],
      [
       -68.3832171,
       12.310587199999999
      ],
      [
       -68.3827784,
       12.310682699999997
      ],
      [
       -68.3813171,
       12.310041199999999
      ],
      [
       -68.3809021,
       12.309634299999999
      ],
      [
       -68.3804511,
       12.309735300000002
      ],
      [
       -68.3800974,
       12.309217
      ],
      [
       -68.3794,
       12.309113099999998
      ],
      [
       -68.37853,
       12.3084458
      ],
      [
       -68.3779934,
       12.308513299999998
      ],
      [
       -68.3778481,
       12.3082679
      ],
      [
       -68.3773815,
       12.3081612
      ],
      [
       -68.3770908,
       12.3082631
      ],
      [
       -68.3769931,
       12.307877700000002
      ],
      [
       -68.3764891,
       12.308012899999998
      ],
      [
       -68.3760192,
       12.307612199999998
      ],
      [
       -68.3755799,
       12.307795500000001
      ],
      [
       -68.3750073,
       12.3076677
      ],
      [
       -68.3738053,
       12.3071299
      ],
      [
       -68.3730476,
       12.307163700000002
      ],
      [
       -68.37228,
       12.306741699999996
      ],
      [
       -68.3718505,
       12.3068164
      ],
      [
       -68.3716926,
       12.3065994
      ],
      [
       -68.3709398,
       12.306729599999999
      ],
      [
       -68.3689678,
       12.306027899999998
      ],
      [
       -68.3687139,
       12.304907899999998
      ],
      [
       -68.3683679,
       12.305370399999994
      ],
      [
       -68.3684027,
       12.305980999999997
      ],
      [
       -68.367881,
       12.306294199999998
      ],
      [
       -68.367075,
       12.3057124
      ],
      [
       -68.3666412,
       12.305866399999998
      ],
      [
       -68.3658801,
       12.305522399999997
      ],
      [
       -68.3650396,
       12.304483300000001
      ],
      [
       -68.3648186,
       12.3046272
      ],
      [
       -68.3634391,
       12.304195399999998
      ],
      [
       -68.3633922,
       12.303842100000002
      ],
      [
       -68.3627628,
       12.3036654
      ],
      [
       -68.3625619,
       12.303135499999998
      ],
      [
       -68.3611891,
       12.302546599999998
      ],
      [
       -68.3593743,
       12.300309
      ],
      [
       -68.3594078,
       12.300007999999998
      ],
      [
       -68.3581689,
       12.298071300000002
      ],
      [
       -68.3579814,
       12.2970114
      ],
      [
       -68.3581354,
       12.2962524
      ],
      [
       -68.3579278,
       12.295957999999999
      ],
      [
       -68.3582814,
       12.295904099999998
      ],
      [
       -68.3582171,
       12.295653799999998
      ],
      [
       -68.3576064,
       12.295735500000003
      ],
      [
       -68.3577584,
       12.2954036
      ],
      [
       -68.3574553,
       12.295541099999998
      ],
      [
       -68.3573239,
       12.2953931
      ],
      [
       -68.3563234,
       12.293229700000001
      ],
      [
       -68.3564227,
       12.2930095
      ],
      [
       -68.3531777,
       12.2890979
      ],
      [
       -68.3518112,
       12.2870834
      ],
      [
       -68.3516913,
       12.286521200000001
      ],
      [
       -68.3523146,
       12.2858206
      ],
      [
       -68.3511813,
       12.286083900000001
      ],
      [
       -68.3499641,
       12.284003199999999
      ],
      [
       -68.3498471,
       12.282712400000001
      ],
      [
       -68.3485791,
       12.281194999999999
      ],
      [
       -68.3483317,
       12.280499999999998
      ],
      [
       -68.3485702,
       12.280329500000002
      ],
      [
       -68.3482483,
       12.2797239
      ],
      [
       -68.3478707,
       12.2794603
      ],
      [
       -68.3474751,
       12.2797649
      ],
      [
       -68.345695,
       12.2791031
      ],
      [
       -68.3435373,
       12.2777034
      ],
      [
       -68.3425484,
       12.2774164
      ],
      [
       -68.3417992,
       12.276883499999999
      ],
      [
       -68.3416859,
       12.275936000000002
      ],
      [
       -68.3415004,
       12.276014199999999
      ],
      [
       -68.3386804,
       12.272551099999996
      ],
      [
       -68.3371633,
       12.271554799999997
      ],
      [
       -68.3367065,
       12.2710251
      ],
      [
       -68.3360767,
       12.270800499999998
      ],
      [
       -68.3354182,
       12.270926099999999
      ],
      [
       -68.3314758,
       12.268700399999998
      ],
      [
       -68.3300203,
       12.267064900000001
      ],
      [
       -68.3288013,
       12.266712899999996
      ],
      [
       -68.3281609,
       12.266773299999999
      ],
      [
       -68.3271494,
       12.266286199999996
      ],
      [
       -68.3252682,
       12.264707499999998
      ],
      [
       -68.3248242,
       12.263946599999999
      ],
      [
       -68.3243876,
       12.2637937
      ],
      [
       -68.3229212,
       12.262218499999998
      ],
      [
       -68.3200284,
       12.259725999999999
      ],
      [
       -68.3174486,
       12.2582752
      ],
      [
       -68.3174122,
       12.257972999999998
      ],
      [
       -68.3167682,
       12.2581152
      ],
      [
       -68.3156866,
       12.257590200000001
      ],
      [
       -68.3125779,
       12.2555195
      ],
      [
       -68.3123043,
       12.254830199999999
      ],
      [
       -68.3117464,
       12.255142799999998
      ],
      [
       -68.3109833,
       12.254780400000001
      ],
      [
       -68.3108063,
       12.2543125
      ],
      [
       -68.3111686,
       12.2532177
      ],
      [
       -68.3108774,
       12.2531363
      ],
      [
       -68.3096784,
       12.254341399999998
      ],
      [
       -68.305198,
       12.2521011
      ],
      [
       -68.3048869,
       12.2516607
      ],
      [
       -68.3044148,
       12.251760299999999
      ],
      [
       -68.3030308,
       12.2510421
      ],
      [
       -68.3019579,
       12.250077599999997
      ],
      [
       -68.2992006,
       12.248808899999998
      ],
      [
       -68.296572,
       12.2485521
      ],
      [
       -68.2950861,
       12.2480802
      ],
      [
       -68.2934403,
       12.247232900000002
      ],
      [
       -68.2934826,
       12.246978599999997
      ],
      [
       -68.2931225,
       12.246825299999996
      ],
      [
       -68.2909633,
       12.2466221
      ],
      [
       -68.2908145,
       12.2463652
      ],
      [
       -68.2901895,
       12.246281999999997
      ],
      [
       -68.2899012,
       12.2459144
      ],
      [
       -68.2895659,
       12.2460009
      ],
      [
       -68.2894747,
       12.2456484
      ],
      [
       -68.2890576,
       12.2457086
      ],
      [
       -68.2882462,
       12.245004200000002
      ],
      [
       -68.2877621,
       12.244767599999998
      ],
      [
       -68.2874966,
       12.2448974
      ],
      [
       -68.2874335,
       12.244599899999999
      ],
      [
       -68.2858336,
       12.243920999999997
      ],
      [
       -68.2848358,
       12.2432657
      ],
      [
       -68.2839212,
       12.242319399999998
      ],
      [
       -68.2835955,
       12.2410292
      ],
      [
       -68.28315,
       12.241029799999996
      ],
      [
       -68.2832412,
       12.240681199999997
      ],
      [
       -68.2827799,
       12.240482600000002
      ],
      [
       -68.2828389,
       12.240112400000001
      ],
      [
       -68.2825016,
       12.2397395
      ],
      [
       -68.2825828,
       12.2394394
      ],
      [
       -68.2823689,
       12.239366599999999
      ],
      [
       -68.2820988,
       12.2375535
      ],
      [
       -68.2818092,
       12.2372442
      ],
      [
       -68.2815892,
       12.2363267
      ],
      [
       -68.2804305,
       12.235582299999999
      ],
      [
       -68.2799316,
       12.234942699999998
      ],
      [
       -68.2769704,
       12.2339676
      ],
      [
       -68.2762892,
       12.233490499999997
      ],
      [
       -68.2728452,
       12.234219199999997
      ],
      [
       -68.2721371,
       12.2342769
      ],
      [
       -68.2718689,
       12.234082899999999
      ],
      [
       -68.2719064,
       12.234371199999998
      ],
      [
       -68.2712144,
       12.234617600000002
      ],
      [
       -68.2685751,
       12.2350842
      ],
      [
       -68.2678885,
       12.2348536
      ],
      [
       -68.2675291,
       12.235115699999998
      ],
      [
       -68.2669482,
       12.235095300000001
      ],
      [
       -68.2667611,
       12.2349236
      ],
      [
       -68.2641801,
       12.234677200000002
      ],
      [
       -68.2573532,
       12.2320572
      ],
      [
       -68.2572426,
       12.2316587
      ],
      [
       -68.2568309,
       12.231834399999997
      ],
      [
       -68.2532114,
       12.2303082
      ],
      [
       -68.2488502,
       12.228808799999998
      ],
      [
       -68.2438988,
       12.2278546
      ],
      [
       -68.2433195,
       12.228038100000001
      ],
      [
       -68.2431371,
       12.2278179
      ],
      [
       -68.2422573,
       12.227985699999998
      ],
      [
       -68.2413936,
       12.2276711
      ],
      [
       -68.24088400000001,
       12.2279018
      ],
      [
       -68.2405407,
       12.227629199999997
      ],
      [
       -68.2398916,
       12.2278599
      ],
      [
       -68.2394034,
       12.227508599999998
      ],
      [
       -68.236968,
       12.227582
      ],
      [
       -68.2362652,
       12.227414199999998
      ],
      [
       -68.2357985,
       12.227000099999998
      ],
      [
       -68.2351602,
       12.2271259
      ],
      [
       -68.2346827,
       12.226790400000004
      ],
      [
       -68.2327086,
       12.2263604
      ],
      [
       -68.2299674,
       12.2252595
      ],
      [
       -68.2274998,
       12.224740399999998
      ],
      [
       -68.2228542,
       12.224656499999998
      ],
      [
       -68.2206816,
       12.225133599999998
      ],
      [
       -68.2202203,
       12.2250026
      ],
      [
       -68.2173396,
       12.225982999999998
      ],
      [
       -68.21689970000001,
       12.2257942
      ],
      [
       -68.2156659,
       12.2259987
      ],
      [
       -68.2150919,
       12.2254325
      ],
      [
       -68.2144138,
       12.2259663
      ],
      [
       -68.2143184,
       12.2257037
      ],
      [
       -68.2140424,
       12.225933500000002
      ],
      [
       -68.2115989,
       12.2257782
      ],
      [
       -68.2109936,
       12.2260119
      ],
      [
       -68.2108286,
       12.225864299999998
      ],
      [
       -68.2102472,
       12.226203499999997
      ],
      [
       -68.2102283,
       12.2253049
      ],
      [
       -68.2094971,
       12.225696599999997
      ],
      [
       -68.20968440000001,
       12.2258359
      ],
      [
       -68.2094485,
       12.225985599999998
      ],
      [
       -68.2092112,
       12.2257586
      ],
      [
       -68.2086459,
       12.225815399999998
      ],
      [
       -68.2070434,
       12.225069299999998
      ],
      [
       -68.2054433,
       12.224761699999998
      ],
      [
       -68.2051811,
       12.2243917
      ],
      [
       -68.2038575,
       12.224252699999997
      ],
      [
       -68.2036518,
       12.224133699999998
      ],
      [
       -68.2037098,
       12.223882599999996
      ],
      [
       -68.2029235,
       12.223950699999996
      ],
      [
       -68.2019115,
       12.223057499999998
      ],
      [
       -68.1988216,
       12.221851599999999
      ],
      [
       -68.1977541,
       12.221704799999998
      ],
      [
       -68.1971908,
       12.2212015
      ],
      [
       -68.1961877,
       12.2191988
      ],
      [
       -68.1960104,
       12.217194199999998
      ],
      [
       -68.196662,
       12.2161135
      ],
      [
       -68.1960795,
       12.214801299999998
      ],
      [
       -68.1960894,
       12.212572300000001
      ],
      [
       -68.1964536,
       12.211782399999999
      ],
      [
       -68.1970964,
       12.2110767
      ],
      [
       -68.1976591,
       12.209069699999997
      ],
      [
       -68.1986069,
       12.207371400000001
      ],
      [
       -68.1990906,
       12.2069179
      ],
      [
       -68.1992091,
       12.2061749
      ],
      [
       -68.2001371,
       12.2055091
      ],
      [
       -68.2016476,
       12.2049205
      ],
      [
       -68.2038788,
       12.202952
      ],
      [
       -68.205646,
       12.2006071
      ],
      [
       -68.2058336,
       12.199487799999998
      ],
      [
       -68.2064358,
       12.198281599999996
      ],
      [
       -68.2068899,
       12.198098199999999
      ],
      [
       -68.2065345,
       12.197673699999998
      ],
      [
       -68.2059422,
       12.1954542
      ],
      [
       -68.2058336,
       12.1939199
      ],
      [
       -68.2060606,
       12.1930804
      ],
      [
       -68.2070676,
       12.191575
      ],
      [
       -68.2076501,
       12.191218
      ],
      [
       -68.2076995,
       12.190841599999997
      ],
      [
       -68.208588,
       12.1895968
      ],
      [
       -68.2095753,
       12.1873097
      ],
      [
       -68.2095062,
       12.185003299999998
      ],
      [
       -68.209832,
       12.184240999999998
      ],
      [
       -68.2095851,
       12.184067300000002
      ],
      [
       -68.2096469,
       12.1830675
      ],
      [
       -68.2109955,
       12.1826925
      ],
      [
       -68.2125298,
       12.1829269
      ],
      [
       -68.2130692,
       12.1832022
      ],
      [
       -68.216114,
       12.182915200000002
      ],
      [
       -68.2162758,
       12.182534399999998
      ],
      [
       -68.216138,
       12.1819426
      ],
      [
       -68.2172887,
       12.181550100000003
      ],
      [
       -68.2179954,
       12.180773299999998
      ],
      [
       -68.2179739,
       12.180154599999998
      ],
      [
       -68.2183923,
       12.1790587
      ],
      [
       -68.2174428,
       12.179184499999998
      ],
      [
       -68.2162358,
       12.1800078
      ],
      [
       -68.2153239,
       12.180070699999996
      ],
      [
       -68.2153132,
       12.1803381
      ],
      [
       -68.2145836,
       12.180621299999999
      ],
      [
       -68.2145729,
       12.181633299999998
      ],
      [
       -68.2135322,
       12.1819479
      ],
      [
       -68.210689,
       12.1817382
      ],
      [
       -68.2105174,
       12.181009300000001
      ],
      [
       -68.2095026,
       12.1804098
      ],
      [
       -68.2092844,
       12.178611199999997
      ],
      [
       -68.2094961,
       12.1784489
      ],
      [
       -68.2087828,
       12.177691200000002
      ],
      [
       -68.2083139,
       12.176411499999997
      ],
      [
       -68.2079817,
       12.1742562
      ],
      [
       -68.2086363,
       12.173832799999998
      ],
      [
       -68.209851,
       12.1738838
      ],
      [
       -68.2100464,
       12.173495399999998
      ],
      [
       -68.2094961,
       12.173224800000002
      ],
      [
       -68.2080403,
       12.1733776
      ],
      [
       -68.2080142,
       12.1730943
      ],
      [
       -68.2084018,
       12.1729478
      ],
      [
       -68.2083399,
       12.172683599999997
      ],
      [
       -68.2079759,
       12.172618199999999
      ],
      [
       -68.2080349,
       12.1722669
      ],
      [
       -68.2076085,
       12.172185599999999
      ],
      [
       -68.2076138,
       12.1719628
      ],
      [
       -68.2069889,
       12.171614100000001
      ],
      [
       -68.2065436,
       12.1682265
      ],
      [
       -68.2033879,
       12.1588809
      ],
      [
       -68.2000083,
       12.150964799999999
      ],
      [
       -68.1984955,
       12.147637299999998
      ],
      [
       -68.1982756,
       12.147519400000002
      ],
      [
       -68.1978866,
       12.1458307
      ],
      [
       -68.1979973,
       12.145494399999997
      ],
      [
       -68.1965657,
       12.142563399999998
      ],
      [
       -68.1958964,
       12.138967100000004
      ],
      [
       -68.1957731,
       12.136351400000002
      ],
      [
       -68.1954673,
       12.135761400000002
      ],
      [
       -68.1958401,
       12.134112
      ],
      [
       -68.1955531,
       12.131473899999998
      ],
      [
       -68.19573280000002,
       12.128002
      ],
      [
       -68.1960172,
       12.126900599999999
      ],
      [
       -68.1981576,
       12.122366500000002
      ],
      [
       -68.2000618,
       12.1200325
      ],
      [
       -68.2050873,
       12.112725199999996
      ],
      [
       -68.2064895,
       12.111364099999998
      ],
      [
       -68.20669740000001,
       12.110675699999996
      ],
      [
       -68.2076295,
       12.110229799999999
      ],
      [
       -68.21003000000002,
       12.108242099999998
      ],
      [
       -68.2161628,
       12.104125899999998
      ],
      [
       -68.2192742,
       12.102793699999998
      ],
      [
       -68.2199676,
       12.102692399999997
      ],
      [
       -68.2210053,
       12.1029287
      ],
      [
       -68.221731,
       12.102610699999998
      ],
      [
       -68.2222645,
       12.102883699999998
      ],
      [
       -68.2225793,
       12.1039013
      ],
      [
       -68.2223846,
       12.104194799999998
      ],
      [
       -68.2224992,
       12.1048797
      ],
      [
       -68.2219037,
       12.104939799999999
      ],
      [
       -68.22192650000001,
       12.1039043
      ],
      [
       -68.2215073,
       12.1031503
      ],
      [
       -68.2208687,
       12.103090399999997
      ],
      [
       -68.2204168,
       12.103239900000002
      ],
      [
       -68.2203436,
       12.1043955
      ],
      [
       -68.2197342,
       12.1050463
      ],
      [
       -68.2196699,
       12.105402899999998
      ],
      [
       -68.2186866,
       12.104528700000001
      ],
      [
       -68.2181845,
       12.104375799999996
      ],
      [
       -68.2176096,
       12.1045003
      ],
      [
       -68.2169182,
       12.105069499999999
      ],
      [
       -68.2164893,
       12.105695300000002
      ],
      [
       -68.2161167,
       12.107323100000002
      ],
      [
       -68.2160559,
       12.1090417
      ],
      [
       -68.216579,
       12.1099636
      ],
      [
       -68.2193135,
       12.112010399999999
      ],
      [
       -68.2191456,
       12.113303900000002
      ],
      [
       -68.2205795,
       12.114209399999998
      ],
      [
       -68.2206318,
       12.1144139
      ],
      [
       -68.2202563,
       12.114628999999999
      ],
      [
       -68.2214723,
       12.115880500000001
      ],
      [
       -68.2241736,
       12.116538099999998
      ],
      [
       -68.2260874,
       12.118477399999998
      ],
      [
       -68.2280498,
       12.118348100000002
      ],
      [
       -68.2298425,
       12.117433699999998
      ],
      [
       -68.2320433,
       12.114352699999996
      ],
      [
       -68.2330383,
       12.113286199999996
      ],
      [
       -68.2339478,
       12.112809799999997
      ],
      [
       -68.2350362,
       12.111483499999995
      ],
      [
       -68.2362345,
       12.108443499999998
      ],
      [
       -68.2363028,
       12.107587099999998
      ],
      [
       -68.2374209,
       12.1068404
      ],
      [
       -68.2400102,
       12.106395000000001
      ],
      [
       -68.2408738,
       12.1032457
      ],
      [
       -68.240635,
       12.102042400000002
      ],
      [
       -68.2421156,
       12.1014024
      ],
      [
       -68.2427539,
       12.100453099999996
      ],
      [
       -68.2427684,
       12.0962342
      ],
      [
       -68.2430167,
       12.095704200000002
      ],
      [
       -68.2430319,
       12.0945897
      ],
      [
       -68.2417748,
       12.092820999999999
      ],
      [
       -68.2402036,
       12.0921101
      ],
      [
       -68.2395208,
       12.092317800000002
      ],
      [
       -68.2380488,
       12.093712100000001
      ],
      [
       -68.2377532,
       12.0948929
      ],
      [
       -68.23682930000001,
       12.0953168
      ],
      [
       -68.2363397,
       12.094703500000001
      ],
      [
       -68.2362288,
       12.0933572
      ],
      [
       -68.2357286,
       12.0920367
      ],
      [
       -68.2350205,
       12.0914408
      ],
      [
       -68.2349588,
       12.090827800000001
      ],
      [
       -68.2351908,
       12.090205099999999
      ],
      [
       -68.2348625,
       12.0899373
      ],
      [
       -68.234902,
       12.090195499999998
      ],
      [
       -68.2344528,
       12.090584000000002
      ],
      [
       -68.2337346,
       12.088624399999999
      ],
      [
       -68.2332631,
       12.088818399999997
      ],
      [
       -68.2323891,
       12.088768500000002
      ],
      [
       -68.2321034,
       12.089491099999998
      ],
      [
       -68.2317989,
       12.089590399999997
      ],
      [
       -68.2318056,
       12.089857399999998
      ],
      [
       -68.2322828,
       12.090193499999998
      ],
      [
       -68.2317399,
       12.090407
      ],
      [
       -68.2312053,
       12.0910399
      ],
      [
       -68.23091640000001,
       12.0907583
      ],
      [
       -68.2316674,
       12.089698399999998
      ],
      [
       -68.231926,
       12.086312
      ],
      [
       -68.2318811,
       12.081618999999998
      ],
      [
       -68.2314934,
       12.077439899999998
      ],
      [
       -68.2308551,
       12.0761644
      ],
      [
       -68.2299063,
       12.071360100000001
      ],
      [
       -68.2290508,
       12.0698736
      ],
      [
       -68.2259858,
       12.062936999999996
      ],
      [
       -68.2252958,
       12.059400799999999
      ],
      [
       -68.2254328,
       12.056592399999998
      ],
      [
       -68.2252781,
       12.056506
      ],
      [
       -68.2249255,
       12.052387799999998
      ],
      [
       -68.2250646,
       12.0519618
      ],
      [
       -68.2249302,
       12.0506794
      ],
      [
       -68.2256824,
       12.0461382
      ],
      [
       -68.2269833,
       12.0434232
      ],
      [
       -68.2276273,
       12.041233699999996
      ],
      [
       -68.2282413,
       12.040966300000001
      ],
      [
       -68.2281376,
       12.040344699999999
      ],
      [
       -68.2293599,
       12.037465200000002
      ],
      [
       -68.231218,
       12.034211399999998
      ],
      [
       -68.2327008,
       12.0319183
      ],
      [
       -68.234545,
       12.029606999999999
      ],
      [
       -68.2366682,
       12.028214
      ],
      [
       -68.2385092,
       12.027236900000002
      ],
      [
       -68.240924,
       12.0263216
      ],
      [
       -68.2481344,
       12.0248016
      ],
      [
       -68.2495843,
       12.0247615
      ],
      [
       -68.249919,
       12.0249235
      ],
      [
       -68.2509856,
       12.025825499999996
      ],
      [
       -68.2530676,
       12.028801
      ],
      [
       -68.254234,
       12.029766800000003
      ],
      [
       -68.2569251,
       12.031753299999998
      ],
      [
       -68.2603846,
       12.033455999999996
      ],
      [
       -68.2621938,
       12.034804200000002
      ],
      [
       -68.2637755,
       12.0370835
      ],
      [
       -68.264922,
       12.0393887
      ],
      [
       -68.266519,
       12.043701299999999
      ],
      [
       -68.2682173,
       12.0468483
      ],
      [
       -68.271332,
       12.050634599999999
      ],
      [
       -68.272933,
       12.052207499999998
      ],
      [
       -68.2759004,
       12.054229300000001
      ],
      [
       -68.2803198,
       12.0564478
      ],
      [
       -68.280903,
       12.057180199999998
      ],
      [
       -68.2811703,
       12.0583739
      ],
      [
       -68.2820272,
       12.059819199999998
      ],
      [
       -68.2821426,
       12.0617287
      ],
      [
       -68.2817671,
       12.065852
      ],
      [
       -68.2806637,
       12.0703701
      ],
      [
       -68.2803471,
       12.0703416
      ],
      [
       -68.2806457,
       12.070541
      ],
      [
       -68.2804075,
       12.070794500000002
      ],
      [
       -68.280367,
       12.071424200000001
      ],
      [
       -68.2800921,
       12.071439600000001
      ],
      [
       -68.2803574,
       12.071555199999997
      ],
      [
       -68.2800665,
       12.075822299999997
      ],
      [
       -68.280685,
       12.079261900000002
      ],
      [
       -68.2821119,
       12.0831658
      ],
      [
       -68.282235,
       12.084542299999999
      ],
      [
       -68.2830619,
       12.087769199999999
      ],
      [
       -68.2839782,
       12.092896600000001
      ],
      [
       -68.284194,
       12.09561
      ],
      [
       -68.2849647,
       12.0986528
      ],
      [
       -68.2861881,
       12.101543200000002
      ],
      [
       -68.287381,
       12.1034886
      ],
      [
       -68.289893,
       12.1067281
      ],
      [
       -68.2941016,
       12.111315299999998
      ],
      [
       -68.2947613,
       12.112516599999998
      ],
      [
       -68.29481620000001,
       12.113679099999999
      ],
      [
       -68.2950387,
       12.114000999999996
      ],
      [
       -68.2948088,
       12.1142113
      ],
      [
       -68.2945055,
       12.1156344
      ],
      [
       -68.2939321,
       12.116947199999998
      ],
      [
       -68.2930407,
       12.118088000000004
      ],
      [
       -68.2924663,
       12.1192523
      ],
      [
       -68.2873207,
       12.1255594
      ],
      [
       -68.2858823,
       12.128884900000001
      ],
      [
       -68.28463000000002,
       12.130681999999998
      ],
      [
       -68.2826124,
       12.1326807
      ],
      [
       -68.2793581,
       12.135071699999997
      ],
      [
       -68.2789431,
       12.134762300000002
      ],
      [
       -68.27746850000001,
       12.134754099999997
      ],
      [
       -68.2762916,
       12.135748300000001
      ],
      [
       -68.2752825,
       12.135656499999998
      ],
      [
       -68.276236,
       12.1361901
      ],
      [
       -68.2760374,
       12.1366236
      ],
      [
       -68.2752422,
       12.136598500000002
      ],
      [
       -68.2752489,
       12.136762399999999
      ],
      [
       -68.2755896,
       12.1367423
      ],
      [
       -68.2754581,
       12.137208200000002
      ],
      [
       -68.2756731,
       12.137440700000003
      ],
      [
       -68.2778224,
       12.135347000000001
      ],
      [
       -68.2783529,
       12.1354006
      ],
      [
       -68.2785098,
       12.135612200000002
      ],
      [
       -68.2779714,
       12.1358054
      ],
      [
       -68.2768606,
       12.1370498
      ],
      [
       -68.27630070000001,
       12.138556000000001
      ],
      [
       -68.2759432,
       12.1414201
      ],
      [
       -68.2760315,
       12.144287700000001
      ],
      [
       -68.2762997,
       12.146070599999998
      ],
      [
       -68.2767878,
       12.1465242
      ],
      [
       -68.2769084,
       12.146953600000002
      ],
      [
       -68.276647,
       12.147750100000001
      ],
      [
       -68.2768764,
       12.148627200000002
      ],
      [
       -68.2772546,
       12.1490297
      ],
      [
       -68.2770507,
       12.1493483
      ],
      [
       -68.2774241,
       12.1506788
      ],
      [
       -68.2796094,
       12.156747800000002
      ],
      [
       -68.2806051,
       12.1585206
      ],
      [
       -68.2816347,
       12.1598217
      ],
      [
       -68.2853114,
       12.162679
      ],
      [
       -68.2857815,
       12.1625928
      ],
      [
       -68.2840028,
       12.163688100000002
      ],
      [
       -68.2840806,
       12.164287899999998
      ],
      [
       -68.2845832,
       12.164997899999998
      ],
      [
       -68.2859892,
       12.164238299999997
      ],
      [
       -68.2856453,
       12.163588900000002
      ],
      [
       -68.2853665,
       12.163543499999998
      ],
      [
       -68.2858456,
       12.163118599999997
      ],
      [
       -68.2862446,
       12.1630039
      ],
      [
       -68.2861806,
       12.1632311
      ],
      [
       -68.2870988,
       12.163763699999999
      ],
      [
       -68.2872204,
       12.163658400000001
      ],
      [
       -68.2871995,
       12.167550000000002
      ],
      [
       -68.2873883,
       12.167601
      ],
      [
       -68.2874145,
       12.1686943
      ],
      [
       -68.2878215,
       12.169804899999999
      ],
      [
       -68.2882178,
       12.1706785
      ],
      [
       -68.2885668,
       12.170895100000001
      ],
      [
       -68.2886314,
       12.171637099999998
      ],
      [
       -68.2895392,
       12.1733021
      ],
      [
       -68.2919792,
       12.176669499999997
      ],
      [
       -68.29342780000002,
       12.180387699999997
      ],
      [
       -68.2957135,
       12.184734300000002
      ],
      [
       -68.2963277,
       12.186274600000004
      ],
      [
       -68.2968226,
       12.189184699999997
      ],
      [
       -68.2977265,
       12.191414499999997
      ],
      [
       -68.3003497,
       12.194547399999998
      ],
      [
       -68.3011101,
       12.1957652
      ],
      [
       -68.3028911,
       12.197020999999998
      ],
      [
       -68.3041361,
       12.1973877
      ],
      [
       -68.3047631,
       12.197907599999999
      ],
      [
       -68.3068462,
       12.198949400000002
      ],
      [
       -68.30781900000001,
       12.1997302
      ],
      [
       -68.308353,
       12.199874499999998
      ],
      [
       -68.309073,
       12.200655400000002
      ],
      [
       -68.3101772,
       12.201250399999996
      ],
      [
       -68.3115505,
       12.2031797
      ],
      [
       -68.3149387,
       12.2054695
      ],
      [
       -68.3175826,
       12.2069497
      ],
      [
       -68.32129040000001,
       12.2105482
      ],
      [
       -68.3222213,
       12.211023999999998
      ],
      [
       -68.3238699,
       12.2112552
      ],
      [
       -68.3250957,
       12.211031
      ],
      [
       -68.3274998,
       12.2113975
      ],
      [
       -68.3303963,
       12.212881099999997
      ],
      [
       -68.3315068,
       12.213240799999998
      ],
      [
       -68.3331254,
       12.213342599999999
      ],
      [
       -68.3364636,
       12.215242899999998
      ],
      [
       -68.3375578,
       12.215274700000002
      ],
      [
       -68.3391276,
       12.2149341
      ],
      [
       -68.3404856,
       12.215277899999998
      ],
      [
       -68.3424007,
       12.2166309
      ],
      [
       -68.34466590000001,
       12.217879
      ],
      [
       -68.3464589,
       12.217906499999998
      ],
      [
       -68.3471939,
       12.2182052
      ],
      [
       -68.34953,
       12.2180381
      ],
      [
       -68.3530832,
       12.219851
      ],
      [
       -68.3558533,
       12.220770100000001
      ],
      [
       -68.3599383,
       12.220168499999998
      ],
      [
       -68.3653779,
       12.2203219
      ],
      [
       -68.3689001,
       12.2206554
      ],
      [
       -68.3733357,
       12.2204989
      ],
      [
       -68.3745656,
       12.2206519
      ],
      [
       -68.3748785,
       12.2203211
      ],
      [
       -68.3749185,
       12.220698099999998
      ],
      [
       -68.3754316,
       12.220779900000002
      ],
      [
       -68.3776403,
       12.2201611
      ],
      [
       -68.3825871,
       12.2207032
      ],
      [
       -68.3877752,
       12.220880899999997
      ],
      [
       -68.3902822,
       12.220888699999996
      ],
      [
       -68.3927892,
       12.220324399999997
      ],
      [
       -68.3957312,
       12.220347600000002
      ],
      [
       -68.398863,
       12.2213988
      ],
      [
       -68.4002048,
       12.2222525
      ],
      [
       -68.4001825,
       12.222530100000002
      ],
      [
       -68.40029390000001,
       12.2223487
      ],
      [
       -68.4041427,
       12.2233692
      ],
      [
       -68.4087045,
       12.225086999999998
      ],
      [
       -68.4098718,
       12.225719500000002
      ],
      [
       -68.41138230000001,
       12.227466299999998
      ],
      [
       -68.4124658,
       12.2315163
      ],
      [
       -68.4122775,
       12.231770699999998
      ],
      [
       -68.4128354,
       12.232813999999998
      ],
      [
       -68.4128246,
       12.233505999999997
      ],
      [
       -68.4125832,
       12.233626600000001
      ],
      [
       -68.4127978,
       12.234187499999999
      ],
      [
       -68.4125253,
       12.2347388
      ],
      [
       -68.4126523,
       12.2353897
      ],
      [
       -68.4121597,
       12.235778299999998
      ],
      [
       -68.4122547,
       12.236417299999998
      ],
      [
       -68.4125672,
       12.236471299999998
      ],
      [
       -68.4126494,
       12.2373205
      ],
      [
       -68.4121509,
       12.238033399999999
      ],
      [
       -68.4120746,
       12.238710900000001
      ],
      [
       -68.4121915,
       12.239246799999998
      ],
      [
       -68.4124282,
       12.2393406
      ],
      [
       -68.4123143,
       12.240924999999999
      ],
      [
       -68.412599,
       12.241774299999998
      ],
      [
       -68.4125666,
       12.242489399999997
      ],
      [
       -68.4131273,
       12.243407700000002
      ],
      [
       -68.4132709,
       12.2450246
      ],
      [
       -68.4139646,
       12.246337699999998
      ],
      [
       -68.4170373,
       12.2497718
      ],
      [
       -68.4173125,
       12.250401099999998
      ],
      [
       -68.4186012,
       12.251500699999998
      ],
      [
       -68.4194417,
       12.252789499999997
      ],
      [
       -68.4199908,
       12.254192600000001
      ],
      [
       -68.4198912,
       12.255273199999996
      ],
      [
       -68.4203672,
       12.2562706
      ],
      [
       -68.4209493,
       12.258852399999999
      ],
      [
       -68.4207505,
       12.259821599999997
      ],
      [
       -68.42039,
       12.260102900000001
      ],
      [
       -68.4203192,
       12.260583799999996
      ],
      [
       -68.4182767,
       12.2629033
      ],
      [
       -68.4163709,
       12.2634811
      ],
      [
       -68.4157259,
       12.263947699999997
      ],
      [
       -68.4149964,
       12.263921999999999
      ],
      [
       -68.414265,
       12.264219799999998
      ],
      [
       -68.4141185,
       12.263976200000002
      ],
      [
       -68.4136944,
       12.264568099999998
      ],
      [
       -68.4140781,
       12.266742699999998
      ],
      [
       -68.4140235,
       12.2673952
      ],
      [
       -68.4135923,
       12.268204099999998
      ],
      [
       -68.4138288,
       12.2695433
      ],
      [
       -68.4154726,
       12.272142900000002
      ],
      [
       -68.41571,
       12.2727077
      ],
      [
       -68.4154893,
       12.273100800000002
      ],
      [
       -68.4156985,
       12.2730864
      ],
      [
       -68.4159064,
       12.273518899999997
      ],
      [
       -68.4157682,
       12.273711500000001
      ],
      [
       -68.4159774,
       12.274205499999999
      ],
      [
       -68.4152445,
       12.275937899999999
      ],
      [
       -68.4143364,
       12.2770105
      ],
      [
       -68.4144965,
       12.278030899999997
      ],
      [
       -68.41428,
       12.2784452
      ],
      [
       -68.4143655,
       12.279236199999998
      ],
      [
       -68.4140671,
       12.2798069
      ],
      [
       -68.4146693,
       12.281554400000001
      ],
      [
       -68.4145594,
       12.281952799999997
      ],
      [
       -68.4141344,
       12.281932999999997
      ],
      [
       -68.4140562,
       12.282539200000002
      ],
      [
       -68.4141526,
       12.282852099999996
      ],
      [
       -68.4148607,
       12.283063100000001
      ],
      [
       -68.4149841,
       12.2834394
      ],
      [
       -68.4148656,
       12.2858076
      ],
      [
       -68.4141252,
       12.286873499999999
      ],
      [
       -68.4138093,
       12.287867099999998
      ],
      [
       -68.4131675,
       12.288561600000001
      ],
      [
       -68.4129602,
       12.2892947
      ],
      [
       -68.4118298,
       12.290206299999998
      ],
      [
       -68.4116539,
       12.291426999999999
      ],
      [
       -68.4118649,
       12.292353699999998
      ],
      [
       -68.4115119,
       12.2930825
      ],
      [
       -68.41060590000001,
       12.293605099999997
      ],
      [
       -68.4093887,
       12.294805
      ],
      [
       -68.4084972,
       12.296314199999998
      ],
      [
       -68.4072746,
       12.2969364
      ],
      [
       -68.4056479,
       12.2983668
      ],
      [
       -68.4051047,
       12.298506999999999
      ],
      [
       -68.4040582,
       12.299424699999996
      ],
      [
       -68.403083,
       12.299086499999996
      ],
      [
       -68.4027974,
       12.299229300000002
      ],
      [
       -68.4024668,
       12.299682399999998
      ],
      [
       -68.4026371,
       12.3005386
      ],
      [
       -68.4003561,
       12.302458399999997
      ],
      [
       -68.3991383,
       12.3030148
      ],
      [
       -68.3987464,
       12.302918799999999
      ]
     ]
    ]
   }
  }
 ]
}