{
 "type": "FeatureCollection",
 "crs": {
  "type": "name",
  "properties": {
   "name": "urn:ogc:def:crs:OGC:1.3:CRS84"
  }
 },
 "properties": {
  "title": "Sint Maarten coastal segments",
  "source": "Coastline from OpenStreetMap, natural=coastline ways within 17.99..18.135N, -63.16..-62.96E, retrieved 2026-10-04 via Overpass; landmark positions from OpenStreetMap, listed in island.toml.",
  "license": "Geometry (c) OpenStreetMap contributors, ODbL 1.0, https://www.openstreetmap.org/copyright",
  "method": "Arcs of the merged coastline between named landmarks, snapped to the nearest coastline point, cut in EPSG:32620 and simplified to 15 m. Built by scripts/make_island_segments.py.",
  "island": "Sint Maarten"
 },
 "features": [
  {
   "type": "Feature",
   "id": "oyster_pond_guana",
   "properties": {
    "name": "Oyster Pond to Guana Bay Point",
    "exposure": "windward",
    "side": "Sint Maarten (Dutch)",
    "from": "Oyster Pond inlet, Dutch side",
    "from_osm": "relation/9589207",
    "to": "Guana Bay Point",
    "to_osm": "node/246556047",
    "length_m": 3483,
    "note": "Dawn Beach, Gibb's Bay and Guana Bay. The inlet and the south part of Oyster Pond are within 500 m of the north end."
   },
   "geometry": {
    "type": "LineString",
    "coordinates": [
     [
      -63.0198784,
      18.031438699999995
     ],
     [
      -63.020258,
      18.0320213
     ],
     [
      -63.0208399,
      18.0322272
     ],
     [
      -63.0217131,
      18.0322764
     ],
     [
      -63.02253760000001,
      18.032030300000002
     ],
     [
      -63.02301469999999,
      18.0322433
     ],
     [
      -63.02362680000001,
      18.033683300000003
     ],
     [
      -63.02338470000001,
      18.035224300000003
     ],
     [
      -63.0234933,
      18.035784000000003
     ],
     [
      -63.022858500000005,
      18.036325500000004
     ],
     [
      -63.02205549999999,
      18.0386805
     ],
     [
      -63.02105100000001,
      18.039833
     ],
     [
      -63.0191285,
      18.0407215
     ],
     [
      -63.018054,
      18.040704300000005
     ],
     [
      -63.018026899999995,
      18.0415028
     ],
     [
      -63.0175303,
      18.042052199999997
     ],
     [
      -63.01767480000001,
      18.043177
     ],
     [
      -63.015670199999995,
      18.0448168
     ],
     [
      -63.01551769999999,
      18.0457456
     ],
     [
      -63.0165461,
      18.046697
     ],
     [
      -63.0164468,
      18.047890399999996
     ],
     [
      -63.0170318,
      18.050070799999993
     ],
     [
      -63.016207699999995,
      18.0519329
     ],
     [
      -63.0157498,
      18.052188799999996
     ],
     [
      -63.0155548,
      18.052027000000002
     ],
     [
      -63.014121200000005,
      18.053508899999997
     ],
     [
      -63.0136127,
      18.0536038
     ],
     [
      -63.013607099999994,
      18.0538651
     ]
    ]
   }
  },
  {
   "type": "Feature",
   "id": "guana_point_blanche_bay",
   "properties": {
    "name": "Guana Bay Point to Point Blanche Bay",
    "exposure": "windward",
    "side": "Sint Maarten (Dutch)",
    "from": "Guana Bay Point",
    "from_osm": "node/246556047",
    "to": "Point Blanche Bay",
    "to_osm": "node/5098430630",
    "length_m": 3640,
    "note": "Geneve Bay, Back Bay and Point Blanche Bay, stopping short of the cruise piers."
   },
   "geometry": {
    "type": "LineString",
    "coordinates": [
     [
      -63.0353988,
      18.012066700000002
     ],
     [
      -63.0342404,
      18.0123762
     ],
     [
      -63.03290619999999,
      18.012407100000004
     ],
     [
      -63.0322294,
      18.0129023
     ],
     [
      -63.0318584,
      18.013372700000005
     ],
     [
      -63.032021099999994,
      18.013904900000004
     ],
     [
      -63.03169570000001,
      18.014047300000005
     ],
     [
      -63.03169570000001,
      18.0146414
     ],
     [
      -63.030472200000006,
      18.0149509
     ],
     [
      -63.02983439999999,
      18.0154769
     ],
     [
      -63.02962610000001,
      18.016355799999996
     ],
     [
      -63.02991250000001,
      18.017011800000002
     ],
     [
      -63.029548000000005,
      18.017246999999998
     ],
     [
      -63.029613100000006,
      18.017618299999995
     ],
     [
      -63.0290404,
      18.0183672
     ],
     [
      -63.0278364,
      18.0188499
     ],
     [
      -63.027491500000004,
      18.01858379999999
     ],
     [
      -63.026580300000006,
      18.0187571
     ],
     [
      -63.0256236,
      18.0192893
     ],
     [
      -63.025462100000006,
      18.019757499999997
     ],
     [
      -63.0260597,
      18.019796799999998
     ],
     [
      -63.02621260000001,
      18.0202683
     ],
     [
      -63.0268613,
      18.0208829
     ],
     [
      -63.0268238,
      18.0217692
     ],
     [
      -63.02814359999999,
      18.0228013
     ],
     [
      -63.0281102,
      18.0235188
     ],
     [
      -63.0263207,
      18.024559699999998
     ],
     [
      -63.025963000000004,
      18.025093700000003
     ],
     [
      -63.02608180000001,
      18.025307399999996
     ],
     [
      -63.0239877,
      18.026969199999993
     ],
     [
      -63.0233685,
      18.027233499999994
     ],
     [
      -63.02283700000001,
      18.0278636
     ],
     [
      -63.021975,
      18.027936200000003
     ],
     [
      -63.021481,
      18.0282618
     ],
     [
      -63.021323,
      18.0286752
     ],
     [
      -63.0221305,
      18.029772800000003
     ],
     [
      -63.0202958,
      18.0307366
     ],
     [
      -63.0198784,
      18.031438699999995
     ]
    ]
   }
  },
  {
   "type": "Feature",
   "id": "coralita_orient_bay",
   "properties": {
    "name": "Coralita to Orient Bay (French Saint-Martin)",
    "exposure": "windward",
    "side": "Saint-Martin (French)",
    "from": "Coralita Beach",
    "from_osm": "relation/9558436",
    "to": "Orient Bay, the northern beach",
    "to_osm": "way/151155089",
    "length_m": 5557,
    "note": "French side, for context: Baie Lucas, Baie de l'Embouchure (Le Galion) and the south half of Orient Bay."
   },
   "geometry": {
    "type": "LineString",
    "coordinates": [
     [
      -63.0136715,
      18.061674799999995
     ],
     [
      -63.013646,
      18.062379200000002
     ],
     [
      -63.0134462,
      18.062794299999997
     ],
     [
      -63.0132108,
      18.0627968
     ],
     [
      -63.01324900000001,
      18.063051199999997
     ],
     [
      -63.0127166,
      18.063549100000003
     ],
     [
      -63.0121158,
      18.063494900000002
     ],
     [
      -63.01179930000001,
      18.0638353
     ],
     [
      -63.0115874,
      18.0653545
     ],
     [
      -63.0118476,
      18.0660914
     ],
     [
      -63.012550999999995,
      18.066895900000002
     ],
     [
      -63.013498500000004,
      18.0666817
     ],
     [
      -63.0143521,
      18.067156699999998
     ],
     [
      -63.015508800000006,
      18.066419699999997
     ],
     [
      -63.016049300000006,
      18.0664868
     ],
     [
      -63.0162217,
      18.067484
     ],
     [
      -63.0165812,
      18.068123999999997
     ],
     [
      -63.017571,
      18.0687755
     ],
     [
      -63.01973919999999,
      18.071456099999995
     ],
     [
      -63.02006469999999,
      18.072813599999993
     ],
     [
      -63.019902200000004,
      18.074064400000005
     ],
     [
      -63.0196863,
      18.074758600000003
     ],
     [
      -63.0183725,
      18.076834299999998
     ],
     [
      -63.016506,
      18.0782608
     ],
     [
      -63.01583070000001,
      18.0783235
     ],
     [
      -63.0148275,
      18.0780121
     ],
     [
      -63.01470950000001,
      18.0776462
     ],
     [
      -63.014908000000005,
      18.0768443
     ],
     [
      -63.0144322,
      18.076364499999997
     ],
     [
      -63.0136105,
      18.078784099999996
     ],
     [
      -63.0127883,
      18.080290999999995
     ],
     [
      -63.011985900000006,
      18.0814261
     ],
     [
      -63.0108585,
      18.082301500000003
     ],
     [
      -63.0102298,
      18.0831286
     ],
     [
      -63.010638799999995,
      18.083242699999996
     ],
     [
      -63.01153060000001,
      18.082936700000005
     ],
     [
      -63.01229299999999,
      18.0823014
     ],
     [
      -63.0132612,
      18.082617599999992
     ],
     [
      -63.0154127,
      18.084334499999997
     ],
     [
      -63.018682299999995,
      18.0864266
     ],
     [
      -63.02150814880304,
      18.08956083928929
     ]
    ]
   }
  },
  {
   "type": "Feature",
   "id": "fort_amsterdam_cole_bay",
   "properties": {
    "name": "Fort Amsterdam to Cole Bay",
    "exposure": "leeward",
    "side": "Sint Maarten (Dutch)",
    "from": "Fort Amsterdam, the point between Great Bay and Little Bay",
    "from_osm": "way/525178259",
    "to": "Cole Bay",
    "to_osm": "node/4903522603",
    "length_m": 4344,
    "note": "Leeward control on the Dutch south coast: Little Bay, Kleine Baai and Cay Bay, west of the cruise port and east of the lagoon entrance, which sargassum should not reach."
   },
   "geometry": {
    "type": "LineString",
    "coordinates": [
     [
      -63.085713644208475,
      18.024500660919244
     ],
     [
      -63.0834949,
      18.024515900000004
     ],
     [
      -63.0817052,
      18.023946600000002
     ],
     [
      -63.0803645,
      18.0232411
     ],
     [
      -63.07998700000001,
      18.0227398
     ],
     [
      -63.08029290000001,
      18.0217867
     ],
     [
      -63.08024730000001,
      18.019633
     ],
     [
      -63.08005210000001,
      18.018791299999997
     ],
     [
      -63.079603000000006,
      18.018333299999995
     ],
     [
      -63.0790173,
      18.0183024
     ],
     [
      -63.0777927,
      18.019139800000005
     ],
     [
      -63.077406,
      18.019054900000004
     ],
     [
      -63.077465499999995,
      18.019754999999996
     ],
     [
      -63.07708629999999,
      18.019917600000003
     ],
     [
      -63.07639470000001,
      18.020921799999996
     ],
     [
      -63.075621399999996,
      18.021346
     ],
     [
      -63.0742687,
      18.021163799999993
     ],
     [
      -63.0731437,
      18.0187476
     ],
     [
      -63.0714222,
      18.0172939
     ],
     [
      -63.0714519,
      18.0169498
     ],
     [
      -63.070289100000004,
      18.016904599999997
     ],
     [
      -63.069595,
      18.016594299999994
     ],
     [
      -63.0688772,
      18.017023100000003
     ],
     [
      -63.0678449,
      18.018151399999997
     ],
     [
      -63.066114400000004,
      18.019243199999995
     ],
     [
      -63.06480359999999,
      18.0194819
     ],
     [
      -63.06367620000001,
      18.019380099999996
     ],
     [
      -63.063365999999995,
      18.018921499999998
     ],
     [
      -63.0631802,
      18.0192135
     ],
     [
      -63.06261009999999,
      18.0191816
     ],
     [
      -63.0622902,
      18.018933799999996
     ],
     [
      -63.062414,
      18.0187523
     ],
     [
      -63.0618155,
      18.0188062
     ],
     [
      -63.06103499999999,
      18.018481400000002
     ],
     [
      -63.06001069999999,
      18.0176067
     ],
     [
      -63.059796000000006,
      18.016998799999996
     ],
     [
      -63.060222200000005,
      18.016458799999995
     ],
     [
      -63.06018720000001,
      18.0159266
     ],
     [
      -63.0606361,
      18.0155718
     ],
     [
      -63.06033879999999,
      18.015288999999996
     ],
     [
      -63.06033289999991,
      18.014766901418863
     ]
    ]
   }
  }
 ]
}
