{
  "type": "FeatureCollection",
  "crs": {
    "type": "name",
    "properties": {
      "name": "urn:ogc:def:crs:OGC:1.3:CRS84"
    }
  },
  "features": [
    {
      "type": "Feature",
      "id": "caracol",
      "geometry": {
        "type": "Polygon",
        "coordinates": [
          [
            [
              -86.75085814655111,
              21.133392128981892
            ],
            [
              -86.75544548292365,
              21.131924177143457
            ],
            [
              -86.75589966873162,
              21.13180181361402
            ],
            [
              -86.75636445041593,
              21.131721805812294
            ],
            [
              -86.75683535226139,
              21.13168492419352
            ],
            [
              -86.75730783963259,
              21.131691523920306
            ],
            [
              -86.75777736262934,
              21.131741541443315
            ],
            [
              -86.75823939988885,
              21.131834495112848
            ],
            [
              -86.7586895021136,
              21.13196948981567
            ],
            [
              -86.75912333490612,
              21.132145225592296
            ],
            [
              -86.7595367204988,
              21.132360010151935
            ],
            [
              -86.75992567797736,
              21.13261177516482
            ],
            [
              -86.76028646161097,
              21.132898096175033
            ],
            [
              -86.76061559692019,
              21.13321621594252
            ],
            [
              -86.76090991413571,
              21.133563070989606
            ],
            [
              -86.76116657872545,
              21.133935321096647
            ],
            [
              -86.76138311869651,
              21.134329381463115
            ],
            [
              -86.76155744840834,
              21.13474145722462
            ],
            [
              -86.7616878886679,
              21.135167579993627
            ],
            [
              -86.76177318291288,
              21.135603646072347
            ],
            [
              -86.76181250932655,
              21.13604545596983
            ],
            [
              -86.76180548876715,
              21.13648875484286
            ],
            [
              -86.76175218843488,
              21.136929273471424
            ],
            [
              -86.76165312124053,
              21.13736276937398
            ],
            [
              -86.76150924088128,
              21.137785067666606
            ],
            [
              -86.76132193267046,
              21.138192101272587
            ],
            [
              -86.76109300020897,
              21.138579950094922
            ],
            [
              -86.76082464802647,
              21.138944878774407
            ],
            [
              -86.7605194603588,
              21.139283372669457
            ],
            [
              -86.76018037626571,
              21.139592171710927
            ],
            [
              -86.75981066132884,
              21.139868301805514
            ],
            [
              -86.75941387620155,
              21.14010910348527
            ],
            [
              -86.75899384231425,
              21.140312257526784
            ],
            [
              -86.75855460506536,
              21.140475807293157
            ],
            [
              -86.7535544773014,
              21.14207585115425
            ],
            [
              -86.75313726979795,
              21.142189913747387
            ],
            [
              -86.75271080000694,
              21.142268225551472
            ],
            [
              -86.74771065296909,
              21.14296824471251
            ],
            [
              -86.74724039313045,
              21.143012078170134
            ],
            [
              -86.74676781798735,
              21.143012456546874
            ],
            [
              -86.74629747910883,
              21.142969376202558
            ],
            [
              -86.74583390651894,
              21.14288325206527
            ],
            [
              -86.74538156505446,
              21.14275491363377
            ],
            [
              -86.74494481135154,
              21.14258559698604
            ],
            [
              -86.74452785187586,
              21.14237693287098
            ],
            [
              -86.7441347024009,
              21.142130930998185
            ],
            [
              -86.74376914932527,
              21.141849960677124
            ],
            [
              -86.74343471320155,
              21.14153672799263
            ],
            [
              -86.74313461482865,
              21.141194249736607
            ],
            [
              -86.74287174423378,
              21.140825824347413
            ],
            [
              -86.74264863284326,
              21.140435000136915
            ],
            [
              -86.74246742910961,
              21.140025541111633
            ],
            [
              -86.74232987782977,
              21.139601390717367
            ],
            [
              -86.74223730335301,
              21.1391666338565
            ],
            [
              -86.74219059684003,
              21.138725457544343
            ],
            [
              -86.74219020769526,
              21.138282110583173
            ],
            [
              -86.74223613925435,
              21.137840862642665
            ],
            [
              -86.74232794876798,
              21.137405963140818
            ],
            [
              -86.74246475168121,
              21.136981600321334
            ],
            [
              -86.74264523016683,
              21.136571860921418
            ],
            [
              -86.74286764582978,
              21.136180690818488
            ],
            [
              -86.74312985646,
              21.135811857034465
            ],
            [
              -86.74342933667168,
              21.13546891146347
            ],
            [
              -86.74376320223006,
              21.135155156671882
            ],
            [
              -86.7441282378311,
              21.13487361410006
            ],
            [
              -86.74452092806652,
              21.134626994971487
            ],
            [
              -86.7449374912758,
              21.134417674189315
            ],
            [
              -86.74537391595949,
              21.134247667471442
            ],
            [
              -86.74582599940317,
              21.13411861194402
            ],
            [
              -86.7462893881407,
              21.134031750380085
            ],
            [
              -86.75085814655111,
              21.133392128981892
            ]
          ]
        ]
      },
      "properties": {
        "segment_id": "caracol",
        "name": "Playa Caracol",
        "observed_on": "2026-07-06",
        "observability": "partial",
        "cloud_fraction": 0.6728,
        "coverage": 0.0,
        "detected_area_m2": 0.0,
        "affected_front_m": 0.0,
        "front_length_m": 1073.5,
        "detection_count": 0,
        "scene_id": "S2A_MSIL2A_20260706T161701_R140_T16QEJ_20260707T035957"
      }
    },
    {
      "type": "Feature",
      "id": "tortugas",
      "geometry": {
        "type": "Polygon",
        "coordinates": [
          [
            [
              -86.75904560126489,
              21.130105665261734
            ],
            [
              -86.76283044802967,
              21.127740155573143
            ],
            [
              -86.76323608800504,
              21.127512762096988
            ],
            [
              -86.76366352895917,
              21.12732376700981
            ],
            [
              -86.76410865466727,
              21.12717499029376
            ],
            [
              -86.76456717864701,
              21.127067864633005
            ],
            [
              -86.76503468542737,
              21.127003421620667
            ],
            [
              -86.76550667305791,
              21.12698228182731
            ],
            [
              -86.76597859644997,
              21.127004648826446
            ],
            [
              -86.76644591113242,
              21.127070307234572
            ],
            [
              -86.76690411700186,
              21.127178624784573
            ],
            [
              -86.7673488016459,
              21.12732855841247
            ],
            [
              -86.76777568282324,
              21.127518664299167
            ],
            [
              -86.76818064969197,
              21.127747111770425
            ],
            [
              -86.76855980238926,
              21.12801170092155
            ],
            [
              -86.76890948958199,
              21.128309883797197
            ],
            [
              -86.76922634362653,
              21.128638788922476
            ],
            [
              -86.7695073129998,
              21.128995248949607
            ],
            [
              -86.76974969168872,
              21.129375831154
            ],
            [
              -86.76995114525543,
              21.129776870486292
            ],
            [
              -86.77010973332679,
              21.130194504862427
            ],
            [
              -86.77022392829147,
              21.13062471235213
            ],
            [
              -86.77029263002399,
              21.131063349907787
            ],
            [
              -86.77031517649355,
              21.131506193260936
            ],
            [
              -86.77029135015505,
              21.131948977602367
            ],
            [
              -86.77022138005981,
              21.132387438653943
            ],
            [
              -86.77010593966546,
              21.132817353736886
            ],
            [
              -86.76994614036533,
              21.13323458244067
            ],
            [
              -86.76974352079888,
              21.133635106501075
            ],
            [
              -86.76950003204597,
              21.13401506850301
            ],
            [
              -86.76921801884671,
              21.134370809035236
            ],
            [
              -86.76890019702775,
              21.134698901939064
            ],
            [
              -86.76854962735166,
              21.13499618731114
            ],
            [
              -86.76816968604153,
              21.13525980194228
            ],
            [
              -86.76416962859251,
              21.137759863358824
            ],
            [
              -86.76372532134562,
              21.138006359992684
            ],
            [
              -86.75922523196283,
              21.14020641724384
            ],
            [
              -86.75879593891688,
              21.140391755093496
            ],
            [
              -86.75834934855824,
              21.140536723001567
            ],
            [
              -86.75788976212279,
              21.140639924733566
            ],
            [
              -86.75742160604844,
              21.140700366317947
            ],
            [
              -86.756949389332,
              21.14071746562172
            ],
            [
              -86.75647766008976,
              21.140691057958573
            ],
            [
              -86.75601096174086,
              21.140621397675275
            ],
            [
              -86.7555537892359,
              21.14050915570117
            ],
            [
              -86.7551105457532,
              21.14035541308435
            ],
            [
              -86.75468550027995,
              21.140161650576847
            ],
            [
              -86.7542827464877,
              21.139929734369304
            ],
            [
              -86.75390616329835,
              21.139661898112763
            ],
            [
              -86.753559377521,
              21.139360721400717
            ],
            [
              -86.75324572891968,
              21.139029104919196
            ],
            [
              -86.7529682380486,
              21.138670242504254
            ],
            [
              -86.75272957716449,
              21.138287590376404
            ],
            [
              -86.75253204449655,
              21.137884833848357
            ],
            [
              -86.752377542121,
              21.137465851827226
            ],
            [
              -86.75226755765362,
              21.137034679453055
            ],
            [
              -86.75220314993564,
              21.13659546923386
            ],
            [
              -86.75218493885079,
              21.13615245105149
            ],
            [
              -86.75221309937068,
              21.135709891423826
            ],
            [
              -86.75228735988567,
              21.135272052415374
            ],
            [
              -86.75240700483617,
              21.134843150592367
            ],
            [
              -86.752570881619,
              21.1344273164173
            ],
            [
              -86.75277741170112,
              21.13402855447405
            ],
            [
              -86.75302460583384,
              21.13365070490638
            ],
            [
              -86.75331008322001,
              21.133297406441127
            ],
            [
              -86.75363109444925,
              21.13297206135182
            ],
            [
              -86.75398454798052,
              21.13267780269999
            ],
            [
              -86.75436703991642,
              21.132417464169365
            ],
            [
              -86.75477488678239,
              21.132193552783164
            ],
            [
              -86.75904560126489,
              21.130105665261734
            ]
          ]
        ]
      },
      "properties": {
        "segment_id": "tortugas",
        "name": "Playa Tortugas",
        "observed_on": "2026-07-06",
        "observability": "partial",
        "cloud_fraction": 0.6691,
        "coverage": 0.0,
        "detected_area_m2": 0.0,
        "affected_front_m": 0.0,
        "front_length_m": 1026.0,
        "detection_count": 0,
        "scene_id": "S2A_MSIL2A_20260706T161701_R140_T16QEJ_20260707T035957"
      }
    },
    {
      "type": "Feature",
      "id": "langosta",
      "geometry": {
        "type": "Polygon",
        "coordinates": [
          [
            [
              -86.76503514743669,
              21.124911476713486
            ],
            [
              -86.76764188792482,
              21.120722247080003
            ],
            [
              -86.76789985600992,
              21.12035080411603
            ],
            [
              -86.76819538261282,
              21.12000487430525
            ],
            [
              -86.76852562156519,
              21.119687788954902
            ],
            [
              -86.76888739247997,
              21.119402601580564
            ],
            [
              -86.76927721138047,
              21.1191520585064
            ],
            [
              -86.76969132424999,
              21.118938572423726
            ],
            [
              -86.77012574317932,
              21.118764199162186
            ],
            [
              -86.77057628476378,
              21.118630617897054
            ],
            [
              -86.77103861038066,
              21.118539114983072
            ],
            [
              -86.7715082679596,
              21.118490571570153
            ],
            [
              -86.77198073484384,
              21.11848545512029
            ],
            [
              -86.77245146133046,
              21.11852381490705
            ],
            [
              -86.77291591447067,
              21.11860528154108
            ],
            [
              -86.77336962170912,
              21.118729070526133
            ],
            [
              -86.77380821394226,
              21.118893989811426
            ],
            [
              -86.77422746758201,
              21.11909845126771
            ],
            [
              -86.77462334521988,
              21.119340485976725
            ],
            [
              -86.77499203450041,
              21.119617763186877
            ],
            [
              -86.77532998483012,
              21.11992761275295
            ],
            [
              -86.77563394156816,
              21.120267050843918
            ],
            [
              -86.77590097737024,
              21.120632808671587
            ],
            [
              -86.77612852038332,
              21.121021363963663
            ],
            [
              -86.77631437901991,
              21.12142897487841
            ],
            [
              -86.77645676307267,
              21.12185171603454
            ],
            [
              -86.77655430096634,
              21.122285516309653
            ],
            [
              -86.7766060529796,
              21.12272619804322
            ],
            [
              -86.7766115203097,
              21.123169517266984
            ],
            [
              -86.77657064989171,
              21.123611204575216
            ],
            [
              -86.77648383492526,
              21.124047006241387
            ],
            [
              -86.77635191110349,
              21.124472725185267
            ],
            [
              -86.77617614857951,
              21.124884261395895
            ],
            [
              -86.77595823974747,
              21.125277651420905
            ],
            [
              -86.77315832103709,
              21.12977771968186
            ],
            [
              -86.7729524765545,
              21.13008026175847
            ],
            [
              -86.7727216819254,
              21.130366516678475
            ],
            [
              -86.76922171287431,
              21.134366592521953
            ],
            [
              -86.76890431379626,
              21.134695045441394
            ],
            [
              -86.76855412721427,
              21.134992727971586
            ],
            [
              -86.76817452566107,
              21.13525677307847
            ],
            [
              -86.76776916503069,
              21.135484637682758
            ],
            [
              -86.76734194936542,
              21.13567412715812
            ],
            [
              -86.76689699325024,
              21.135823416473002
            ],
            [
              -86.7664385821769,
              21.135931067772226
            ],
            [
              -86.7659711312599,
              21.135996044228857
            ],
            [
              -86.76549914270254,
              21.136017720032704
            ],
            [
              -86.76502716242304,
              21.135995886419188
            ],
            [
              -86.76455973625909,
              21.13593075368046
            ],
            [
              -86.7641013661731,
              21.135822949139268
            ],
            [
              -86.7636564668809,
              21.135673511105242
            ],
            [
              -86.7632293233216,
              21.135483878871838
            ],
            [
              -86.76282404937918,
              21.13525587885041
            ],
            [
              -86.76244454825363,
              21.134991706975104
            ],
            [
              -86.7620944748637,
              21.134693907548336
            ],
            [
              -86.76177720064356,
              21.134365348730697
            ],
            [
              -86.7614957810727,
              21.134009194911783
            ],
            [
              -86.76125292625167,
              21.133628876228055
            ],
            [
              -86.76105097480715,
              21.133228055521904
            ],
            [
              -86.76089187137728,
              21.132810593060025
            ],
            [
              -86.76077714789393,
              21.132380509351503
            ],
            [
              -86.76070790884168,
              21.131941946423492
            ],
            [
              -86.76068482063505,
              21.131499127928013
            ],
            [
              -86.76070810521584,
              21.131056318463873
            ],
            [
              -86.76077753793142,
              21.1306177825057
            ],
            [
              -86.76089244971396,
              21.130187743335586
            ],
            [
              -86.76105173353915,
              21.129770342372836
            ],
            [
              -86.76125385510109,
              21.12936959929345
            ],
            [
              -86.76149686760084,
              21.12898937332312
            ],
            [
              -86.76177843050492,
              21.128633326076574
            ],
            [
              -86.76503514743669,
              21.124911476713486
            ]
          ]
        ]
      },
      "properties": {
        "segment_id": "langosta",
        "name": "Playa Langosta",
        "observed_on": "2026-07-06",
        "observability": "partial",
        "cloud_fraction": 0.683,
        "coverage": 0.0,
        "detected_area_m2": 0.0,
        "affected_front_m": 0.0,
        "front_length_m": 1149.5,
        "detection_count": 0,
        "scene_id": "S2A_MSIL2A_20260706T161701_R140_T16QEJ_20260707T035957"
      }
    },
    {
      "type": "Feature",
      "id": "punta_nizuc",
      "geometry": {
        "type": "Polygon",
        "coordinates": [
          [
            [
              -86.78588872535968,
              21.042017184606287
            ],
            [
              -86.78588500852716,
              21.042032169095435
            ],
            [
              -86.78438518504748,
              21.04803221125415
            ],
            [
              -86.78425485607264,
              21.04845834860541
            ],
            [
              -86.78408066005129,
              21.048870441680506
            ],
            [
              -86.78386427429058,
              21.04926452166571
            ],
            [
              -86.78360778246893,
              21.049636793199344
            ],
            [
              -86.78331365457814,
              21.04998367092918
            ],
            [
              -86.7829847231423,
              21.050301814048073
            ],
            [
              -86.78262415594249,
              21.050588158474827
            ],
            [
              -86.78223542550955,
              21.050839946370264
            ],
            [
              -86.78182227567912,
              21.051054752703852
            ],
            [
              -86.78138868553056,
              21.051230508614815
            ],
            [
              -86.78093883105788,
              21.05136552134251
            ],
            [
              -86.78047704494165,
              21.051458490533815
            ],
            [
              -86.78000777481004,
              21.051508520770348
            ],
            [
              -86.77953554039132,
              21.051515130194698
            ],
            [
              -86.77906488997093,
              21.051478255152457
            ],
            [
              -86.77860035657329,
              21.051398250805352
            ],
            [
              -86.77814641429086,
              21.051275887709473
            ],
            [
              -86.77770743518136,
              21.0511123443917
            ],
            [
              -86.77728764714927,
              21.050909195995867
            ],
            [
              -86.77689109321743,
              21.05066839910816
            ],
            [
              -86.7765215925815,
              21.05039227290816
            ],
            [
              -86.77618270382267,
              21.050083476827158
            ],
            [
              -86.77587769063322,
              21.049744984929262
            ],
            [
              -86.77560949038505,
              21.04938005726229
            ],
            [
              -86.77538068584398,
              21.048992208454543
            ],
            [
              -86.77519348030201,
              21.04858517386033
            ],
            [
              -86.77504967636692,
              21.048162873580324
            ],
            [
              -86.7749506586131,
              21.0477293747037
            ],
            [
              -86.77489738026021,
              21.047288852135736
            ],
            [
              -86.7748903540077,
              21.046845548388347
            ],
            [
              -86.77492964711249,
              21.0464037327209
            ],
            [
              -86.77501488075704,
              21.045967660024818
            ],
            [
              -86.77651318479741,
              21.03997519138794
            ],
            [
              -86.77811153116534,
              21.03348273154779
            ],
            [
              -86.77824031763951,
              21.033056183956536
            ],
            [
              -86.77841301506669,
              21.032643541524678
            ],
            [
              -86.77862795997898,
              21.03224877809319
            ],
            [
              -86.77888308210277,
              21.031875695294584
            ],
            [
              -86.77917592430568,
              21.031527885946986
            ],
            [
              -86.77950366626644,
              21.03120869946004
            ],
            [
              -86.77986315163972,
              21.0309212095853
            ],
            [
              -86.78025091845377,
              21.03066818482165
            ],
            [
              -86.78066323244853,
              21.03045206176019
            ],
            [
              -86.7810961230329,
              21.03027492162537
            ],
            [
              -86.78154542151537,
              21.030138470237688
            ],
            [
              -86.78200680123999,
              21.030044021590957
            ],
            [
              -86.78247581924157,
              21.029992485201966
            ],
            [
              -86.78294795901952,
              21.02998435735418
            ],
            [
              -86.78341867401886,
              21.030019716319867
            ],
            [
              -86.78388343140038,
              21.03009822160637
            ],
            [
              -86.78433775567878,
              21.030219117233983
            ],
            [
              -86.78477727180938,
              21.030381239013767
            ],
            [
              -86.78519774730893,
              21.03058302575542
            ],
            [
              -86.78559513300523,
              21.03082253429737
            ],
            [
              -86.78596560202385,
              21.031097458214525
            ],
            [
              -86.7863055866365,
              21.031405150023744
            ],
            [
              -86.7866118126169,
              21.031742646673475
            ],
            [
              -86.78688133077266,
              21.032106698072297
            ],
            [
              -86.78711154535051,
              21.03249379838197
            ],
            [
              -86.78730023904026,
              21.032900219773797
            ],
            [
              -86.78744559433716,
              21.033322048323527
            ],
            [
              -86.78754621105622,
              21.033755221699415
            ],
            [
              -86.78760111982965,
              21.034195568280484
            ],
            [
              -86.78760979145669,
              21.034638847328683
            ],
            [
              -86.78757214201549,
              21.0350807898279
            ],
            [
              -86.78748853368708,
              21.035517139596834
            ],
            [
              -86.78588872535968,
              21.042017184606287
            ]
          ]
        ]
      },
      "properties": {
        "segment_id": "punta_nizuc",
        "name": "Punta Nizuc",
        "observed_on": "2026-07-06",
        "observability": "blind",
        "cloud_fraction": 0.8264,
        "coverage": 0.0,
        "detected_area_m2": 0.0,
        "affected_front_m": 0.0,
        "front_length_m": 1420.4,
        "detection_count": 0,
        "scene_id": "S2A_MSIL2A_20260706T161701_R140_T16QEJ_20260707T035957"
      }
    },
    {
      "type": "Feature",
      "id": "delfines",
      "geometry": {
        "type": "Polygon",
        "coordinates": [
          [
            [
              -86.7816661010891,
              21.054240786221513
            ],
            [
              -86.7799572315445,
              21.064685862033354
            ],
            [
              -86.77986271074235,
              21.065120245986922
            ],
            [
              -86.7797232844643,
              21.06554384186236
            ],
            [
              -86.77954029512506,
              21.065952570090165
            ],
            [
              -86.77931550472762,
              21.066342494256407
            ],
            [
              -86.77905107790517,
              21.066709859017884
            ],
            [
              -86.77874956108299,
              21.06705112627426
            ],
            [
              -86.77841385796076,
              21.0673630092487
            ],
            [
              -86.77804720155113,
              21.067642504148555
            ],
            [
              -86.7776531230437,
              21.06788691910068
            ],
            [
              -86.77723541779437,
              21.068093900082904
            ],
            [
              -86.7767981087677,
              21.06826145360101
            ],
            [
              -86.77634540778446,
              21.06838796589325
            ],
            [
              -86.77588167494825,
              21.06847221847666
            ],
            [
              -86.77541137664193,
              21.068513399885585
            ],
            [
              -86.77493904249926,
              21.068511113489162
            ],
            [
              -86.7744692217665,
              21.068465381312283
            ],
            [
              -86.77400643947493,
              21.068376643823242
            ],
            [
              -86.77355515284694,
              21.06824575569017
            ],
            [
              -86.77311970835598,
              21.068073977547158
            ],
            [
              -86.77270429985487,
              21.06786296384937
            ],
            [
              -86.7723129281756,
              21.067614746934513
            ],
            [
              -86.7719493625908,
              21.067331717444095
            ],
            [
              -86.77161710450777,
              21.067016601293435
            ],
            [
              -86.77131935374517,
              21.06667243341249
            ],
            [
              -86.77105897771752,
              21.066302528510462
            ],
            [
              -86.77083848382365,
              21.06591044914632
            ],
            [
              -86.77065999530554,
              21.065499971412752
            ],
            [
              -86.77052523080928,
              21.065075048564395
            ],
            [
              -86.77043548784498,
              21.064639772940883
            ],
            [
              -86.77039163030435,
              21.064198336551488
            ],
            [
              -86.7703940801556,
              21.063754990701224
            ],
            [
              -86.77044281339519,
              21.063314005047282
            ],
            [
              -86.77224315370317,
              21.05231405765706
            ],
            [
              -86.77231947835641,
              21.051948710322833
            ],
            [
              -86.77242758923524,
              21.051590502995385
            ],
            [
              -86.77256675191873,
              21.051241868313586
            ],
            [
              -86.7752668964102,
              21.045241938820052
            ],
            [
              -86.77547180652533,
              21.044842492267875
            ],
            [
              -86.7757174346902,
              21.044463823869204
            ],
            [
              -86.77600141518671,
              21.04410958023819
            ],
            [
              -86.7763210130178,
              21.04378317275211
            ],
            [
              -86.77667315025118,
              21.043487744704958
            ],
            [
              -86.77705443566252,
              21.043226141043014
            ],
            [
              -86.77746119739302,
              21.043000880973697
            ],
            [
              -86.77788951830642,
              21.042814133711076
            ],
            [
              -86.77833527370544,
              21.042667697591394
            ],
            [
              -86.77879417104462,
              21.042562982759623
            ],
            [
              -86.77926179125741,
              21.042500997593358
            ],
            [
              -86.77973363130026,
              21.042482338994816
            ],
            [
              -86.7802051475041,
              21.042507186644226
            ],
            [
              -86.78067179931679,
              21.042575301269846
            ],
            [
              -86.7811290930154,
              21.04268602695138
            ],
            [
              -86.78157262496832,
              21.042838297434468
            ],
            [
              -86.78199812403096,
              21.04303064639572
            ],
            [
              -86.7824014926672,
              21.043261221559362
            ],
            [
              -86.78277884640126,
              21.043527802529976
            ],
            [
              -86.78312655122024,
              21.043827822169575
            ],
            [
              -86.78344125856734,
              21.044158391313537
            ],
            [
              -86.78371993758924,
              21.04451632658762
            ],
            [
              -86.78395990432665,
              21.04489818105839
            ],
            [
              -86.7841588475673,
              21.04530027742217
            ],
            [
              -86.78431485111187,
              21.045718743413254
            ],
            [
              -86.78442641223829,
              21.04614954909045
            ],
            [
              -86.7844924561862,
              21.046588545643154
            ],
            [
              -86.78451234652152,
              21.04703150534354
            ],
            [
              -86.78448589128081,
              21.047474162259917
            ],
            [
              -86.7844133448357,
              21.047912253339565
            ],
            [
              -86.78429540545878,
              21.048341559465168
            ],
            [
              -86.78413320861382,
              21.048757946089555
            ],
            [
              -86.7816661010891,
              21.054240786221513
            ]
          ]
        ]
      },
      "properties": {
        "segment_id": "delfines",
        "name": "Playa Delfines",
        "observed_on": "2026-07-06",
        "observability": "blind",
        "cloud_fraction": 0.9642,
        "coverage": 0.0,
        "detected_area_m2": 0.0,
        "affected_front_m": 0.0,
        "front_length_m": 1952.6,
        "detection_count": 0,
        "scene_id": "S2A_MSIL2A_20260706T161701_R140_T16QEJ_20260707T035957"
      }
    },
    {
      "type": "Feature",
      "id": "ballenas",
      "geometry": {
        "type": "Polygon",
        "coordinates": [
          [
            [
              -86.77854963553683,
              21.072732229496577
            ],
            [
              -86.77850943299993,
              21.072933382173463
            ],
            [
              -86.77670967270234,
              21.080933433389216
            ],
            [
              -86.77658951766831,
              21.081362202394338
            ],
            [
              -86.77642516184967,
              21.081777853090564
            ],
            [
              -86.7762181877741,
              21.082176382408196
            ],
            [
              -86.77597058846516,
              21.082553952140653
            ],
            [
              -86.775684748258,
              21.082906925914333
            ],
            [
              -86.77536341984387,
              21.08323190421543
            ],
            [
              -86.77500969776432,
              21.08352575713616
            ],
            [
              -86.77462698861004,
              21.083785654524767
            ],
            [
              -86.77421897821155,
              21.084009093248604
            ],
            [
              -86.7737895961375,
              21.084193921307573
            ],
            [
              -86.77334297784292,
              21.084338358565343
            ],
            [
              -86.77288342483207,
              21.084441013898427
            ],
            [
              -86.77241536322016,
              21.084500898597845
            ],
            [
              -86.77194330109315,
              21.08451743589412
            ],
            [
              -86.77147178507722,
              21.084490466513635
            ],
            [
              -86.7710053565366,
              21.084420250212982
            ],
            [
              -86.77054850782197,
              21.084307463276303
            ],
            [
              -86.77010563899175,
              21.084153191999903
            ],
            [
              -86.76968101542352,
              21.083958922226913
            ],
            [
              -86.76927872672415,
              21.08372652503294
            ],
            [
              -86.76890264733515,
              21.083458238700757
            ],
            [
              -86.76855639921266,
              21.083156647157868
            ],
            [
              -86.76824331694186,
              21.082824655084806
            ],
            [
              -86.7679664156223,
              21.08246545993419
            ],
            [
              -86.7677283618327,
              21.082082521130342
            ],
            [
              -86.76753144795558,
              21.081679526746214
            ],
            [
              -86.76737757010818,
              21.08126035797902
            ],
            [
              -86.76726820989231,
              21.08082905176674
            ],
            [
              -86.76720442013819,
              21.08038976190585
            ],
            [
              -86.76718681477928,
              21.079946719044816
            ],
            [
              -86.76721556295512,
              21.079504189938902
            ],
            [
              -86.76729038739798,
              21.079066436358527
            ],
            [
              -86.76906809196419,
              21.071166635210457
            ],
            [
              -86.77045065860358,
              21.063267678708762
            ],
            [
              -86.7705500051627,
              21.06283424500261
            ],
            [
              -86.77069413265316,
              21.062412038646894
            ],
            [
              -86.77088165271697,
              21.06200512560666
            ],
            [
              -86.77111075915552,
              21.06161742453656
            ],
            [
              -86.77137924533484,
              21.061252669047438
            ],
            [
              -86.77168452544495,
              21.060914371755874
            ],
            [
              -86.77202365940802,
              21.0606057904626
            ],
            [
              -86.77239338119536,
              21.060329896785316
            ],
            [
              -86.77279013028041,
              21.06008934754759
            ],
            [
              -86.77321008592487,
              21.05988645919931
            ],
            [
              -86.77364920396788,
              21.059723185514468
            ],
            [
              -86.77410325576413,
              21.059601098781176
            ],
            [
              -86.77456786889664,
              21.059521374664453
            ],
            [
              -86.77503856927183,
              21.05948478088772
            ],
            [
              -86.7755108241929,
              21.059491669841567
            ],
            [
              -86.77598008599654,
              21.059541975191177
            ],
            [
              -86.77644183583367,
              21.059635212514724
            ],
            [
              -86.77689162717306,
              21.059770483966886
            ],
            [
              -86.77732512860975,
              21.05994648692247
            ],
            [
              -86.77773816556585,
              21.060161526517053
            ],
            [
              -86.77812676048359,
              21.060413531964095
            ],
            [
              -86.77848717112295,
              21.060700076491493
            ],
            [
              -86.77881592659612,
              21.061018400705887
            ],
            [
              -86.77910986079166,
              21.061365439159935
            ],
            [
              -86.77936614286638,
              21.061737849867
            ],
            [
              -86.77958230451168,
              21.06213204647927
            ],
            [
              -86.77975626373136,
              21.062544232819658
            ],
            [
              -86.77988634490156,
              21.062970439435254
            ],
            [
              -86.7799712949195,
              21.063406561820436
            ],
            [
              -86.78001029528518,
              21.06384839994176
            ],
            [
              -86.78000296999848,
              21.06429169868417
            ],
            [
              -86.77994938919605,
              21.064732188828962
            ],
            [
              -86.77854963553683,
              21.072732229496577
            ]
          ]
        ]
      },
      "properties": {
        "segment_id": "ballenas",
        "name": "Playa Ballenas",
        "observed_on": "2026-07-06",
        "observability": "blind",
        "cloud_fraction": 0.9388,
        "coverage": 0.0,
        "detected_area_m2": 0.0,
        "affected_front_m": 0.0,
        "front_length_m": 1802.2,
        "detection_count": 0,
        "scene_id": "S2A_MSIL2A_20260706T161701_R140_T16QEJ_20260707T035957"
      }
    },
    {
      "type": "Feature",
      "id": "marlin",
      "geometry": {
        "type": "Polygon",
        "coordinates": [
          [
            [
              -86.77359426656507,
              21.090348852798247
            ],
            [
              -86.77346617794217,
              21.090685707378224
            ],
            [
              -86.77046635170376,
              21.097685786580207
            ],
            [
              -86.77026877536834,
              21.098088503721662
            ],
            [
              -86.77003008666198,
              21.098471107633436
            ],
            [
              -86.76975258408966,
              21.098829913463636
            ],
            [
              -86.76943894002922,
              21.099161465534625
            ],
            [
              -86.76909217499971,
              21.099462570630116
            ],
            [
              -86.76871562857374,
              21.099730328754777
            ],
            [
              -86.76831292721431,
              21.09996216107009
            ],
            [
              -86.76788794934548,
              21.100155834736892
            ],
            [
              -86.76744478799384,
              21.100309484425292
            ],
            [
              -86.7669877113604,
              21.100421630284465
            ],
            [
              -86.7665211217035,
              21.10049119219905
            ],
            [
              -86.76604951292873,
              21.100517500194666
            ],
            [
              -86.76557742729506,
              21.100500300892282
            ],
            [
              -86.76510941165479,
              21.100439759949104
            ],
            [
              -86.76464997364901,
              21.100336460462476
            ],
            [
              -86.76420353828152,
              21.10019139735226
            ],
            [
              -86.76377440528944,
              21.10000596777572
            ],
            [
              -86.76336670772223,
              21.09978195766757
            ],
            [
              -86.76298437212787,
              21.099521524534772
            ],
            [
              -86.7626310807306,
              21.09922717667214
            ],
            [
              -86.76231023596425,
              21.098901748999157
            ],
            [
              -86.76202492770327,
              21.098548375750813
            ],
            [
              -86.76177790350691,
              21.09817046028606
            ],
            [
              -86.76157154216324,
              21.097771642304547
            ],
            [
              -86.7614078307873,
              21.09735576278795
            ],
            [
              -86.76128834569414,
              21.096926827003564
            ],
            [
              -86.76121423723004,
              21.0964889659268
            ],
            [
              -86.76118621870795,
              21.09604639645416
            ],
            [
              -86.761204559553,
              21.095603380790156
            ],
            [
              -86.7612690827234,
              21.095164185399206
            ],
            [
              -86.76137916643133,
              21.094733039918005
            ],
            [
              -86.76153375014606,
              21.094314096423886
            ],
            [
              -86.76446276147463,
              21.087480218086178
            ],
            [
              -86.76740606537018,
              21.078651105445655
            ],
            [
              -86.76756906164114,
              21.07823498471352
            ],
            [
              -86.76777472875003,
              21.07783586236584
            ],
            [
              -86.76802108575848,
              21.0774575820183
            ],
            [
              -86.76830575993026,
              21.077103786547283
            ],
            [
              -86.76862600958908,
              21.076777883013516
            ],
            [
              -86.76897875052661,
              21.07648300985728
            ],
            [
              -86.76936058570611,
              21.07622200668075
            ],
            [
              -86.76976783797589,
              21.075997386908266
            ],
            [
              -86.77019658547721,
              21.07581131358757
            ],
            [
              -86.7706426994062,
              21.075665578564752
            ],
            [
              -86.77110188376605,
              21.075561585233217
            ],
            [
              -86.7715697167275,
              21.075500335022642
            ],
            [
              -86.77204169319923,
              21.075482417757886
            ],
            [
              -86.7725132681992,
              21.075508005980442
            ],
            [
              -86.77297990060964,
              21.07557685328723
            ],
            [
              -86.77343709689475,
              21.075688296702655
            ],
            [
              -86.77388045436105,
              21.075841263061015
            ],
            [
              -86.77430570354393,
              21.076034279338007
            ],
            [
              -86.77470874931308,
              21.076265486832
            ],
            [
              -86.77508571030111,
              21.07653265905848
            ],
            [
              -86.77543295627625,
              21.07683322318588
            ],
            [
              -86.77574714309921,
              21.077164284806216
            ],
            [
              -86.77602524492796,
              21.077522655802674
            ],
            [
              -86.77626458336029,
              21.077904885045616
            ],
            [
              -86.7764628532331,
              21.078307291622043
            ],
            [
              -86.77661814483034,
              21.07872600027847
            ],
            [
              -86.7767289622848,
              21.07915697873628
            ],
            [
              -86.77679423799677,
              21.0795960765204
            ],
            [
              -86.77681334292947,
              21.080039064927437
            ],
            [
              -86.77678609268244,
              21.080481677748512
            ],
            [
              -86.77671274928305,
              21.08091965235477
            ],
            [
              -86.77659401867871,
              21.081348770749788
            ],
            [
              -86.77359426656507,
              21.090348852798247
            ]
          ]
        ]
      },
      "properties": {
        "segment_id": "marlin",
        "name": "Playa Marlin",
        "observed_on": "2026-07-06",
        "observability": "blind",
        "cloud_fraction": 0.9975,
        "coverage": 0.0,
        "detected_area_m2": 0.0,
        "affected_front_m": 0.0,
        "front_length_m": 1878.7,
        "detection_count": 0,
        "scene_id": "S2A_MSIL2A_20260706T161701_R140_T16QEJ_20260707T035957"
      }
    },
    {
      "type": "Feature",
      "id": "chac_mool",
      "geometry": {
        "type": "Polygon",
        "coordinates": [
          [
            [
              -86.76420930781168,
              21.1081928685921
            ],
            [
              -86.75722344295824,
              21.120169208335312
            ],
            [
              -86.75697650893879,
              21.120547195490694
            ],
            [
              -86.75669127700144,
              21.12090065175939
            ],
            [
              -86.75637049397808,
              21.12122617298061
            ],
            [
              -86.75601724915666,
              21.12152062401761
            ],
            [
              -86.75563494453057,
              21.121781168957998
            ],
            [
              -86.75522726203369,
              21.122005298432377
            ],
            [
              -86.75479812807623,
              21.122190853787828
            ],
            [
              -86.75435167572347,
              21.1223360478832
            ],
            [
              -86.75389220488161,
              21.12243948230571
            ],
            [
              -86.75342414087476,
              21.12250016084283
            ],
            [
              -86.75295199181255,
              21.1225174990795
            ],
            [
              -86.75248030515931,
              21.122491330028225
            ],
            [
              -86.75201362392356,
              21.122421905737657
            ],
            [
              -86.75155644289087,
              21.122309894864213
            ],
            [
              -86.75111316532144,
              21.122156376230144
            ],
            [
              -86.75068806053068,
              21.121962828430192
            ],
            [
              -86.7502852227614,
              21.12173111558704
            ],
            [
              -86.7499085317444,
              21.121463469392978
            ],
            [
              -86.74956161532744,
              21.1211624676109
            ],
            [
              -86.74924781453305,
              21.12083100924197
            ],
            [
              -86.74897015138154,
              21.120472286599405
            ],
            [
              -86.7487312997893,
              21.120089754557466
            ],
            [
              -86.74853355982269,
              21.119687097272315
            ],
            [
              -86.7483788355549,
              21.119268192695245
            ],
            [
              -86.74826861673921,
              21.11883707522048
            ],
            [
              -86.74820396447433,
              21.11839789682736
            ],
            [
              -86.74818550099961,
              21.117954887091337
            ],
            [
              -86.7482134037178,
              21.117512312449044
            ],
            [
              -86.74828740350239,
              21.117074435109775
            ],
            [
              -86.74840678730509,
              21.116645472009083
            ],
            [
              -86.74857040503784,
              21.116229554199794
            ],
            [
              -86.74877668066259,
              21.115830687071472
            ],
            [
              -86.75577691457006,
              21.103830860716865
            ],
            [
              -86.7558050231307,
              21.103783352974755
            ],
            [
              -86.76180521173795,
              21.09378350060076
            ],
            [
              -86.76205691528415,
              21.093408318678208
            ],
            [
              -86.76234659091458,
              21.09305809604048
            ],
            [
              -86.76267144879674,
              21.092736205338603
            ],
            [
              -86.76302836035346,
              21.092445746366693
            ],
            [
              -86.76341388839366,
              21.0921895162165
            ],
            [
              -86.76382432021187,
              21.0919699823471
            ],
            [
              -86.7642557033382,
              21.091789258828705
            ],
            [
              -86.76470388359475,
              21.09164908598921
            ],
            [
              -86.76516454509178,
              21.09155081365917
            ],
            [
              -86.76563325177948,
              21.09149538817645
            ],
            [
              -86.76610549015524,
              21.0914833432755
            ],
            [
              -86.76657671271577,
              21.091514794948843
            ],
            [
              -86.76704238173632,
              21.091589440330267
            ],
            [
              -86.76749801295583,
              21.09170656061039
            ],
            [
              -86.76793921874803,
              21.091865027956654
            ],
            [
              -86.76836175036307,
              21.092063316371146
            ],
            [
              -86.76876153883379,
              21.092299516381832
            ],
            [
              -86.76913473415266,
              21.09257135342586
            ],
            [
              -86.7694777423428,
              21.092876209748287
            ],
            [
              -86.7697872600662,
              21.093211149605395
            ],
            [
              -86.77006030643584,
              21.0935729475302
            ],
            [
              -86.77029425172584,
              21.093958119388304
            ],
            [
              -86.77048684270237,
              21.09436295592522
            ],
            [
              -86.77063622433177,
              21.094783558482277
            ],
            [
              -86.77074095765614,
              21.09521587653758
            ],
            [
              -86.77080003366407,
              21.095655746710438
            ],
            [
              -86.77081288302226,
              21.09609893285398
            ],
            [
              -86.77077938157377,
              21.09654116684994
            ],
            [
              -86.77069985154961,
              21.096978189712658
            ],
            [
              -86.77057505848099,
              21.097405792606654
            ],
            [
              -86.77040620384177,
              21.097819857382543
            ],
            [
              -86.7701949134911,
              21.09821639624088
            ],
            [
              -86.76420930781168,
              21.1081928685921
            ]
          ]
        ]
      },
      "properties": {
        "segment_id": "chac_mool",
        "name": "Playa Chac Mool",
        "observed_on": "2026-07-06",
        "observability": "blind",
        "cloud_fraction": 0.9056,
        "coverage": 0.0,
        "detected_area_m2": 0.0,
        "affected_front_m": 0.0,
        "front_length_m": 2784.2,
        "detection_count": 0,
        "scene_id": "S2A_MSIL2A_20260706T161701_R140_T16QEJ_20260707T035957"
      }
    },
    {
      "type": "Feature",
      "id": "gaviota_azul",
      "geometry": {
        "type": "Polygon",
        "coordinates": [
          [
            [
              -86.75343036669852,
              21.128270414176843
            ],
            [
              -86.74995462481344,
              21.136215501959633
            ],
            [
              -86.74975395414872,
              21.136616889766056
            ],
            [
              -86.74951231382789,
              21.13699789095722
            ],
            [
              -86.74923203078664,
              21.137354836114543
            ],
            [
              -86.74891580418591,
              21.13768428747848
            ],
            [
              -86.74856667942207,
              21.137983072063026
            ],
            [
              -86.74818801879951,
              21.13824831222059
            ],
            [
              -86.74778346914827,
              21.13847745336256
            ],
            [
              -86.74735692669846,
              21.138668288568354
            ],
            [
              -86.74691249954977,
              21.138818979845652
            ],
            [
              -86.74645446809821,
              21.13892807583686
            ],
            [
              -86.74598724380131,
              21.138994525800992
            ],
            [
              -86.74551532667927,
              21.139017689736246
            ],
            [
              -86.7450432619622,
              21.138997344545594
            ],
            [
              -86.74457559630126,
              21.138933686185908
            ],
            [
              -86.74411683396622,
              21.138827327779964
            ],
            [
              -86.74367139345166,
              21.1386792937095
            ],
            [
              -86.74324356491057,
              21.138491009746353
            ],
            [
              -86.74283746882561,
              21.13826428931673
            ],
            [
              -86.74245701631665,
              21.138001316031218
            ],
            [
              -86.7421058714671,
              21.137704622648915
            ],
            [
              -86.7417874160323,
              21.137377066678592
            ],
            [
              -86.74150471686987,
              21.13702180285199
            ],
            [
              -86.74126049640584,
              21.136642252734802
            ],
            [
              -86.74105710642085,
              21.136242071768187
            ],
            [
              -86.74089650540883,
              21.13582511405848
            ],
            [
              -86.74078023972557,
              21.135395395254445
            ],
            [
              -86.74070942870895,
              21.1349570538699
            ],
            [
              -86.74068475391303,
              21.134514311424205
            ],
            [
              -86.74070645255944,
              21.134071431784704
            ],
            [
              -86.74077431526862,
              21.1336326801028
            ],
            [
              -86.740887688092,
              21.133202281739006
            ],
            [
              -86.74104547882503,
              21.132784381572673
            ],
            [
              -86.74454567540285,
              21.124784474003697
            ],
            [
              -86.7445953381329,
              21.124675080558003
            ],
            [
              -86.74859553779207,
              21.11617518472034
            ],
            [
              -86.7488073716734,
              21.11577889085636
            ],
            [
              -86.74905958104875,
              21.115403987634345
            ],
            [
              -86.74934973683104,
              21.11505408540431
            ],
            [
              -86.74967504456458,
              21.114732553731212
            ],
            [
              -86.75003237134113,
              21.114442488951276
            ],
            [
              -86.75041827597202,
              21.114186684359854
            ],
            [
              -86.7508290421263,
              21.113967603317707
            ],
            [
              -86.75126071411557,
              21.11378735553421
            ],
            [
              -86.75170913498121,
              21.11364767675594
            ],
            [
              -86.75216998651744,
              21.113549912055795
            ],
            [
              -86.75263883084527,
              21.113495002883393
            ],
            [
              -86.75311115313728,
              21.113483478001406
            ],
            [
              -86.75358240508265,
              21.113515448394946
            ],
            [
              -86.75404804867398,
              21.113590606202905
            ],
            [
              -86.75450359989519,
              21.11370822768165
            ],
            [
              -86.75494467189024,
              21.11386718017248
            ],
            [
              -86.7553670171975,
              21.114065933005914
            ],
            [
              -86.75576656864335,
              21.11430257223784
            ],
            [
              -86.7561394785021,
              21.11457481907596
            ],
            [
              -86.756482155545,
              21.11488005181915
            ],
            [
              -86.75679129962195,
              21.115215331098785
            ],
            [
              -86.75706393344316,
              21.115577428179183
            ],
            [
              -86.75729743125451,
              21.11596285604489
            ],
            [
              -86.75748954413031,
              21.116367902975757
            ],
            [
              -86.75763842164005,
              21.116788668286645
            ],
            [
              -86.75774262967967,
              21.117221099887825
            ],
            [
              -86.75780116429554,
              21.1176610333046
            ],
            [
              -86.75781346136745,
              21.118104231780443
            ],
            [
              -86.75777940205671,
              21.118546427077682
            ],
            [
              -86.7576993139665,
              21.11898336058266
            ],
            [
              -86.75757396800242,
              21.11941082431978
            ],
            [
              -86.75740457096317,
              21.119824701479125
            ],
            [
              -86.75343036669852,
              21.128270414176843
            ]
          ]
        ]
      },
      "properties": {
        "segment_id": "gaviota_azul",
        "name": "Playa Gaviota Azul",
        "observed_on": "2026-07-06",
        "observability": "blind",
        "cloud_fraction": 0.8176,
        "coverage": 0.0,
        "detected_area_m2": 0.0,
        "affected_front_m": 0.0,
        "front_length_m": 1985.5,
        "detection_count": 0,
        "scene_id": "S2A_MSIL2A_20260706T161701_R140_T16QEJ_20260707T035957"
      }
    },
    {
      "type": "Feature",
      "id": "linda",
      "geometry": {
        "type": "Polygon",
        "coordinates": [
          [
            [
              -86.771272185183,
              21.115887196528607
            ],
            [
              -86.77160600560293,
              21.115493767646154
            ],
            [
              -86.77540602374854,
              21.11149384698015
            ],
            [
              -86.77573734515805,
              21.111177774203057
            ],
            [
              -86.77610008562759,
              21.110893695843995
            ],
            [
              -86.77649075184554,
              21.110644347547016
            ],
            [
              -86.77690558163744,
              21.11043213049759
            ],
            [
              -86.77734058019169,
              21.11025908830456
            ],
            [
              -86.77779155852323,
              21.11012688732515
            ],
            [
              -86.77825417380453,
              21.110036800622172
            ],
            [
              -86.77872397117636,
              21.109989695707736
            ],
            [
              -86.77919642663605,
              21.1099860261914
            ],
            [
              -86.77966699059051,
              21.1100258274131
            ],
            [
              -86.78013113165554,
              21.11010871610277
            ],
            [
              -86.7805843802801,
              21.110233894069978
            ],
            [
              -86.78102237177578,
              21.11040015588818
            ],
            [
              -86.78144088833798,
              21.11060590049954
            ],
            [
              -86.78183589965444,
              21.11084914662884
            ],
            [
              -86.78220360171045,
              21.11112755185822
            ],
            [
              -86.7825404534174,
              21.111438435179142
            ],
            [
              -86.78284321071229,
              21.111778802804885
            ],
            [
              -86.78310895779963,
              21.112145376995024
            ],
            [
              -86.78333513523512,
              21.112534627614732
            ],
            [
              -86.78351956458043,
              21.112942806125183
            ],
            [
              -86.78366046939148,
              21.113365981678005
            ],
            [
              -86.78375649233757,
              21.113800078966317
            ],
            [
              -86.78380670828638,
              21.114240917468138
            ],
            [
              -86.78381063322796,
              21.11468425170433
            ],
            [
              -86.78376822895157,
              21.11512581212345
            ],
            [
              -86.78367990342946,
              21.11556134621989
            ],
            [
              -86.78354650690338,
              21.11598665948928
            ],
            [
              -86.78336932371097,
              21.11639765582663
            ],
            [
              -86.78315005993011,
              21.116790376978113
            ],
            [
              -86.78289082695966,
              21.11716104066642
            ],
            [
              -86.78259412119456,
              21.11750607702219
            ],
            [
              -86.7789727336149,
              21.121318164601547
            ],
            [
              -86.77572801017611,
              21.125612790815776
            ],
            [
              -86.77543614993384,
              21.125961458424836
            ],
            [
              -86.77510926949803,
              21.12628160535259
            ],
            [
              -86.77475051689218,
              21.126570148219354
            ],
            [
              -86.77436334716681,
              21.126824308012612
            ],
            [
              -86.7739514891228,
              21.127041636857587
            ],
            [
              -86.77351890939545,
              21.127220041598445
            ],
            [
              -86.77306977424531,
              21.12735780396267
            ],
            [
              -86.77260840942401,
              21.127453597114293
            ],
            [
              -86.77213925850191,
              21.127506498436162
            ],
            [
              -86.77166684005982,
              21.12751599841829
            ],
            [
              -86.7711957041572,
              21.127482005566257
            ],
            [
              -86.77073038849656,
              21.127404847282527
            ],
            [
              -86.77027537470758,
              21.12728526671213
            ],
            [
              -86.76983504517152,
              21.127124415583108
            ],
            [
              -86.76941364080314,
              21.1269238431109
            ],
            [
              -86.76901522019682,
              21.126685481073405
            ],
            [
              -86.76864362053084,
              21.126411625201026
            ],
            [
              -86.76830242060672,
              21.12610491306077
            ],
            [
              -86.76799490637978,
              21.125768298648
            ],
            [
              -86.7677240393132,
              21.125405023930462
            ],
            [
              -86.76749242785988,
              21.125018587619234
            ],
            [
              -86.7673023023474,
              21.124612711467407
            ],
            [
              -86.76715549350699,
              21.12419130442141
            ],
            [
              -86.76705341485346,
              21.123758424970454
            ],
            [
              -86.76699704908508,
              21.123318242056865
            ],
            [
              -86.7669869386341,
              21.122874994923976
            ],
            [
              -86.76702318045832,
              21.122432952288275
            ],
            [
              -86.76710542512302,
              21.121996371229216
            ],
            [
              -86.76723288018187,
              21.121569456192436
            ],
            [
              -86.76740431782342,
              21.12115631850133
            ],
            [
              -86.76761808670902,
              21.12076093676664
            ],
            [
              -86.76787212788771,
              21.120387118575305
            ],
            [
              -86.771272185183,
              21.115887196528607
            ]
          ]
        ]
      },
      "properties": {
        "segment_id": "linda",
        "name": "Playa Linda",
        "observed_on": "2026-07-06",
        "observability": "blind",
        "cloud_fraction": 0.9241,
        "coverage": 0.0,
        "detected_area_m2": 0.0,
        "affected_front_m": 0.0,
        "front_length_m": 1203.5,
        "detection_count": 0,
        "scene_id": "S2A_MSIL2A_20260706T161701_R140_T16QEJ_20260707T035957"
      }
    }
  ],
  "properties": {
    "count": 10,
    "observed_on": "2026-07-06",
    "scene_id": "S2A_MSIL2A_20260706T161701_R140_T16QEJ_20260707T035957",
    "surf_zone_m": 500.0,
    "metric_crs": "EPSG:32616",
    "blind_segments": 7,
    "affected_segments": 0,
    "target_labels": [
      "marine_debris",
      "sargassum"
    ]
  }
}