{
 "type": "FeatureCollection",
 "crs": {
  "type": "name",
  "properties": {
   "name": "urn:ogc:def:crs:OGC:1.3:CRS84"
  }
 },
 "properties": {
  "title": "Aruba land polygons",
  "source": "OpenStreetMap natural=coastline ways, retrieved 2026-10-04 via Overpass.",
  "license": "Geometry (c) OpenStreetMap contributors, ODbL 1.0, https://www.openstreetmap.org/copyright",
  "method": "The longest closed coastline ring; the rings segments are cut on simplified to 15 m, islets left as mapped. Built by scripts/make_island_segments.py."
 },
 "features": [
  {
   "type": "Feature",
   "id": "aruba",
   "properties": {
    "name": "Aruba",
    "area_m2": 179128003
   },
   "geometry": {
    "type": "Polygon",
    "coordinates": [
     [
      [
       -70.062991,
       12.5387775
      ],
      [
       -70.0638002,
       12.5407345
      ],
      [
       -70.0636934,
       12.5418816
      ],
      [
       -70.0628829,
       12.543469500000002
      ],
      [
       -70.0582816,
       12.548941999999998
      ],
      [
       -70.056488,
       12.5517099
      ],
      [
       -70.0553709,
       12.5540279
      ],
      [
       -70.05511,
       12.555495999999996
      ],
      [
       -70.0554374,
       12.557435499999997
      ],
      [
       -70.055642,
       12.557574299999999
      ],
      [
       -70.05540730000001,
       12.5577
      ],
      [
       -70.0556177,
       12.557932299999997
      ],
      [
       -70.0550609,
       12.558086499999998
      ],
      [
       -70.0552699,
       12.558220200000001
      ],
      [
       -70.0552982,
       12.559222199999997
      ],
      [
       -70.0551015,
       12.5612018
      ],
      [
       -70.0543663,
       12.562131700000002
      ],
      [
       -70.0538872,
       12.561933799999998
      ],
      [
       -70.0528508,
       12.563627100000001
      ],
      [
       -70.05304720000001,
       12.563954099999998
      ],
      [
       -70.0499117,
       12.566087999999999
      ],
      [
       -70.0485535,
       12.568080999999998
      ],
      [
       -70.0460041,
       12.573727199999997
      ],
      [
       -70.0457941,
       12.5755593
      ],
      [
       -70.0448094,
       12.579123499999998
      ],
      [
       -70.0451149,
       12.5828531
      ],
      [
       -70.0454693,
       12.5842178
      ],
      [
       -70.045749,
       12.584969899999997
      ],
      [
       -70.0464246,
       12.585572399999998
      ],
      [
       -70.0467354,
       12.588476099999998
      ],
      [
       -70.0476051,
       12.5908468
      ],
      [
       -70.0481813,
       12.591682599999997
      ],
      [
       -70.0491564,
       12.595288499999999
      ],
      [
       -70.0497741,
       12.595956599999997
      ],
      [
       -70.0497744,
       12.596939099999998
      ],
      [
       -70.0500182,
       12.597358799999999
      ],
      [
       -70.0498169,
       12.5981194
      ],
      [
       -70.0499235,
       12.598361700000002
      ],
      [
       -70.0501134,
       12.598289200000002
      ],
      [
       -70.0499876,
       12.5986328
      ],
      [
       -70.0502621,
       12.598848100000001
      ],
      [
       -70.0501847,
       12.5993889
      ],
      [
       -70.0505297,
       12.5997979
      ],
      [
       -70.050424,
       12.5999723
      ],
      [
       -70.0511083,
       12.600435000000001
      ],
      [
       -70.0515871,
       12.6013629
      ],
      [
       -70.0513621,
       12.602465899999997
      ],
      [
       -70.0515201,
       12.602689699999999
      ],
      [
       -70.0514986,
       12.604082099999998
      ],
      [
       -70.0524571,
       12.606286000000003
      ],
      [
       -70.0531717,
       12.607049499999999
      ],
      [
       -70.0535581,
       12.610430599999999
      ],
      [
       -70.0541362,
       12.6114205
      ],
      [
       -70.055761,
       12.6130392
      ],
      [
       -70.055855,
       12.613427599999998
      ],
      [
       -70.0577613,
       12.6148203
      ],
      [
       -70.0586008,
       12.615987900000002
      ],
      [
       -70.05973570000002,
       12.6169971
      ],
      [
       -70.0593532,
       12.6183203
      ],
      [
       -70.0591406,
       12.618364699999997
      ],
      [
       -70.0592454,
       12.6185883
      ],
      [
       -70.0584693,
       12.618859799999997
      ],
      [
       -70.0584238,
       12.619932099999998
      ],
      [
       -70.0569883,
       12.6213608
      ],
      [
       -70.0563501,
       12.623042499999999
      ],
      [
       -70.0562,
       12.6231001
      ],
      [
       -70.0561002,
       12.622709499999997
      ],
      [
       -70.0559151,
       12.6231137
      ],
      [
       -70.0554694,
       12.6233691
      ],
      [
       -70.0545427,
       12.623361099999999
      ],
      [
       -70.05150530000002,
       12.6223632
      ],
      [
       -70.0502214,
       12.621113499999996
      ],
      [
       -70.049098,
       12.620778800000002
      ],
      [
       -70.0486324,
       12.620862599999997
      ],
      [
       -70.0476982,
       12.620168500000002
      ],
      [
       -70.0468397,
       12.6201862
      ],
      [
       -70.0467956,
       12.619026000000002
      ],
      [
       -70.04599,
       12.617475500000001
      ],
      [
       -70.0439391,
       12.615266199999999
      ],
      [
       -70.03997850000002,
       12.6126564
      ],
      [
       -70.0382988,
       12.6109733
      ],
      [
       -70.03755690000001,
       12.6106328
      ],
      [
       -70.0360526,
       12.610481299999998
      ],
      [
       -70.034363,
       12.609480099999999
      ],
      [
       -70.0331215,
       12.608251899999999
      ],
      [
       -70.03222590000001,
       12.606750299999998
      ],
      [
       -70.0308793,
       12.6051296
      ],
      [
       -70.0295457,
       12.605589299999998
      ],
      [
       -70.0282981,
       12.605369199999998
      ],
      [
       -70.0270498,
       12.604620799999998
      ],
      [
       -70.0267088,
       12.6041865
      ],
      [
       -70.0240694,
       12.602936500000002
      ],
      [
       -70.0228743,
       12.601997399999997
      ],
      [
       -70.0218708,
       12.600581499999999
      ],
      [
       -70.02171780000002,
       12.599943900000001
      ],
      [
       -70.0207565,
       12.5987657
      ],
      [
       -70.0199148,
       12.5982986
      ],
      [
       -70.0199757,
       12.5981285
      ],
      [
       -70.0197007,
       12.5981466
      ],
      [
       -70.0197176,
       12.5977447
      ],
      [
       -70.0193333,
       12.5974472
      ],
      [
       -70.0192878,
       12.597055299999997
      ],
      [
       -70.0190375,
       12.5970367
      ],
      [
       -70.0191328,
       12.596673899999999
      ],
      [
       -70.0187257,
       12.5960462
      ],
      [
       -70.0187504,
       12.595286000000002
      ],
      [
       -70.018148,
       12.594394199999998
      ],
      [
       -70.0183157,
       12.594185899999998
      ],
      [
       -70.017987,
       12.594019
      ],
      [
       -70.0175363,
       12.593255099999997
      ],
      [
       -70.01729980000002,
       12.592583499999998
      ],
      [
       -70.0174035,
       12.592227399999997
      ],
      [
       -70.0171263,
       12.592224099999997
      ],
      [
       -70.0168761,
       12.591856499999999
      ],
      [
       -70.0169618,
       12.591306499999998
      ],
      [
       -70.0164956,
       12.591130200000002
      ],
      [
       -70.0160573,
       12.5905544
      ],
      [
       -70.0152573,
       12.5886947
      ],
      [
       -70.0139803,
       12.587095799999998
      ],
      [
       -70.0142306,
       12.5866457
      ],
      [
       -70.0138293,
       12.5867303
      ],
      [
       -70.0132264,
       12.585983599999999
      ],
      [
       -70.0131046,
       12.5851785
      ],
      [
       -70.0126825,
       12.5849504
      ],
      [
       -70.0123292,
       12.585205499999999
      ],
      [
       -70.011771,
       12.584701300000003
      ],
      [
       -70.0119238,
       12.584255
      ],
      [
       -70.0116477,
       12.584125999999998
      ],
      [
       -70.0112438,
       12.5843869
      ],
      [
       -70.0107054,
       12.584022899999999
      ],
      [
       -70.0102099,
       12.583525700000001
      ],
      [
       -70.0102457,
       12.5834223
      ],
      [
       -70.0102413,
       12.583316399999996
      ],
      [
       -70.0100598,
       12.583401
      ],
      [
       -70.0093078,
       12.5826698
      ],
      [
       -70.00937640000001,
       12.582299100000002
      ],
      [
       -70.0088106,
       12.582232899999997
      ],
      [
       -70.0081939,
       12.581469999999998
      ],
      [
       -70.0082251,
       12.5811859
      ],
      [
       -70.007647,
       12.580841699999999
      ],
      [
       -70.0077758,
       12.580319499999998
      ],
      [
       -70.0073132,
       12.580437000000002
      ],
      [
       -70.0068743,
       12.5800563
      ],
      [
       -70.0066898,
       12.5797125
      ],
      [
       -70.0069072,
       12.5792147
      ],
      [
       -70.006312,
       12.5794013
      ],
      [
       -70.0052173,
       12.578332199999998
      ],
      [
       -70.0051299,
       12.577812799999998
      ],
      [
       -70.0046581,
       12.577702499999997
      ],
      [
       -70.0038477,
       12.576715699999998
      ],
      [
       -70.0042948,
       12.576259400000001
      ],
      [
       -70.0038608,
       12.5762536
      ],
      [
       -70.0037172,
       12.575946699999998
      ],
      [
       -70.0035343,
       12.5759726
      ],
      [
       -70.0023322,
       12.574526399999998
      ],
      [
       -70.0028118,
       12.5738913
      ],
      [
       -70.0025379,
       12.573534
      ],
      [
       -70.0020747,
       12.5733007
      ],
      [
       -70.0013852,
       12.573844
      ],
      [
       -70.0000008,
       12.573049499999998
      ],
      [
       -69.9989799,
       12.572140500000001
      ],
      [
       -69.9992164,
       12.571332299999998
      ],
      [
       -69.9985986,
       12.571801799999998
      ],
      [
       -69.9980131,
       12.571289599999998
      ],
      [
       -69.9982203,
       12.5707992
      ],
      [
       -69.9977099,
       12.5710959
      ],
      [
       -69.9970281,
       12.5705514
      ],
      [
       -69.9970856,
       12.570147499999997
      ],
      [
       -69.9967894,
       12.570292799999999
      ],
      [
       -69.996949,
       12.569913199999998
      ],
      [
       -69.9967914,
       12.569527899999997
      ],
      [
       -69.9965396,
       12.569497799999999
      ],
      [
       -69.9962684,
       12.5698308
      ],
      [
       -69.9956832,
       12.5693006
      ],
      [
       -69.9956789,
       12.569005
      ],
      [
       -69.99531390000001,
       12.5690101
      ],
      [
       -69.9944935,
       12.5682829
      ],
      [
       -69.9942338,
       12.5683931
      ],
      [
       -69.9937786,
       12.567801799999998
      ],
      [
       -69.993207,
       12.566359499999997
      ],
      [
       -69.9914834,
       12.565429599999996
      ],
      [
       -69.9915642,
       12.5651414
      ],
      [
       -69.9910242,
       12.5645152
      ],
      [
       -69.9911101,
       12.563915100000001
      ],
      [
       -69.99082880000002,
       12.563992199999996
      ],
      [
       -69.9904879,
       12.563547500000004
      ],
      [
       -69.9906873,
       12.563266399999998
      ],
      [
       -69.9902449,
       12.5631675
      ],
      [
       -69.9895436,
       12.562624099999997
      ],
      [
       -69.9895593,
       12.5623846
      ],
      [
       -69.9892824,
       12.562344899999996
      ],
      [
       -69.9893145,
       12.5619635
      ],
      [
       -69.9888104,
       12.5610089
      ],
      [
       -69.98899150000001,
       12.560724999999998
      ],
      [
       -69.9884818,
       12.560558
      ],
      [
       -69.9882128,
       12.559313599999998
      ],
      [
       -69.9878875,
       12.5590359
      ],
      [
       -69.9873988,
       12.558877699999998
      ],
      [
       -69.9871671,
       12.559019899999997
      ],
      [
       -69.9871432,
       12.5586806
      ],
      [
       -69.9866307,
       12.558762999999999
      ],
      [
       -69.9850543,
       12.5577683
      ],
      [
       -69.9838093,
       12.557388500000002
      ],
      [
       -69.9830263,
       12.557541699999998
      ],
      [
       -69.9826807,
       12.5573805
      ],
      [
       -69.9819455,
       12.558052599999998
      ],
      [
       -69.98075670000001,
       12.5576834
      ],
      [
       -69.9798885,
       12.557148100000003
      ],
      [
       -69.9804386,
       12.556446500000002
      ],
      [
       -69.9803063,
       12.5562222
      ],
      [
       -69.9799055,
       12.556137
      ],
      [
       -69.9799133,
       12.5564118
      ],
      [
       -69.9792941,
       12.5566742
      ],
      [
       -69.9763403,
       12.5550718
      ],
      [
       -69.9748265,
       12.5539246
      ],
      [
       -69.9744652,
       12.553208699999997
      ],
      [
       -69.9747809,
       12.5528271
      ],
      [
       -69.9745598,
       12.552422000000002
      ],
      [
       -69.9731413,
       12.5526318
      ],
      [
       -69.9731986,
       12.552271699999997
      ],
      [
       -69.972835,
       12.552543
      ],
      [
       -69.9715631,
       12.5518333
      ],
      [
       -69.9713977,
       12.551656399999999
      ],
      [
       -69.9715407,
       12.551460100000002
      ],
      [
       -69.9710978,
       12.551147
      ],
      [
       -69.9716944,
       12.550289399999999
      ],
      [
       -69.9713897,
       12.549992100000003
      ],
      [
       -69.97106960000002,
       12.549870899999998
      ],
      [
       -69.9699872,
       12.550873399999999
      ],
      [
       -69.9678907,
       12.549621999999998
      ],
      [
       -69.9681314,
       12.549101200000003
      ],
      [
       -69.9677091,
       12.549528
      ],
      [
       -69.9669436,
       12.5492962
      ],
      [
       -69.96685330000001,
       12.5495668
      ],
      [
       -69.9666732,
       12.5495202
      ],
      [
       -69.9665749,
       12.548650800000003
      ],
      [
       -69.9663646,
       12.548469600000002
      ],
      [
       -69.9655121,
       12.548641999999996
      ],
      [
       -69.9653193,
       12.547940699999998
      ],
      [
       -69.9641513,
       12.547278199999997
      ],
      [
       -69.9644827,
       12.5465679
      ],
      [
       -69.9639559,
       12.547141799999999
      ],
      [
       -69.9626445,
       12.546237899999998
      ],
      [
       -69.9628212,
       12.545739500000002
      ],
      [
       -69.9622813,
       12.546155699999996
      ],
      [
       -69.9620756,
       12.545791199999998
      ],
      [
       -69.9619389,
       12.5459461
      ],
      [
       -69.96152230000001,
       12.545709099999998
      ],
      [
       -69.9614188,
       12.5454576
      ],
      [
       -69.961776,
       12.544940699999998
      ],
      [
       -69.9611648,
       12.545351999999998
      ],
      [
       -69.960485,
       12.544949399999998
      ],
      [
       -69.9607282,
       12.544226899999996
      ],
      [
       -69.9600188,
       12.544539699999998
      ],
      [
       -69.9595707,
       12.544123999999998
      ],
      [
       -69.958298,
       12.544772899999998
      ],
      [
       -69.9575796,
       12.5446345
      ],
      [
       -69.9573324,
       12.544412899999998
      ],
      [
       -69.9578875,
       12.543487799999996
      ],
      [
       -69.95779430000002,
       12.543212400000002
      ],
      [
       -69.9575829,
       12.543212399999998
      ],
      [
       -69.95770790000002,
       12.543120299999998
      ],
      [
       -69.9575016,
       12.543136299999999
      ],
      [
       -69.957674,
       12.541690100000002
      ],
      [
       -69.9575046,
       12.5415336
      ],
      [
       -69.958003,
       12.540888700000002
      ],
      [
       -69.9571458,
       12.5399504
      ],
      [
       -69.9574663,
       12.538767000000002
      ],
      [
       -69.9570658,
       12.5384759
      ],
      [
       -69.9563258,
       12.538598599999998
      ],
      [
       -69.9562624,
       12.537744899999998
      ],
      [
       -69.9553334,
       12.537810499999997
      ],
      [
       -69.955253,
       12.538193099999999
      ],
      [
       -69.9548979,
       12.538439999999998
      ],
      [
       -69.9549974,
       12.537977899999998
      ],
      [
       -69.9547908,
       12.5376911
      ],
      [
       -69.9537012,
       12.537606100000001
      ],
      [
       -69.952954,
       12.538028599999999
      ],
      [
       -69.9524124,
       12.538023200000001
      ],
      [
       -69.9516015,
       12.5384688
      ],
      [
       -69.9509354,
       12.5385591
      ],
      [
       -69.95068790000002,
       12.5384865
      ],
      [
       -69.9507897,
       12.537934299999998
      ],
      [
       -69.9502806,
       12.5379176
      ],
      [
       -69.9499968,
       12.538197999999998
      ],
      [
       -69.9502525,
       12.5385433
      ],
      [
       -69.9501924,
       12.538994399999998
      ],
      [
       -69.9489819,
       12.539015699999997
      ],
      [
       -69.948865,
       12.538645299999999
      ],
      [
       -69.9481109,
       12.5394815
      ],
      [
       -69.9482023,
       12.539834
      ],
      [
       -69.9480064,
       12.539639999999999
      ],
      [
       -69.9474335,
       12.5397773
      ],
      [
       -69.947489,
       12.540205
      ],
      [
       -69.94720300000002,
       12.540343299999998
      ],
      [
       -69.9465564,
       12.5399658
      ],
      [
       -69.946837,
       12.539711200000001
      ],
      [
       -69.9462644,
       12.539629700000003
      ],
      [
       -69.9465955,
       12.5395294
      ],
      [
       -69.9467322,
       12.539201099999996
      ],
      [
       -69.9456657,
       12.5391217
      ],
      [
       -69.9456847,
       12.538935800000003
      ],
      [
       -69.9451563,
       12.5386101
      ],
      [
       -69.9450948,
       12.5381059
      ],
      [
       -69.9447506,
       12.538065400000002
      ],
      [
       -69.9449195,
       12.5378652
      ],
      [
       -69.9447359,
       12.536372599999998
      ],
      [
       -69.94421280000002,
       12.536404099999999
      ],
      [
       -69.9438422,
       12.536894299999998
      ],
      [
       -69.9434843,
       12.536811199999999
      ],
      [
       -69.9425461,
       12.5356935
      ],
      [
       -69.9428265,
       12.5354356
      ],
      [
       -69.9426708,
       12.5350854
      ],
      [
       -69.9422119,
       12.535040499999996
      ],
      [
       -69.9420216,
       12.5346984
      ],
      [
       -69.9417121,
       12.534907
      ],
      [
       -69.9412806,
       12.5347312
      ],
      [
       -69.9406623,
       12.5335833
      ],
      [
       -69.9402738,
       12.5334924
      ],
      [
       -69.9391794,
       12.5324529
      ],
      [
       -69.9389139,
       12.531602
      ],
      [
       -69.9395227,
       12.5313087
      ],
      [
       -69.939803,
       12.530915999999998
      ],
      [
       -69.9394275,
       12.530159300000001
      ],
      [
       -69.9387939,
       12.530540299999998
      ],
      [
       -69.9377237,
       12.5306725
      ],
      [
       -69.93726430000001,
       12.530061800000002
      ],
      [
       -69.9372804,
       12.529616
      ],
      [
       -69.9368674,
       12.529631699999998
      ],
      [
       -69.9353868,
       12.5287899
      ],
      [
       -69.9354686,
       12.528403700000002
      ],
      [
       -69.9350709,
       12.527963199999999
      ],
      [
       -69.9354056,
       12.527224500000003
      ],
      [
       -69.9352211,
       12.5268334
      ],
      [
       -69.9345312,
       12.526733199999999
      ],
      [
       -69.9345217,
       12.527084099999998
      ],
      [
       -69.9341154,
       12.5273702
      ],
      [
       -69.9337741,
       12.5272451
      ],
      [
       -69.9341684,
       12.526881799999996
      ],
      [
       -69.9343796,
       12.526956400000001
      ],
      [
       -69.9344332,
       12.526715499999996
      ],
      [
       -69.9339277,
       12.526252099999999
      ],
      [
       -69.9330157,
       12.5270736
      ],
      [
       -69.931629,
       12.525748699999998
      ],
      [
       -69.9302383,
       12.525549699999997
      ],
      [
       -69.930072,
       12.525189699999999
      ],
      [
       -69.92941890000002,
       12.525033899999997
      ],
      [
       -69.929093,
       12.524684299999999
      ],
      [
       -69.9285619,
       12.524820499999999
      ],
      [
       -69.9283178,
       12.524569799999998
      ],
      [
       -69.9287912,
       12.524347900000002
      ],
      [
       -69.9291815,
       12.523714200000002
      ],
      [
       -69.9294658,
       12.522641999999998
      ],
      [
       -69.9291335,
       12.5224135
      ],
      [
       -69.9297152,
       12.5222204
      ],
      [
       -69.9299151,
       12.5218434
      ],
      [
       -69.9297052,
       12.521565799999998
      ],
      [
       -69.9292492,
       12.521732700000001
      ],
      [
       -69.9295691,
       12.521249600000003
      ],
      [
       -69.9290789,
       12.5211043
      ],
      [
       -69.9288261,
       12.5206926
      ],
      [
       -69.928869,
       12.520216000000003
      ],
      [
       -69.9292767,
       12.520066800000002
      ],
      [
       -69.929276,
       12.519874299999996
      ],
      [
       -69.9286383,
       12.5198147
      ],
      [
       -69.9287396,
       12.519201399999998
      ],
      [
       -69.9280818,
       12.5191065
      ],
      [
       -69.9277378,
       12.5188282
      ],
      [
       -69.9272919,
       12.517968099999997
      ],
      [
       -69.9269392,
       12.517871199999998
      ],
      [
       -69.9266924,
       12.5174719
      ],
      [
       -69.9273737,
       12.5167243
      ],
      [
       -69.9273281,
       12.516153499999998
      ],
      [
       -69.9269754,
       12.515722099999998
      ],
      [
       -69.926156,
       12.5159008
      ],
      [
       -69.9253513,
       12.515583999999999
      ],
      [
       -69.9250509,
       12.5152344
      ],
      [
       -69.9244863,
       12.515142799999998
      ],
      [
       -69.92441860000001,
       12.514433799999999
      ],
      [
       -69.9240283,
       12.514568699999996
      ],
      [
       -69.9238855,
       12.514371
      ],
      [
       -69.9245238,
       12.5136254
      ],
      [
       -69.92438970000002,
       12.513047999999998
      ],
      [
       -69.9237473,
       12.5127455
      ],
      [
       -69.923353,
       12.5129603
      ],
      [
       -69.9226892,
       12.5128398
      ],
      [
       -69.9222802,
       12.5120477
      ],
      [
       -69.922423,
       12.5118893
      ],
      [
       -69.9215211,
       12.5118264
      ],
      [
       -69.9213105,
       12.511406200000001
      ],
      [
       -69.9206252,
       12.511144300000003
      ],
      [
       -69.9206051,
       12.5101336
      ],
      [
       -69.919893,
       12.510091699999998
      ],
      [
       -69.9197415,
       12.509819300000002
      ],
      [
       -69.9191413,
       12.5096969
      ],
      [
       -69.9193304,
       12.5092695
      ],
      [
       -69.9184674,
       12.508536299999998
      ],
      [
       -69.9179551,
       12.5074836
      ],
      [
       -69.9185693,
       12.507226999999997
      ],
      [
       -69.91854790000001,
       12.5067517
      ],
      [
       -69.9178827,
       12.5064781
      ],
      [
       -69.9180879,
       12.506118
      ],
      [
       -69.9175709,
       12.5053554
      ],
      [
       -69.91639600000002,
       12.5056748
      ],
      [
       -69.9156994,
       12.5055851
      ],
      [
       -69.9148706,
       12.504866999999999
      ],
      [
       -69.91451050000002,
       12.5050392
      ],
      [
       -69.914086,
       12.5042732
      ],
      [
       -69.9132552,
       12.504463699999997
      ],
      [
       -69.9131459,
       12.502819899999999
      ],
      [
       -69.9121374,
       12.5033855
      ],
      [
       -69.9113709,
       12.50329
      ],
      [
       -69.9109197,
       12.5027256
      ],
      [
       -69.9105247,
       12.502577699999998
      ],
      [
       -69.9104677,
       12.502146899999996
      ],
      [
       -69.9098682,
       12.502153499999999
      ],
      [
       -69.9093881,
       12.501464799999999
      ],
      [
       -69.9083246,
       12.500624199999999
      ],
      [
       -69.9085513,
       12.5000016
      ],
      [
       -69.908265,
       12.4997646
      ],
      [
       -69.9083763,
       12.499543999999998
      ],
      [
       -69.907237,
       12.4996789
      ],
      [
       -69.9069205,
       12.499224599999998
      ],
      [
       -69.9073818,
       12.498798999999998
      ],
      [
       -69.907532,
       12.498093300000003
      ],
      [
       -69.9071673,
       12.497841899999997
      ],
      [
       -69.90661200000001,
       12.498328300000002
      ],
      [
       -69.9062882,
       12.4981594
      ],
      [
       -69.90604340000002,
       12.497572199999999
      ],
      [
       -69.9052206,
       12.497716900000002
      ],
      [
       -69.9046138,
       12.496440899999998
      ],
      [
       -69.9035302,
       12.496120099999999
      ],
      [
       -69.902578,
       12.494526699999998
      ],
      [
       -69.9026357,
       12.493881799999999
      ],
      [
       -69.9030125,
       12.493618
      ],
      [
       -69.9030004,
       12.4932723
      ],
      [
       -69.9008212,
       12.4916762
      ],
      [
       -69.9006414,
       12.4908873
      ],
      [
       -69.9008111,
       12.490547600000001
      ],
      [
       -69.90047250000002,
       12.4907053
      ],
      [
       -69.9003451,
       12.4900421
      ],
      [
       -69.8994103,
       12.489861399999999
      ],
      [
       -69.8990415,
       12.489523600000002
      ],
      [
       -69.8985386,
       12.488779899999999
      ],
      [
       -69.898607,
       12.4879393
      ],
      [
       -69.8980732,
       12.487447
      ],
      [
       -69.8971767,
       12.485935900000001
      ],
      [
       -69.8958088,
       12.484699899999999
      ],
      [
       -69.8949538,
       12.484219999999999
      ],
      [
       -69.8939064,
       12.484107999999999
      ],
      [
       -69.8932271,
       12.483581600000003
      ],
      [
       -69.8920409,
       12.483648400000002
      ],
      [
       -69.8917332,
       12.483288999999997
      ],
      [
       -69.8910861,
       12.483938499999999
      ],
      [
       -69.88917310000001,
       12.4836513
      ],
      [
       -69.888144,
       12.482819199999998
      ],
      [
       -69.8862751,
       12.479902700000002
      ],
      [
       -69.8853522,
       12.479050299999999
      ],
      [
       -69.8842078,
       12.476686200000001
      ],
      [
       -69.8835496,
       12.474259199999997
      ],
      [
       -69.8838105,
       12.4740977
      ],
      [
       -69.8834681,
       12.474015599999998
      ],
      [
       -69.8835737,
       12.473812
      ],
      [
       -69.8834238,
       12.4737904
      ],
      [
       -69.8830553,
       12.4717352
      ],
      [
       -69.8834364,
       12.471663099999999
      ],
      [
       -69.8834129,
       12.471374299999999
      ],
      [
       -69.8829264,
       12.471340999999997
      ],
      [
       -69.88258510000001,
       12.469606299999999
      ],
      [
       -69.8829144,
       12.469406399999997
      ],
      [
       -69.8824139,
       12.469295400000002
      ],
      [
       -69.8824487,
       12.468627799999998
      ],
      [
       -69.881962,
       12.467434799999998
      ],
      [
       -69.8817566,
       12.466216699999999
      ],
      [
       -69.8820827,
       12.464603700000001
      ],
      [
       -69.8825825,
       12.4638968
      ],
      [
       -69.8824777,
       12.463327799999998
      ],
      [
       -69.8820401,
       12.4630439
      ],
      [
       -69.8810841,
       12.462909
      ],
      [
       -69.8802468,
       12.4618965
      ],
      [
       -69.8800962,
       12.460964299999997
      ],
      [
       -69.8795481,
       12.460056500000002
      ],
      [
       -69.8793982,
       12.4590538
      ],
      [
       -69.8784691,
       12.4573567
      ],
      [
       -69.8781422,
       12.455266700000001
      ],
      [
       -69.8771001,
       12.452567499999999
      ],
      [
       -69.8767388,
       12.450715699999998
      ],
      [
       -69.8755773,
       12.449065900000003
      ],
      [
       -69.8750304,
       12.446606399999999
      ],
      [
       -69.8742843,
       12.444813999999996
      ],
      [
       -69.8738806,
       12.444674799999998
      ],
      [
       -69.8732799,
       12.4431236
      ],
      [
       -69.8741155,
       12.441863299999998
      ],
      [
       -69.8746885,
       12.439274299999997
      ],
      [
       -69.87442,
       12.4384841
      ],
      [
       -69.87387250000002,
       12.4379379
      ],
      [
       -69.8727896,
       12.437937599999998
      ],
      [
       -69.8722078,
       12.437433
      ],
      [
       -69.8716476,
       12.435554299999998
      ],
      [
       -69.8716843,
       12.434275499999996
      ],
      [
       -69.8713477,
       12.433056199999998
      ],
      [
       -69.8714094,
       12.4328532
      ],
      [
       -69.8719271,
       12.432743199999999
      ],
      [
       -69.8720343,
       12.432257300000002
      ],
      [
       -69.87177280000002,
       12.4317597
      ],
      [
       -69.8712203,
       12.431349699999998
      ],
      [
       -69.8712015,
       12.4304539
      ],
      [
       -69.8704131,
       12.4290988
      ],
      [
       -69.8683709,
       12.421658599999999
      ],
      [
       -69.8674219,
       12.421025300000002
      ],
      [
       -69.8672689,
       12.420610600000002
      ],
      [
       -69.8669345,
       12.420589299999998
      ],
      [
       -69.8671868,
       12.420319900000003
      ],
      [
       -69.8670901,
       12.419938299999998
      ],
      [
       -69.866881,
       12.4199749
      ],
      [
       -69.8669973,
       12.419681099999998
      ],
      [
       -69.8666737,
       12.419564399999999
      ],
      [
       -69.8666803,
       12.419375699999998
      ],
      [
       -69.8662532,
       12.419349999999998
      ],
      [
       -69.8663292,
       12.419174200000002
      ],
      [
       -69.8659787,
       12.4187601
      ],
      [
       -69.8661011,
       12.4185669
      ],
      [
       -69.8654556,
       12.418072999999996
      ],
      [
       -69.8668855,
       12.4171444
      ],
      [
       -69.8671164,
       12.4166372
      ],
      [
       -69.8666394,
       12.416179699999997
      ],
      [
       -69.8668017,
       12.4158869
      ],
      [
       -69.8667355,
       12.4149142
      ],
      [
       -69.8669251,
       12.4148191
      ],
      [
       -69.8678997,
       12.415450899999998
      ],
      [
       -69.8690012,
       12.415467399999997
      ],
      [
       -69.8688873,
       12.415625299999999
      ],
      [
       -69.869136,
       12.415718300000002
      ],
      [
       -69.8691105,
       12.41549
      ],
      [
       -69.8723654,
       12.4143543
      ],
      [
       -69.8735162,
       12.413445499999998
      ],
      [
       -69.8736851,
       12.413162200000002
      ],
      [
       -69.8736073,
       12.4125674
      ],
      [
       -69.8744643,
       12.412419499999999
      ],
      [
       -69.879515,
       12.4123995
      ],
      [
       -69.87938070000001,
       12.413045400000001
      ],
      [
       -69.8800138,
       12.414030400000001
      ],
      [
       -69.8816948,
       12.414269099999999
      ],
      [
       -69.8825337,
       12.413905400000003
      ],
      [
       -69.8830927,
       12.413244899999999
      ],
      [
       -69.8825663,
       12.412115999999996
      ],
      [
       -69.8820416,
       12.412169199999997
      ],
      [
       -69.8820918,
       12.411910399999998
      ],
      [
       -69.8827412,
       12.4118418
      ],
      [
       -69.8839586,
       12.4121543
      ],
      [
       -69.8839695,
       12.412315199999997
      ],
      [
       -69.8832945,
       12.4123212
      ],
      [
       -69.8835759,
       12.4127611
      ],
      [
       -69.8844756,
       12.413260900000001
      ],
      [
       -69.8840964,
       12.4132172
      ],
      [
       -69.8850116,
       12.414364499999996
      ],
      [
       -69.88453210000002,
       12.414744
      ],
      [
       -69.884119,
       12.415584900000004
      ],
      [
       -69.8839782,
       12.416334
      ],
      [
       -69.8841754,
       12.416925999999998
      ],
      [
       -69.8848459,
       12.417794399999998
      ],
      [
       -69.8848861,
       12.418182099999996
      ],
      [
       -69.8858679,
       12.4193102
      ],
      [
       -69.8868559,
       12.4199591
      ],
      [
       -69.8876867,
       12.420921999999997
      ],
      [
       -69.8887104,
       12.420959399999996
      ],
      [
       -69.8893011,
       12.4216952
      ],
      [
       -69.8900834,
       12.4218617
      ],
      [
       -69.8906876,
       12.4223469
      ],
      [
       -69.8913466,
       12.422418099999998
      ],
      [
       -69.8917899,
       12.4229237
      ],
      [
       -69.8916945,
       12.422343100000003
      ],
      [
       -69.892272,
       12.4223949
      ],
      [
       -69.89308880000002,
       12.423043299999996
      ],
      [
       -69.8930225,
       12.423206700000001
      ],
      [
       -69.8933494,
       12.423028200000001
      ],
      [
       -69.8921403,
       12.422016600000001
      ],
      [
       -69.892499,
       12.4215712
      ],
      [
       -69.89308800000002,
       12.421401499999996
      ],
      [
       -69.8940841,
       12.421519199999999
      ],
      [
       -69.8953665,
       12.422122299999996
      ],
      [
       -69.8955014,
       12.4224511
      ],
      [
       -69.8963952,
       12.422769599999999
      ],
      [
       -69.8970405,
       12.422839100000001
      ],
      [
       -69.8973143,
       12.422343799999998
      ],
      [
       -69.8997568,
       12.423538
      ],
      [
       -69.8998028,
       12.423950400000003
      ],
      [
       -69.901022,
       12.425156299999996
      ],
      [
       -69.9028704,
       12.424984099999998
      ],
      [
       -69.9031324,
       12.4247214
      ],
      [
       -69.9039982,
       12.4245729
      ],
      [
       -69.9040361,
       12.424723999999996
      ],
      [
       -69.9029446,
       12.425104600000001
      ],
      [
       -69.9009119,
       12.425257800000002
      ],
      [
       -69.9007617,
       12.425565499999998
      ],
      [
       -69.9017198,
       12.425445799999999
      ],
      [
       -69.90345020000001,
       12.425631799999998
      ],
      [
       -69.9010545,
       12.425768199999998
      ],
      [
       -69.9008991,
       12.4259282
      ],
      [
       -69.9016237,
       12.4260884
      ],
      [
       -69.9015833,
       12.426581
      ],
      [
       -69.9024617,
       12.426530899999998
      ],
      [
       -69.9034246,
       12.4261844
      ],
      [
       -69.9037292,
       12.427441500000002
      ],
      [
       -69.9042292,
       12.427587799999998
      ],
      [
       -69.9044076,
       12.428036499999996
      ],
      [
       -69.9061384,
       12.429317399999999
      ],
      [
       -69.907228,
       12.4304919
      ],
      [
       -69.9079777,
       12.4307201
      ],
      [
       -69.9080848,
       12.430956500000002
      ],
      [
       -69.9084161,
       12.431013999999998
      ],
      [
       -69.9083963,
       12.431222300000002
      ],
      [
       -69.909282,
       12.431377200000002
      ],
      [
       -69.9094947,
       12.431693299999997
      ],
      [
       -69.9106895,
       12.4319244
      ],
      [
       -69.9137516,
       12.4315648
      ],
      [
       -69.9140605,
       12.4317926
      ],
      [
       -69.9148291,
       12.431758399999998
      ],
      [
       -69.9180696,
       12.4308153
      ],
      [
       -69.9210401,
       12.431061000000001
      ],
      [
       -69.9217565,
       12.431567100000002
      ],
      [
       -69.9222735,
       12.4326502
      ],
      [
       -69.9242234,
       12.434035799999998
      ],
      [
       -69.9263343,
       12.4351045
      ],
      [
       -69.9277854,
       12.436322500000001
      ],
      [
       -69.9338982,
       12.438421799999999
      ],
      [
       -69.9332775,
       12.438580699999996
      ],
      [
       -69.9271068,
       12.4364669
      ],
      [
       -69.92545380000001,
       12.435628399999999
      ],
      [
       -69.9239832,
       12.438256499999998
      ],
      [
       -69.9255534,
       12.439099499999998
      ],
      [
       -69.9253336,
       12.4395171
      ],
      [
       -69.9271144,
       12.4398391
      ],
      [
       -69.9277644,
       12.440375500000002
      ],
      [
       -69.9284955,
       12.4403515
      ],
      [
       -69.9284606,
       12.440670500000001
      ],
      [
       -69.9287977,
       12.440498600000002
      ],
      [
       -69.9286649,
       12.440213099999998
      ],
      [
       -69.9298748,
       12.4398886
      ],
      [
       -69.9316786,
       12.4404295
      ],
      [
       -69.9336438,
       12.440354199999998
      ],
      [
       -69.9339079,
       12.440669000000002
      ],
      [
       -69.9342671,
       12.4406197
      ],
      [
       -69.9349211,
       12.441413899999997
      ],
      [
       -69.9357609,
       12.441492399999998
      ],
      [
       -69.9358046,
       12.4410986
      ],
      [
       -69.9359769,
       12.441082999999997
      ],
      [
       -69.9358737,
       12.441596299999999
      ],
      [
       -69.9362749,
       12.441640000000001
      ],
      [
       -69.9364117,
       12.441334699999999
      ],
      [
       -69.9365467,
       12.4415634
      ],
      [
       -69.9367144,
       12.4413946
      ],
      [
       -69.936845,
       12.441603100000002
      ],
      [
       -69.937242,
       12.441524699999997
      ],
      [
       -69.9375662,
       12.442059100000002
      ],
      [
       -69.9385432,
       12.441994199999998
      ],
      [
       -69.9387047,
       12.441606800000002
      ],
      [
       -69.93903530000001,
       12.4416844
      ],
      [
       -69.93873470000001,
       12.441771
      ],
      [
       -69.9387348,
       12.442109699999996
      ],
      [
       -69.940014,
       12.442725599999996
      ],
      [
       -69.9408583,
       12.442631999999998
      ],
      [
       -69.9414406,
       12.443115199999998
      ],
      [
       -69.9411237,
       12.4437695
      ],
      [
       -69.9414422,
       12.443994299999996
      ],
      [
       -69.9428213,
       12.4442337
      ],
      [
       -69.9437361,
       12.4439982
      ],
      [
       -69.9441767,
       12.444435699999998
      ],
      [
       -69.94433940000002,
       12.444353199999997
      ],
      [
       -69.9454698,
       12.445018199999998
      ],
      [
       -69.9473891,
       12.446664799999999
      ],
      [
       -69.9481966,
       12.4470766
      ],
      [
       -69.949379,
       12.448370199999994
      ],
      [
       -69.9516428,
       12.449627
      ],
      [
       -69.9525044,
       12.449855499999996
      ],
      [
       -69.9526465,
       12.4497142
      ],
      [
       -69.9527529,
       12.449951299999999
      ],
      [
       -69.9529313,
       12.449801399999997
      ],
      [
       -69.9534041,
       12.450388400000001
      ],
      [
       -69.9541374,
       12.4504763
      ],
      [
       -69.9548873,
       12.451917699999997
      ],
      [
       -69.9557185,
       12.452123399999998
      ],
      [
       -69.955561,
       12.452434300000002
      ],
      [
       -69.9557743,
       12.4529832
      ],
      [
       -69.9566071,
       12.453298700000003
      ],
      [
       -69.9567814,
       12.4539594
      ],
      [
       -69.9575901,
       12.4544839
      ],
      [
       -69.9584888,
       12.454687199999999
      ],
      [
       -69.95879450000001,
       12.455251100000002
      ],
      [
       -69.959766,
       12.455361600000002
      ],
      [
       -69.9600533,
       12.455584299999998
      ],
      [
       -69.9600279,
       12.455911
      ],
      [
       -69.9603017,
       12.456000100000002
      ],
      [
       -69.9603997,
       12.455777400000002
      ],
      [
       -69.9606693,
       12.456052700000003
      ],
      [
       -69.960338,
       12.4572758
      ],
      [
       -69.9609877,
       12.4576896
      ],
      [
       -69.9612614,
       12.458451899999996
      ],
      [
       -69.9620104,
       12.458354899999998
      ],
      [
       -69.9633769,
       12.4589402
      ],
      [
       -69.963665,
       12.459794599999999
      ],
      [
       -69.9647972,
       12.460845
      ],
      [
       -69.9648731,
       12.461201399999998
      ],
      [
       -69.9658513,
       12.4621053
      ],
      [
       -69.9664792,
       12.462302100000002
      ],
      [
       -69.9671576,
       12.462911099999998
      ],
      [
       -69.9680246,
       12.462654399999998
      ],
      [
       -69.968939,
       12.4629133
      ],
      [
       -69.9691314,
       12.463186299999998
      ],
      [
       -69.9689821,
       12.463597500000002
      ],
      [
       -69.9699078,
       12.464202199999999
      ],
      [
       -69.9701603,
       12.4641521
      ],
      [
       -69.96979850000001,
       12.4651758
      ],
      [
       -69.97187,
       12.4660411
      ],
      [
       -69.9734394,
       12.4675026
      ],
      [
       -69.9755534,
       12.468853100000002
      ],
      [
       -69.9760918,
       12.469435499999998
      ],
      [
       -69.9767499,
       12.469865999999998
      ],
      [
       -69.9769892,
       12.469718999999998
      ],
      [
       -69.9773427,
       12.469929999999998
      ],
      [
       -69.9782764,
       12.4710723
      ],
      [
       -69.9778469,
       12.4715301
      ],
      [
       -69.9786901,
       12.4722169
      ],
      [
       -69.9786909,
       12.4725034
      ],
      [
       -69.981067,
       12.474408100000002
      ],
      [
       -69.9813712,
       12.474330699999998
      ],
      [
       -69.9819515,
       12.474804899999999
      ],
      [
       -69.9817228,
       12.475014499999999
      ],
      [
       -69.9833153,
       12.476192599999996
      ],
      [
       -69.9850347,
       12.476712900000003
      ],
      [
       -69.9861316,
       12.4775107
      ],
      [
       -69.9869423,
       12.477712200000001
      ],
      [
       -69.9892195,
       12.478864399999997
      ],
      [
       -69.9894433,
       12.4792292
      ],
      [
       -69.9899389,
       12.479425600000003
      ],
      [
       -69.9898126,
       12.480054700000002
      ],
      [
       -69.9909253,
       12.480818799999998
      ],
      [
       -69.991026,
       12.4802209
      ],
      [
       -69.9913523,
       12.480659999999997
      ],
      [
       -69.9924052,
       12.480728300000003
      ],
      [
       -69.993596,
       12.481327099999996
      ],
      [
       -69.9945283,
       12.481347999999999
      ],
      [
       -69.9946651,
       12.4811995
      ],
      [
       -69.9939017,
       12.480607000000001
      ],
      [
       -69.9947215,
       12.478865699999998
      ],
      [
       -69.9956825,
       12.479291100000003
      ],
      [
       -69.9958809,
       12.478869499999998
      ],
      [
       -69.9996042,
       12.4806566
      ],
      [
       -69.9993223,
       12.481227099999998
      ],
      [
       -70.0002014,
       12.481682099999997
      ],
      [
       -70.0003447,
       12.4820707
      ],
      [
       -70.0001635,
       12.482145400000002
      ],
      [
       -70.0007772,
       12.4839959
      ],
      [
       -70.0006615,
       12.484753799999998
      ],
      [
       -70.0015232,
       12.485230300000001
      ],
      [
       -70.0055453,
       12.4862781
      ],
      [
       -70.0097424,
       12.4883988
      ],
      [
       -70.0117004,
       12.490498900000002
      ],
      [
       -70.0133313,
       12.4928393
      ],
      [
       -70.01212470000002,
       12.491665300000001
      ],
      [
       -70.0113915,
       12.490525899999998
      ],
      [
       -70.0100277,
       12.489802299999997
      ],
      [
       -70.0095169,
       12.490224
      ],
      [
       -70.0094014,
       12.4910176
      ],
      [
       -70.0091607,
       12.491248399999996
      ],
      [
       -70.0094471,
       12.4915821
      ],
      [
       -70.0095086,
       12.492563499999997
      ],
      [
       -70.0103349,
       12.492653099999998
      ],
      [
       -70.0115802,
       12.493775299999998
      ],
      [
       -70.0126304,
       12.494153800000001
      ],
      [
       -70.0150779,
       12.496907000000002
      ],
      [
       -70.0172214,
       12.498310099999998
      ],
      [
       -70.0180902,
       12.4993693
      ],
      [
       -70.0184204,
       12.499189199999995
      ],
      [
       -70.0186436,
       12.499457700000004
      ],
      [
       -70.0187624,
       12.499372599999997
      ],
      [
       -70.0185256,
       12.499072299999996
      ],
      [
       -70.0197584,
       12.498352499999996
      ],
      [
       -70.0200891,
       12.4990015
      ],
      [
       -70.0199143,
       12.499132700000002
      ],
      [
       -70.0200756,
       12.499573
      ],
      [
       -70.0214222,
       12.4998009
      ],
      [
       -70.0220674,
       12.500382999999996
      ],
      [
       -70.0219407,
       12.500578099999998
      ],
      [
       -70.0214542,
       12.500094099999998
      ],
      [
       -70.021344,
       12.5007592
      ],
      [
       -70.0216401,
       12.5012995
      ],
      [
       -70.0223305,
       12.5011651
      ],
      [
       -70.022927,
       12.5016386
      ],
      [
       -70.0240029,
       12.5016579
      ],
      [
       -70.0254312,
       12.5020317
      ],
      [
       -70.0287788,
       12.5034803
      ],
      [
       -70.0295266,
       12.505191299999998
      ],
      [
       -70.0289506,
       12.5052086
      ],
      [
       -70.028768,
       12.505517799999998
      ],
      [
       -70.029456,
       12.5053329
      ],
      [
       -70.0303553,
       12.506122299999996
      ],
      [
       -70.0298185,
       12.506974399999999
      ],
      [
       -70.029681,
       12.5083564
      ],
      [
       -70.03034480000001,
       12.5104209
      ],
      [
       -70.0312856,
       12.5120671
      ],
      [
       -70.033282,
       12.514385100000002
      ],
      [
       -70.034386,
       12.5151147
      ],
      [
       -70.0353093,
       12.514919
      ],
      [
       -70.0351625,
       12.5152371
      ],
      [
       -70.0353147,
       12.515305599999998
      ],
      [
       -70.0356307,
       12.515288399999998
      ],
      [
       -70.0364425,
       12.514590599999998
      ],
      [
       -70.0367524,
       12.5147082
      ],
      [
       -70.0389297,
       12.516931200000002
      ],
      [
       -70.0383954,
       12.516554000000001
      ],
      [
       -70.0378125,
       12.517261
      ],
      [
       -70.0375694,
       12.5170683
      ],
      [
       -70.0373733,
       12.5173001
      ],
      [
       -70.0371887,
       12.517168400000001
      ],
      [
       -70.0369009,
       12.517532299999997
      ],
      [
       -70.0377912,
       12.518149899999997
      ],
      [
       -70.0379884,
       12.517859099999997
      ],
      [
       -70.0378371,
       12.518254399999995
      ],
      [
       -70.038108,
       12.518437699999998
      ],
      [
       -70.0379602,
       12.518616900000001
      ],
      [
       -70.0381513,
       12.5184625
      ],
      [
       -70.0388444,
       12.518953199999999
      ],
      [
       -70.0389463,
       12.518812700000002
      ],
      [
       -70.0389221,
       12.5190312
      ],
      [
       -70.0399902,
       12.519775199999996
      ],
      [
       -70.0408635,
       12.518732099999996
      ],
      [
       -70.0400104,
       12.517992199999997
      ],
      [
       -70.0403057,
       12.5176532
      ],
      [
       -70.0398312,
       12.517241699999998
      ],
      [
       -70.0399756,
       12.517080499999999
      ],
      [
       -70.0435709,
       12.520173000000002
      ],
      [
       -70.042144,
       12.520379600000002
      ],
      [
       -70.0426091,
       12.520994599999998
      ],
      [
       -70.04444670000001,
       12.5208523
      ],
      [
       -70.044796,
       12.521269299999998
      ],
      [
       -70.0433785,
       12.521358399999999
      ],
      [
       -70.04342200000002,
       12.521615299999999
      ],
      [
       -70.0438316,
       12.5219702
      ],
      [
       -70.0456689,
       12.5218691
      ],
      [
       -70.0476476,
       12.523501199999997
      ],
      [
       -70.0475127,
       12.523738499999999
      ],
      [
       -70.0492142,
       12.525233900000002
      ],
      [
       -70.049979,
       12.525535
      ],
      [
       -70.0509109,
       12.526483599999999
      ],
      [
       -70.050667,
       12.526955
      ],
      [
       -70.0513977,
       12.5278748
      ],
      [
       -70.0519247,
       12.527982100000001
      ],
      [
       -70.0523525,
       12.5278172
      ],
      [
       -70.0526463,
       12.528238699999998
      ],
      [
       -70.052258,
       12.5290982
      ],
      [
       -70.0531156,
       12.5303682
      ],
      [
       -70.0547786,
       12.531346699999999
      ],
      [
       -70.0561388,
       12.531537700000001
      ],
      [
       -70.0571121,
       12.532841699999997
      ],
      [
       -70.0577156,
       12.5352728
      ],
      [
       -70.058181,
       12.5358881
      ],
      [
       -70.0594269,
       12.5367679
      ],
      [
       -70.06192,
       12.537839400000001
      ],
      [
       -70.06210100000001,
       12.538186999999999
      ],
      [
       -70.062991,
       12.5387775
      ]
     ]
    ]
   }
  }
 ]
}
