{
 "type": "FeatureCollection",
 "crs": {
  "type": "name",
  "properties": {
   "name": "urn:ogc:def:crs:OGC:1.3:CRS84"
  }
 },
 "properties": {
  "title": "Aruba coastal segments",
  "source": "Coastline from OpenStreetMap, natural=coastline ways within 12.38..12.66N, -70.1..-69.84E, retrieved 2026-10-04 via Overpass; landmark positions from OpenStreetMap, listed in island.toml.",
  "license": "Geometry (c) OpenStreetMap contributors, ODbL 1.0, https://www.openstreetmap.org/copyright",
  "method": "Arcs of the merged coastline between named landmarks, snapped to the nearest coastline point, cut in EPSG:32619 and simplified to 15 m. Built by scripts/make_island_segments.py.",
  "island": "Aruba"
 },
 "features": [
  {
   "type": "Feature",
   "id": "kudareu_boca_chiquito",
   "properties": {
    "name": "Kudareu to Boca Chiquito",
    "exposure": "windward",
    "from": "Kudareu, the north-west point by California Lighthouse",
    "from_osm": "node/7452989994",
    "to": "Boca Chiquito",
    "to_osm": "node/3101287429",
    "length_m": 9902,
    "note": "North coast from the north-west point past the California dunes to Boca Chiquito below Alto Vista."
   },
   "geometry": {
    "type": "LineString",
    "coordinates": [
     [
      -69.99924454095864,
      12.57135893004439
     ],
     [
      -69.9989799,
      12.572140500000001
     ],
     [
      -70.0000008,
      12.573049499999998
     ],
     [
      -70.0013852,
      12.573844
     ],
     [
      -70.0020747,
      12.5733007
     ],
     [
      -70.0026897,
      12.573684399999996
     ],
     [
      -70.0028118,
      12.5738913
     ],
     [
      -70.0023322,
      12.574526399999998
     ],
     [
      -70.0035343,
      12.5759726
     ],
     [
      -70.0037172,
      12.575946699999998
     ],
     [
      -70.0038608,
      12.5762536
     ],
     [
      -70.0042948,
      12.576259400000001
     ],
     [
      -70.0038477,
      12.576715699999998
     ],
     [
      -70.0046581,
      12.577702499999997
     ],
     [
      -70.0051299,
      12.577812799999998
     ],
     [
      -70.0050861,
      12.578185699999999
     ],
     [
      -70.006138,
      12.579269000000002
     ],
     [
      -70.0064342,
      12.5794094
     ],
     [
      -70.0069072,
      12.5792147
     ],
     [
      -70.0067133,
      12.579817799999999
     ],
     [
      -70.0073132,
      12.580437000000002
     ],
     [
      -70.0077758,
      12.580319499999998
     ],
     [
      -70.0076029,
      12.580770999999999
     ],
     [
      -70.0082251,
      12.5811859
     ],
     [
      -70.0081939,
      12.581469999999998
     ],
     [
      -70.0088106,
      12.582232899999997
     ],
     [
      -70.00937640000001,
      12.582299100000002
     ],
     [
      -70.0093078,
      12.5826698
     ],
     [
      -70.0100598,
      12.583401
     ],
     [
      -70.0102413,
      12.583316399999996
     ],
     [
      -70.0102099,
      12.583525700000001
     ],
     [
      -70.0110051,
      12.5842711
     ],
     [
      -70.0113698,
      12.5843882
     ],
     [
      -70.0116477,
      12.584125999999998
     ],
     [
      -70.011847,
      12.584202800000002
     ],
     [
      -70.011771,
      12.584701300000003
     ],
     [
      -70.0123292,
      12.585205499999999
     ],
     [
      -70.0127278,
      12.584957699999997
     ],
     [
      -70.0132745,
      12.5853909
     ],
     [
      -70.0132264,
      12.585983599999999
     ],
     [
      -70.0138293,
      12.5867303
     ],
     [
      -70.0142306,
      12.5866457
     ],
     [
      -70.0139803,
      12.587095799999998
     ],
     [
      -70.0152573,
      12.5886947
     ],
     [
      -70.0160573,
      12.5905544
     ],
     [
      -70.0164956,
      12.591130200000002
     ],
     [
      -70.0169618,
      12.591306499999998
     ],
     [
      -70.0168761,
      12.591856499999999
     ],
     [
      -70.0171263,
      12.592224099999997
     ],
     [
      -70.0174035,
      12.592227399999997
     ],
     [
      -70.01729980000002,
      12.592583499999998
     ],
     [
      -70.0175363,
      12.593255099999997
     ],
     [
      -70.017987,
      12.594019
     ],
     [
      -70.0183157,
      12.594185899999998
     ],
     [
      -70.018148,
      12.594394199999998
     ],
     [
      -70.0187504,
      12.595286000000002
     ],
     [
      -70.0187257,
      12.5960462
     ],
     [
      -70.0191328,
      12.596673899999999
     ],
     [
      -70.0190375,
      12.5970367
     ],
     [
      -70.0192878,
      12.597055299999997
     ],
     [
      -70.0193333,
      12.5974472
     ],
     [
      -70.0197176,
      12.5977447
     ],
     [
      -70.0197007,
      12.5981466
     ],
     [
      -70.0199757,
      12.5981285
     ],
     [
      -70.0199148,
      12.5982986
     ],
     [
      -70.020964,
      12.5989908
     ],
     [
      -70.02171780000002,
      12.599943900000001
     ],
     [
      -70.02245560000001,
      12.601534699999997
     ],
     [
      -70.023185,
      12.602279199999995
     ],
     [
      -70.024179,
      12.6029981
     ],
     [
      -70.0267088,
      12.6041865
     ],
     [
      -70.0270498,
      12.604620799999998
     ],
     [
      -70.0282981,
      12.605369199999998
     ],
     [
      -70.0295457,
      12.605589299999998
     ],
     [
      -70.0308793,
      12.6051296
     ],
     [
      -70.03222590000001,
      12.606750299999998
     ],
     [
      -70.0331215,
      12.608251899999999
     ],
     [
      -70.034363,
      12.609480099999999
     ],
     [
      -70.0360526,
      12.610481299999998
     ],
     [
      -70.03755690000001,
      12.6106328
     ],
     [
      -70.0382988,
      12.6109733
     ],
     [
      -70.03997850000002,
      12.6126564
     ],
     [
      -70.0439391,
      12.615266199999999
     ],
     [
      -70.04599,
      12.617475500000001
     ],
     [
      -70.0467956,
      12.619026000000002
     ],
     [
      -70.0468397,
      12.6201862
     ],
     [
      -70.0476982,
      12.620168500000002
     ],
     [
      -70.0486324,
      12.620862599999997
     ],
     [
      -70.049098,
      12.620778800000002
     ],
     [
      -70.0502214,
      12.621113499999996
     ],
     [
      -70.05150530000002,
      12.6223632
     ],
     [
      -70.0545427,
      12.623361099999999
     ],
     [
      -70.0554694,
      12.6233691
     ],
     [
      -70.0559151,
      12.6231137
     ],
     [
      -70.0561002,
      12.622709499999997
     ],
     [
      -70.0562,
      12.6231001
     ],
     [
      -70.0563501,
      12.623042499999999
     ]
    ]
   }
  },
  {
   "type": "Feature",
   "id": "boca_chiquito_bushiribana",
   "properties": {
    "name": "Boca Chiquito to Bushiribana",
    "exposure": "windward",
    "from": "Boca Chiquito",
    "from_osm": "node/3101287429",
    "to": "Bushiribana gold smelter ruins",
    "to_osm": "way/79210010",
    "length_m": 4112,
    "note": "Alto Vista coast, Wariruri and Boedoei, to the gold smelter ruins."
   },
   "geometry": {
    "type": "LineString",
    "coordinates": [
     [
      -69.97579045039782,
      12.554624956194942
     ],
     [
      -69.9792941,
      12.5566742
     ],
     [
      -69.9799133,
      12.5564118
     ],
     [
      -69.9799055,
      12.556137
     ],
     [
      -69.980187,
      12.556146799999999
     ],
     [
      -69.9804386,
      12.556446500000002
     ],
     [
      -69.9798885,
      12.557148100000003
     ],
     [
      -69.980927,
      12.5577479
     ],
     [
      -69.9819455,
      12.558052599999998
     ],
     [
      -69.9826807,
      12.5573805
     ],
     [
      -69.9830263,
      12.557541699999998
     ],
     [
      -69.9838093,
      12.557388500000002
     ],
     [
      -69.9850543,
      12.5577683
     ],
     [
      -69.9866307,
      12.558762999999999
     ],
     [
      -69.9871432,
      12.5586806
     ],
     [
      -69.9871671,
      12.559019899999997
     ],
     [
      -69.9873988,
      12.558877699999998
     ],
     [
      -69.9878875,
      12.5590359
     ],
     [
      -69.9882128,
      12.559313599999998
     ],
     [
      -69.9884818,
      12.560558
     ],
     [
      -69.98899150000001,
      12.560724999999998
     ],
     [
      -69.9888104,
      12.5610089
     ],
     [
      -69.9893145,
      12.5619635
     ],
     [
      -69.9892824,
      12.562344899999996
     ],
     [
      -69.9895593,
      12.5623846
     ],
     [
      -69.9895436,
      12.562624099999997
     ],
     [
      -69.9902449,
      12.5631675
     ],
     [
      -69.9906873,
      12.563266399999998
     ],
     [
      -69.9904879,
      12.563547500000004
     ],
     [
      -69.99082880000002,
      12.563992199999996
     ],
     [
      -69.9911101,
      12.563915100000001
     ],
     [
      -69.9910242,
      12.5645152
     ],
     [
      -69.9915642,
      12.5651414
     ],
     [
      -69.9914834,
      12.565429599999996
     ],
     [
      -69.993207,
      12.566359499999997
     ],
     [
      -69.9937786,
      12.567801799999998
     ],
     [
      -69.9942465,
      12.568403399999998
     ],
     [
      -69.9944935,
      12.5682829
     ],
     [
      -69.99531390000001,
      12.5690101
     ],
     [
      -69.9956789,
      12.569005
     ],
     [
      -69.9956832,
      12.5693006
     ],
     [
      -69.9962684,
      12.5698308
     ],
     [
      -69.9965396,
      12.569497799999999
     ],
     [
      -69.9967914,
      12.569527899999997
     ],
     [
      -69.996949,
      12.569913199999998
     ],
     [
      -69.9967894,
      12.570292799999999
     ],
     [
      -69.9970856,
      12.570147499999997
     ],
     [
      -69.9969961,
      12.570488100000002
     ],
     [
      -69.9973415,
      12.570861499999996
     ],
     [
      -69.9977099,
      12.5710959
     ],
     [
      -69.9982203,
      12.5707992
     ],
     [
      -69.9980131,
      12.571289599999998
     ],
     [
      -69.9985986,
      12.571801799999998
     ],
     [
      -69.99924454095864,
      12.57135893004439
     ]
    ]
   }
  },
  {
   "type": "Feature",
   "id": "bushiribana_andicuri",
   "properties": {
    "name": "Bushiribana to Andicuri",
    "exposure": "windward",
    "from": "Bushiribana gold smelter ruins",
    "from_osm": "way/79210010",
    "to": "Andicuri",
    "to_osm": "node/7452928954",
    "length_m": 4117,
    "note": "Boca Mahos and the collapsed Natural Bridge."
   },
   "geometry": {
    "type": "LineString",
    "coordinates": [
     [
      -69.9572694,
      12.540220300000001
     ],
     [
      -69.958003,
      12.540888700000002
     ],
     [
      -69.95751820000001,
      12.541469
     ],
     [
      -69.957674,
      12.541690100000002
     ],
     [
      -69.957437,
      12.5427961
     ],
     [
      -69.9578875,
      12.543487799999996
     ],
     [
      -69.9573252,
      12.5444547
     ],
     [
      -69.958298,
      12.544772899999998
     ],
     [
      -69.9593211,
      12.544179999999999
     ],
     [
      -69.9595834,
      12.544126599999998
     ],
     [
      -69.9601335,
      12.5445444
     ],
     [
      -69.9607282,
      12.544226899999996
     ],
     [
      -69.960485,
      12.544949399999998
     ],
     [
      -69.9611648,
      12.545351999999998
     ],
     [
      -69.961776,
      12.544940699999998
     ],
     [
      -69.9614188,
      12.5454576
     ],
     [
      -69.96152230000001,
      12.545709099999998
     ],
     [
      -69.9619389,
      12.5459461
     ],
     [
      -69.9620756,
      12.545791199999998
     ],
     [
      -69.9622813,
      12.546155699999996
     ],
     [
      -69.9628212,
      12.545739500000002
     ],
     [
      -69.9626445,
      12.546237899999998
     ],
     [
      -69.9639559,
      12.547141799999999
     ],
     [
      -69.9644827,
      12.5465679
     ],
     [
      -69.9641513,
      12.547278199999997
     ],
     [
      -69.9653193,
      12.547940699999998
     ],
     [
      -69.9655121,
      12.548641999999996
     ],
     [
      -69.9663646,
      12.548469600000002
     ],
     [
      -69.9665749,
      12.548650800000003
     ],
     [
      -69.9666732,
      12.5495202
     ],
     [
      -69.96685330000001,
      12.5495668
     ],
     [
      -69.9669436,
      12.5492962
     ],
     [
      -69.9677091,
      12.549528
     ],
     [
      -69.9681314,
      12.549101200000003
     ],
     [
      -69.9678907,
      12.549621999999998
     ],
     [
      -69.9699872,
      12.550873399999999
     ],
     [
      -69.97106960000002,
      12.549870899999998
     ],
     [
      -69.9713897,
      12.549992100000003
     ],
     [
      -69.9716944,
      12.550289399999999
     ],
     [
      -69.9710978,
      12.551147
     ],
     [
      -69.9715407,
      12.551460100000002
     ],
     [
      -69.9713977,
      12.551656399999999
     ],
     [
      -69.9715631,
      12.5518333
     ],
     [
      -69.972835,
      12.552543
     ],
     [
      -69.9731986,
      12.552271699999997
     ],
     [
      -69.9731413,
      12.5526318
     ],
     [
      -69.9745598,
      12.552422000000002
     ],
     [
      -69.9747889,
      12.552658599999997
     ],
     [
      -69.9744652,
      12.553208699999997
     ],
     [
      -69.9746022,
      12.553697800000002
     ],
     [
      -69.97579045039782,
      12.554624956194942
     ]
    ]
   }
  },
  {
   "type": "Feature",
   "id": "andicuri_boca_prins",
   "properties": {
    "name": "Andicuri to Boca Prins",
    "exposure": "windward",
    "from": "Andicuri",
    "from_osm": "node/7452928954",
    "to": "Boca Prins",
    "to_osm": "node/6496597934",
    "length_m": 11554,
    "note": "Blackstone Beach, Daimari, Boca Keto, Conchi and Dos Playa, along Arikok National Park."
   },
   "geometry": {
    "type": "LineString",
    "coordinates": [
     [
      -69.90661200000001,
      12.498328300000002
     ],
     [
      -69.9071673,
      12.497841899999997
     ],
     [
      -69.907532,
      12.498093300000003
     ],
     [
      -69.9073818,
      12.498798999999998
     ],
     [
      -69.9069198,
      12.499292599999999
     ],
     [
      -69.907296,
      12.499707699999998
     ],
     [
      -69.9083763,
      12.499543999999998
     ],
     [
      -69.908265,
      12.4997646
     ],
     [
      -69.9085513,
      12.5000016
     ],
     [
      -69.9083246,
      12.500624199999999
     ],
     [
      -69.9093881,
      12.501464799999999
     ],
     [
      -69.9098682,
      12.502153499999999
     ],
     [
      -69.9104677,
      12.502146899999996
     ],
     [
      -69.9105247,
      12.502577699999998
     ],
     [
      -69.9109197,
      12.5027256
     ],
     [
      -69.9113709,
      12.50329
     ],
     [
      -69.9121374,
      12.5033855
     ],
     [
      -69.9131177,
      12.502804199999998
     ],
     [
      -69.9132552,
      12.504463699999997
     ],
     [
      -69.914086,
      12.5042732
     ],
     [
      -69.91451050000002,
      12.5050392
     ],
     [
      -69.9148706,
      12.504866999999999
     ],
     [
      -69.9156994,
      12.5055851
     ],
     [
      -69.91639600000002,
      12.5056748
     ],
     [
      -69.9175709,
      12.5053554
     ],
     [
      -69.9180879,
      12.506118
     ],
     [
      -69.9178827,
      12.5064781
     ],
     [
      -69.91854790000001,
      12.5067517
     ],
     [
      -69.9185693,
      12.507226999999997
     ],
     [
      -69.9179551,
      12.5074836
     ],
     [
      -69.9184674,
      12.508536299999998
     ],
     [
      -69.9193304,
      12.5092695
     ],
     [
      -69.9191413,
      12.5096969
     ],
     [
      -69.9197415,
      12.509819300000002
     ],
     [
      -69.919893,
      12.510091699999998
     ],
     [
      -69.9206051,
      12.5101336
     ],
     [
      -69.9206252,
      12.511144300000003
     ],
     [
      -69.9213105,
      12.511406200000001
     ],
     [
      -69.9215211,
      12.5118264
     ],
     [
      -69.922423,
      12.5118893
     ],
     [
      -69.9222802,
      12.5120477
     ],
     [
      -69.9226892,
      12.5128398
     ],
     [
      -69.923353,
      12.5129603
     ],
     [
      -69.9237473,
      12.5127455
     ],
     [
      -69.92438970000002,
      12.513047999999998
     ],
     [
      -69.9245238,
      12.5136254
     ],
     [
      -69.9238855,
      12.514371
     ],
     [
      -69.9240283,
      12.514568699999996
     ],
     [
      -69.92441860000001,
      12.514433799999999
     ],
     [
      -69.9244863,
      12.515142799999998
     ],
     [
      -69.9250509,
      12.5152344
     ],
     [
      -69.9253513,
      12.515583999999999
     ],
     [
      -69.926156,
      12.5159008
     ],
     [
      -69.9269754,
      12.515722099999998
     ],
     [
      -69.9273281,
      12.516153499999998
     ],
     [
      -69.9273737,
      12.5167243
     ],
     [
      -69.9266924,
      12.5174719
     ],
     [
      -69.9269392,
      12.517871199999998
     ],
     [
      -69.9272919,
      12.517968099999997
     ],
     [
      -69.9277378,
      12.5188282
     ],
     [
      -69.9280818,
      12.5191065
     ],
     [
      -69.9287396,
      12.519201399999998
     ],
     [
      -69.9286383,
      12.5198147
     ],
     [
      -69.929276,
      12.519874299999996
     ],
     [
      -69.9292767,
      12.520066800000002
     ],
     [
      -69.928869,
      12.520216000000003
     ],
     [
      -69.9288261,
      12.5206926
     ],
     [
      -69.9290789,
      12.5211043
     ],
     [
      -69.9295691,
      12.521249600000003
     ],
     [
      -69.9292492,
      12.521732700000001
     ],
     [
      -69.9297052,
      12.521565799999998
     ],
     [
      -69.9299151,
      12.5218434
     ],
     [
      -69.9297152,
      12.5222204
     ],
     [
      -69.9291335,
      12.5224135
     ],
     [
      -69.9294658,
      12.522641999999998
     ],
     [
      -69.9291815,
      12.523714200000002
     ],
     [
      -69.9287912,
      12.524347900000002
     ],
     [
      -69.9283178,
      12.524569799999998
     ],
     [
      -69.9285619,
      12.524820499999999
     ],
     [
      -69.929093,
      12.524684299999999
     ],
     [
      -69.92941890000002,
      12.525033899999997
     ],
     [
      -69.930072,
      12.525189699999999
     ],
     [
      -69.9302383,
      12.525549699999997
     ],
     [
      -69.931629,
      12.525748699999998
     ],
     [
      -69.9330157,
      12.5270736
     ],
     [
      -69.9339277,
      12.526252099999999
     ],
     [
      -69.9344332,
      12.526715499999996
     ],
     [
      -69.9343796,
      12.526956400000001
     ],
     [
      -69.9341684,
      12.526881799999996
     ],
     [
      -69.9337741,
      12.5272451
     ],
     [
      -69.9341154,
      12.5273702
     ],
     [
      -69.9345217,
      12.527084099999998
     ],
     [
      -69.9345312,
      12.526733199999999
     ],
     [
      -69.9352211,
      12.5268334
     ],
     [
      -69.9354056,
      12.527224500000003
     ],
     [
      -69.9350709,
      12.527963199999999
     ],
     [
      -69.9354686,
      12.528403700000002
     ],
     [
      -69.9353868,
      12.5287899
     ],
     [
      -69.9368674,
      12.529631699999998
     ],
     [
      -69.9372804,
      12.529616
     ],
     [
      -69.93726430000001,
      12.530061800000002
     ],
     [
      -69.9377237,
      12.5306725
     ],
     [
      -69.9387939,
      12.530540299999998
     ],
     [
      -69.9394275,
      12.530159300000001
     ],
     [
      -69.939803,
      12.530915999999998
     ],
     [
      -69.9395227,
      12.5313087
     ],
     [
      -69.9389139,
      12.531602
     ],
     [
      -69.9391794,
      12.5324529
     ],
     [
      -69.9402738,
      12.5334924
     ],
     [
      -69.9406623,
      12.5335833
     ],
     [
      -69.9412806,
      12.5347312
     ],
     [
      -69.9417121,
      12.534907
     ],
     [
      -69.9420216,
      12.5346984
     ],
     [
      -69.9422119,
      12.535040499999996
     ],
     [
      -69.9426708,
      12.5350854
     ],
     [
      -69.9428265,
      12.5354356
     ],
     [
      -69.9425461,
      12.5356935
     ],
     [
      -69.9434843,
      12.536811199999999
     ],
     [
      -69.9438422,
      12.536894299999998
     ],
     [
      -69.94421280000002,
      12.536404099999999
     ],
     [
      -69.9447359,
      12.536372599999998
     ],
     [
      -69.9449195,
      12.5378652
     ],
     [
      -69.9447506,
      12.538065400000002
     ],
     [
      -69.9450948,
      12.5381059
     ],
     [
      -69.9451563,
      12.5386101
     ],
     [
      -69.9456847,
      12.538935800000003
     ],
     [
      -69.9456657,
      12.5391217
     ],
     [
      -69.9467322,
      12.539201099999996
     ],
     [
      -69.9465955,
      12.5395294
     ],
     [
      -69.9462644,
      12.539629700000003
     ],
     [
      -69.946837,
      12.539711200000001
     ],
     [
      -69.9465564,
      12.5399658
     ],
     [
      -69.94720300000002,
      12.540343299999998
     ],
     [
      -69.947489,
      12.540205
     ],
     [
      -69.9474335,
      12.5397773
     ],
     [
      -69.9480064,
      12.539639999999999
     ],
     [
      -69.9482023,
      12.539834
     ],
     [
      -69.9481109,
      12.5394815
     ],
     [
      -69.948865,
      12.538645299999999
     ],
     [
      -69.9489819,
      12.539015699999997
     ],
     [
      -69.9501924,
      12.538994399999998
     ],
     [
      -69.9502525,
      12.5385433
     ],
     [
      -69.9499968,
      12.538197999999998
     ],
     [
      -69.9502806,
      12.5379176
     ],
     [
      -69.9507897,
      12.537934299999998
     ],
     [
      -69.9507638,
      12.5385485
     ],
     [
      -69.95138190000002,
      12.5385244
     ],
     [
      -69.9537012,
      12.537606100000001
     ],
     [
      -69.9543869,
      12.537575999999996
     ],
     [
      -69.9549974,
      12.537977899999998
     ],
     [
      -69.9548979,
      12.538439999999998
     ],
     [
      -69.955253,
      12.538193099999999
     ],
     [
      -69.9553334,
      12.537810499999997
     ],
     [
      -69.9562624,
      12.537744899999998
     ],
     [
      -69.9563258,
      12.538598599999998
     ],
     [
      -69.9570658,
      12.5384759
     ],
     [
      -69.9574663,
      12.538767000000002
     ],
     [
      -69.9571825,
      12.539626099999998
     ],
     [
      -69.9572694,
      12.540220300000001
     ]
    ]
   }
  },
  {
   "type": "Feature",
   "id": "boca_prins_rincon",
   "properties": {
    "name": "Boca Prins to Rincon",
    "exposure": "windward",
    "from": "Boca Prins",
    "from_osm": "node/6496597934",
    "to": "Rincon",
    "to_osm": "node/7452929386",
    "length_m": 5576,
    "note": "Fontein and Punt Kalkoven."
   },
   "geometry": {
    "type": "LineString",
    "coordinates": [
     [
      -69.88224635100937,
      12.464389114789403
     ],
     [
      -69.8817582,
      12.4658875
     ],
     [
      -69.881962,
      12.467434799999998
     ],
     [
      -69.8824487,
      12.468627799999998
     ],
     [
      -69.8824139,
      12.469295400000002
     ],
     [
      -69.8829144,
      12.469406399999997
     ],
     [
      -69.88258510000001,
      12.469606299999999
     ],
     [
      -69.8829264,
      12.471340999999997
     ],
     [
      -69.8834129,
      12.471374299999999
     ],
     [
      -69.8834364,
      12.471663099999999
     ],
     [
      -69.8830553,
      12.4717352
     ],
     [
      -69.8834238,
      12.4737904
     ],
     [
      -69.8835737,
      12.473812
     ],
     [
      -69.8834681,
      12.474015599999998
     ],
     [
      -69.8838105,
      12.4740977
     ],
     [
      -69.8835496,
      12.474259199999997
     ],
     [
      -69.8842078,
      12.476686200000001
     ],
     [
      -69.8853522,
      12.479050299999999
     ],
     [
      -69.8862751,
      12.479902700000002
     ],
     [
      -69.888144,
      12.482819199999998
     ],
     [
      -69.8891354,
      12.4836337
     ],
     [
      -69.8908672,
      12.4839641
     ],
     [
      -69.8912758,
      12.4838596
     ],
     [
      -69.8917332,
      12.483288999999997
     ],
     [
      -69.8921234,
      12.483674599999999
     ],
     [
      -69.8932271,
      12.483581600000003
     ],
     [
      -69.8939064,
      12.484107999999999
     ],
     [
      -69.8949538,
      12.484219999999999
     ],
     [
      -69.8963331,
      12.485104500000002
     ],
     [
      -69.8971767,
      12.485935900000001
     ],
     [
      -69.8980732,
      12.487447
     ],
     [
      -69.898607,
      12.4879393
     ],
     [
      -69.8985386,
      12.488779899999999
     ],
     [
      -69.8990415,
      12.489523600000002
     ],
     [
      -69.8994103,
      12.489861399999999
     ],
     [
      -69.9003451,
      12.4900421
     ],
     [
      -69.90047250000002,
      12.4907053
     ],
     [
      -69.9008111,
      12.490547600000001
     ],
     [
      -69.9006414,
      12.4908873
     ],
     [
      -69.9008212,
      12.4916762
     ],
     [
      -69.9030004,
      12.4932723
     ],
     [
      -69.9030125,
      12.493618
     ],
     [
      -69.9025324,
      12.494226799999996
     ],
     [
      -69.9032982,
      12.495824199999998
     ],
     [
      -69.9037032,
      12.4962563
     ],
     [
      -69.9046138,
      12.496440899999998
     ],
     [
      -69.9052206,
      12.497716900000002
     ],
     [
      -69.90604340000002,
      12.497572199999999
     ],
     [
      -69.9062882,
      12.4981594
     ],
     [
      -69.90661200000001,
      12.498328300000002
     ]
    ]
   }
  },
  {
   "type": "Feature",
   "id": "rincon_punta_basora",
   "properties": {
    "name": "Rincon to Punta Basora (Boca Grandi)",
    "exposure": "windward",
    "from": "Rincon",
    "from_osm": "node/7452929386",
    "to": "Punta Basora, below Seroe Colorado lighthouse",
    "to_osm": "node/7452929444",
    "length_m": 6378,
    "note": "Grapefield Beach, Boca Grandi and Bachelor's Beach, to the south-east point at Seroe Colorado."
   },
   "geometry": {
    "type": "LineString",
    "coordinates": [
     [
      -69.86668187106687,
      12.41624084585609
     ],
     [
      -69.8671164,
      12.4166372
     ],
     [
      -69.8669273,
      12.4170977
     ],
     [
      -69.8654556,
      12.418072999999996
     ],
     [
      -69.8661011,
      12.4185669
     ],
     [
      -69.8659787,
      12.4187601
     ],
     [
      -69.8663292,
      12.419174200000002
     ],
     [
      -69.8662532,
      12.419349999999998
     ],
     [
      -69.8666803,
      12.419375699999998
     ],
     [
      -69.8666737,
      12.419564399999999
     ],
     [
      -69.8669973,
      12.419681099999998
     ],
     [
      -69.866881,
      12.4199749
     ],
     [
      -69.8670901,
      12.419938299999998
     ],
     [
      -69.8671868,
      12.420319900000003
     ],
     [
      -69.8669345,
      12.420589299999998
     ],
     [
      -69.8672689,
      12.420610600000002
     ],
     [
      -69.8674219,
      12.421025300000002
     ],
     [
      -69.8683709,
      12.421658599999999
     ],
     [
      -69.8704131,
      12.4290988
     ],
     [
      -69.8712015,
      12.4304539
     ],
     [
      -69.8712203,
      12.431349699999998
     ],
     [
      -69.87177280000002,
      12.4317597
     ],
     [
      -69.8720343,
      12.432257300000002
     ],
     [
      -69.8719271,
      12.432743199999999
     ],
     [
      -69.8714094,
      12.4328532
     ],
     [
      -69.8713477,
      12.433056199999998
     ],
     [
      -69.8716843,
      12.434275499999996
     ],
     [
      -69.8716476,
      12.435554299999998
     ],
     [
      -69.8722078,
      12.437433
     ],
     [
      -69.8727896,
      12.437937599999998
     ],
     [
      -69.87387250000002,
      12.4379379
     ],
     [
      -69.87442,
      12.4384841
     ],
     [
      -69.8746885,
      12.439274299999997
     ],
     [
      -69.8741155,
      12.441863299999998
     ],
     [
      -69.8732799,
      12.4431236
     ],
     [
      -69.8738806,
      12.444674799999998
     ],
     [
      -69.8742843,
      12.444813999999996
     ],
     [
      -69.8750304,
      12.446606399999999
     ],
     [
      -69.8755773,
      12.449065900000003
     ],
     [
      -69.8767388,
      12.450715699999998
     ],
     [
      -69.8771001,
      12.452567499999999
     ],
     [
      -69.8781422,
      12.455266700000001
     ],
     [
      -69.8784691,
      12.4573567
     ],
     [
      -69.8793982,
      12.4590538
     ],
     [
      -69.8801926,
      12.461776199999997
     ],
     [
      -69.8810841,
      12.462909
     ],
     [
      -69.8824639,
      12.463289699999999
     ],
     [
      -69.8825825,
      12.4638968
     ],
     [
      -69.88224635100937,
      12.464389114789403
     ]
    ]
   }
  },
  {
   "type": "Feature",
   "id": "eagle_palm",
   "properties": {
    "name": "Eagle Beach to Palm Beach",
    "exposure": "leeward",
    "from": "Eagle Beach",
    "from_osm": "way/25590792",
    "to": "Palm Beach",
    "to_osm": "way/23060047",
    "length_m": 3744,
    "note": "Leeward control: the hotel beaches north of Oranjestad, which sargassum should not reach."
   },
   "geometry": {
    "type": "LineString",
    "coordinates": [
     [
      -70.0458815,
      12.574589999999999
     ],
     [
      -70.0460041,
      12.573727199999997
     ],
     [
      -70.0478491,
      12.569388
     ],
     [
      -70.0494316,
      12.566625999999996
     ],
     [
      -70.0517216,
      12.564708999999999
     ],
     [
      -70.0519398,
      12.5647578
     ],
     [
      -70.05248,
      12.5641861
     ],
     [
      -70.05304720000001,
      12.563954099999998
     ],
     [
      -70.0528508,
      12.563627100000001
     ],
     [
      -70.0538872,
      12.561933799999998
     ],
     [
      -70.0543663,
      12.562131700000002
     ],
     [
      -70.055066,
      12.561278899999998
     ],
     [
      -70.0552982,
      12.559222199999997
     ],
     [
      -70.0552699,
      12.558220200000001
     ],
     [
      -70.0550609,
      12.558086499999998
     ],
     [
      -70.0556177,
      12.557932299999997
     ],
     [
      -70.05540730000001,
      12.5577
     ],
     [
      -70.055642,
      12.557574299999999
     ],
     [
      -70.0554374,
      12.557435499999997
     ],
     [
      -70.05511,
      12.555495999999996
     ],
     [
      -70.0553709,
      12.5540279
     ],
     [
      -70.056488,
      12.5517099
     ],
     [
      -70.0582816,
      12.548941999999998
     ],
     [
      -70.06002659249394,
      12.547006177587066
     ]
    ]
   }
  }
 ]
}
